{
"type": "FeatureCollection",
"generator": "JOSM",
"name": "islands",
"features": [
{ "type": "Feature", "properties": { }, "geometry": { "type": "Polygon", "coordinates": [ [ [ 140.401953912795847, 70.543124716402488 ], [ 140.401953912795847, 67.427259882619367 ], [ 143.175183700413356, 67.427259882619367 ], [ 143.175183700413356, 70.543124716402488 ], [ 140.401953912795847, 70.543124716402488 ] ] ] } },
{ "type": "Feature", "properties": { }, "geometry": { "type": "Polygon", "coordinates": [ [ [ 252.763951297381311, 155.080544916757617 ], [ 252.763951297381311, 152.025401349141987 ], [ 256.448968003429854, 152.028437484370187 ], [ 256.448968003429854, 155.083571239989993 ], [ 252.763951297381311, 155.080544916757617 ] ] ] } },
{ "type": "Feature", "properties": { }, "geometry": { "type": "Polygon", "coordinates": [ [ [ 160.896953345700297, 66.378135994229254 ], [ 160.896953345700297, 63.259293474789629 ], [ 163.670183133318261, 63.259293474789629 ], [ 163.670183133318261, 66.378135994229254 ], [ 160.896953345700297, 66.378135994229254 ] ] ] } },
{ "type": "Feature", "properties": { }, "geometry": { "type": "Polygon", "coordinates": [ [ [ 324.751016661755386, 127.468388769619452 ], [ 324.751016661755386, 124.393350981742188 ], [ 327.524261322702955, 124.393350981742188 ], [ 327.524261322702955, 127.468388769619452 ], [ 324.751016661755386, 127.468388769619452 ] ] ] } },
{ "type": "Feature", "properties": { }, "geometry": { "type": "Polygon", "coordinates": [ [ [ 166.999415380654511, 94.196525957520194 ], [ 166.999415380654511, 91.097596967754271 ], [ 169.77264516767184, 91.097596967754271 ], [ 169.77264516767184, 94.196525957520194 ], [ 166.999415380654511, 94.196525957520194 ] ] ] } },
{ "type": "Feature", "properties": { }, "geometry": { "type": "Polygon", "coordinates": [ [ [ 320.470655944572343, 139.231959337367471 ], [ 320.46684821783748, 137.225432278909352 ], [ 323.2400928793856, 137.225432278909352 ], [ 323.243870858259697, 139.231959337367471 ], [ 320.470655944572343, 139.231959337367471 ] ] ] } },
{ "type": "Feature", "properties": { }, "geometry": { "type": "Polygon", "coordinates": [ [ [ 186.80899426905043, 116.936182821839253 ], [ 186.80899426905043, 113.853579629387923 ], [ 190.494025849029128, 113.856635359707127 ], [ 190.494025849029128, 116.939244048965278 ], [ 186.80899426905043, 116.936182821839253 ] ] ] } },
{ "type": "Feature", "properties": { }, "geometry": { "type": "Polygon", "coordinates": [ [ [ 90.962096468268825, 57.260502321448193 ], [ 93.376686001973127, 57.255484655474852 ], [ 93.371777604402737, 59.773679518853385 ], [ 90.95747811233754, 59.77689345829657 ], [ 90.962096468268825, 57.260502321448193 ] ] ] } },
{ "type": "Feature", "properties": { }, "geometry": { "type": "Polygon", "coordinates": [ [ [ 242.601188372756724, 155.080544916757617 ], [ 242.601188372756724, 152.025401349141987 ], [ 246.286205078805239, 152.028437484370187 ], [ 246.286205078805239, 155.083571239989993 ], [ 242.601188372756724, 155.080544916757617 ] ] ] } },
{ "type": "Feature", "properties": { }, "geometry": { "type": "Polygon", "coordinates": [ [ [ 135.525490615238084, 70.525785544551283 ], [ 135.525490615238084, 67.409908312104122 ], [ 138.298735276185624, 67.409908312104122 ], [ 138.298735276185624, 70.525785544551283 ], [ 135.525490615238084, 70.525785544551283 ] ] ] } },
{ "type": "Feature", "properties": { }, "geometry": { "type": "Polygon", "coordinates": [ [ [ 235.711701962804, 156.005675887518464 ], [ 235.710943392363532, 153.920488005158461 ], [ 239.395960098412047, 153.923515157636416 ], [ 239.396718668852941, 156.008701549355266 ], [ 235.711701962804, 156.005675887518464 ] ] ] } },
{ "type": "Feature", "properties": { }, "geometry": { "type": "Polygon", "coordinates": [ [ [ 143.085493889224438, 62.75870541525029 ], [ 143.085493889224438, 64.828610353059361 ], [ 139.862714374828073, 64.828610353059361 ], [ 139.862714374828073, 62.75870541525029 ], [ 143.085493889224438, 62.75870541525029 ] ] ] } },
{ "type": "Feature", "properties": { }, "geometry": { "type": "Polygon", "coordinates": [ [ [ 208.783894934204341, 155.124491191390945 ], [ 208.783894934204341, 152.069379332962569 ], [ 211.35127990028883, 152.072407808231333 ], [ 211.35127990028883, 155.127517483499076 ], [ 208.783894934204341, 155.124491191390945 ] ] ] } },
{ "type": "Feature", "properties": { }, "geometry": { "type": "Polygon", "coordinates": [ [ [ 167.043412472226862, 89.256102766577314 ], [ 167.043412472226862, 86.153632890146923 ], [ 169.816657133173919, 86.153632890146923 ], [ 169.816657133173919, 89.256102766577314 ], [ 167.043412472226862, 89.256102766577314 ] ] ] } },
{ "type": "Feature", "properties": { }, "geometry": { "type": "Polygon", "coordinates": [ [ [ 322.027302194419462, 121.9355602504193 ], [ 322.02352421554491, 119.920887823618131 ], [ 324.796768877092632, 119.920887823618131 ], [ 324.800546855967127, 121.9355602504193 ], [ 322.027302194419462, 121.9355602504193 ] ] ] } },
{ "type": "Feature", "properties": { }, "geometry": { "type": "Polygon", "coordinates": [ [ [ 179.251593932851307, 116.848636936045267 ], [ 179.251593932851307, 113.765970829881368 ], [ 182.913972514114477, 113.765970829881368 ], [ 182.913972514114477, 116.848636936045267 ], [ 179.251593932851307, 116.848636936045267 ] ] ] } },
{ "type": "Feature", "properties": { }, "geometry": { "type": "Polygon", "coordinates": [ [ [ 307.259807839310895, 154.923523779253827 ], [ 307.259807839310895, 151.868266916265981 ], [ 310.944824545359438, 151.871303164876792 ], [ 310.944824545359438, 154.926550214756702 ], [ 307.259807839310895, 154.923523779253827 ] ] ] } },
{ "type": "Feature", "properties": { }, "geometry": { "type": "Polygon", "coordinates": [ [ [ 53.268075456120719, 67.234764641539883 ], [ 56.428793488900858, 67.231778900197924 ], [ 56.43160838019395, 70.422398255238249 ], [ 53.273180933266644, 70.422398255238249 ], [ 53.268075456120719, 67.234764641539883 ] ] ] } },
{ "type": "Feature", "properties": { }, "geometry": { "type": "Polygon", "coordinates": [ [ [ 276.102519342884136, 154.923134992115507 ], [ 276.102519342884136, 151.86787784900676 ], [ 279.787565796793103, 151.8709140976176 ], [ 279.787565796793103, 154.926161428729728 ], [ 276.102519342884136, 154.923134992115507 ] ] ] } },
{ "type": "Feature", "properties": { }, "geometry": { "type": "Polygon", "coordinates": [ [ [ 167.475931547111571, 74.440427597659095 ], [ 167.475931547111571, 71.327350280000886 ], [ 170.249161334128473, 71.327350280000886 ], [ 170.249161334128473, 74.440427597659095 ], [ 167.475931547111571, 74.440427597659095 ] ] ] } },
{ "type": "Feature", "properties": { }, "geometry": { "type": "Polygon", "coordinates": [ [ [ 205.598987768389406, 155.121777436975833 ], [ 205.598987768389406, 152.066671247651357 ], [ 208.44999337671095, 152.069699726254754 ], [ 208.44999337671095, 155.124811353472637 ], [ 205.598987768389406, 155.121777436975833 ] ] ] } },
{ "type": "Feature", "properties": { }, "geometry": { "type": "Polygon", "coordinates": [ [ [ 172.780912832326777, 93.529439305028546 ], [ 172.780912832326777, 92.222693895684159 ], [ 174.397887750920091, 92.222693895684159 ], [ 174.397887750920091, 93.529439305028546 ], [ 172.780912832326777, 93.529439305028546 ] ] ] } },
{ "type": "Feature", "properties": { }, "geometry": { "type": "Polygon", "coordinates": [ [ [ 323.91768973540178, 140.222162146819841 ], [ 323.913911756527227, 138.216101852356474 ], [ 326.687156417474739, 138.216101852356474 ], [ 326.690934396349292, 140.222162146819841 ], [ 323.91768973540178, 140.222162146819841 ] ] ] } },
{ "type": "Feature", "properties": { }, "geometry": { "type": "Polygon", "coordinates": [ [ [ 217.542479814897661, 116.72954489751568 ], [ 217.542479814897661, 113.646793207892941 ], [ 221.227496520946602, 113.649849086052811 ], [ 221.227496520946602, 116.732606272483167 ], [ 217.542479814897661, 116.72954489751568 ] ] ] } },
{ "type": "Feature", "properties": { }, "geometry": { "type": "Polygon", "coordinates": [ [ [ 242.188927593823081, 116.86258963317006 ], [ 242.188927593823081, 113.77992970521727 ], [ 245.873944299871653, 113.782985488891953 ], [ 245.873944299871653, 116.865643222568096 ], [ 242.188927593823081, 116.86258963317006 ] ] ] } },
{ "type": "Feature", "properties": { }, "geometry": { "type": "Polygon", "coordinates": [ [ [ 47.439605941930218, 67.29176328069147 ], [ 50.599179401287081, 67.288895862438238 ], [ 50.601824752227841, 70.477983829137898 ], [ 47.442251292870985, 70.480849149822276 ], [ 47.439605941930218, 67.29176328069147 ] ] ] } },
{ "type": "Feature", "properties": { }, "geometry": { "type": "Polygon", "coordinates": [ [ [ 218.004714874755564, 155.076975820187783 ], [ 218.004714874755564, 152.021829678132207 ], [ 221.227496520946602, 152.024478302325861 ], [ 221.227496520946602, 155.079622535783642 ], [ 218.004714874755564, 155.076975820187783 ] ] ] } },
{ "type": "Feature", "properties": { }, "geometry": { "type": "Polygon", "coordinates": [ [ [ 167.648022942483749, 66.144683674676187 ], [ 167.648022942483749, 63.025673318638617 ], [ 170.421252730101685, 63.025673318638617 ], [ 170.421252730101685, 66.144683674676187 ], [ 167.648022942483749, 66.144683674676187 ] ] ] } },
{ "type": "Feature", "properties": { }, "geometry": { "type": "Polygon", "coordinates": [ [ [ 154.71499014295415, 155.714478165558717 ], [ 154.71499014295415, 152.659799642309707 ], [ 158.400006849002665, 152.662827696285461 ], [ 158.400006849002665, 155.71750403526346 ], [ 154.71499014295415, 155.714478165558717 ] ] ] } },
{ "type": "Feature", "properties": { }, "geometry": { "type": "Polygon", "coordinates": [ [ [ 166.853160005063074, 109.027493328301503 ], [ 166.890136600373978, 96.648078549303264 ], [ 169.663381261921671, 96.648078549303264 ], [ 169.626404666610767, 109.02747791723219 ], [ 166.853160005063074, 109.027493328301503 ] ] ] } },
{ "type": "Feature", "properties": { }, "geometry": { "type": "Polygon", "coordinates": [ [ [ 119.625643800559061, 77.952052237757016 ], [ 119.625643800559061, 74.841487582508819 ], [ 122.398881024541481, 74.841487582508819 ], [ 122.398881024541481, 77.952052237757016 ], [ 119.625643800559061, 77.952052237757016 ] ] ] } },
{ "type": "Feature", "properties": { }, "geometry": { "type": "Polygon", "coordinates": [ [ [ 201.253649925069908, 116.806570895276096 ], [ 201.253649925069908, 113.723870710016541 ], [ 204.938681505048578, 113.726926533708763 ], [ 204.938681505048578, 116.809624523579515 ], [ 201.253649925069908, 116.806570895276096 ] ] ] } },
{ "type": "Feature", "properties": { }, "geometry": { "type": "Polygon", "coordinates": [ [ [ 287.039410943211863, 116.830507592278266 ], [ 287.039410943211863, 113.747824608858735 ], [ 290.724427649260406, 113.750880414765547 ], [ 290.724427649260406, 116.833561203908403 ], [ 287.039410943211863, 116.830507592278266 ] ] ] } },
{ "type": "Feature", "properties": { }, "geometry": { "type": "Polygon", "coordinates": [ [ [ 64.094925987845059, 67.253486258812714 ], [ 67.255644020024988, 67.250498585529542 ], [ 67.258462630400544, 70.441104243569882 ], [ 64.100031464990991, 70.441104243569882 ], [ 64.094925987845059, 67.253486258812714 ] ] ] } },
{ "type": "Feature", "properties": { }, "geometry": { "type": "Polygon", "coordinates": [ [ [ 235.717264813304155, 153.821170268671665 ], [ 235.716506242863261, 151.734906340388989 ], [ 239.401522948911776, 151.737935054648915 ], [ 239.40228151935267, 153.824205116679821 ], [ 235.717264813304155, 153.821170268671665 ] ] ] } },
{ "type": "Feature", "properties": { }, "geometry": { "type": "Polygon", "coordinates": [ [ [ 82.036457981439952, 69.057802948566618 ], [ 84.420630323656951, 69.057869054762975 ], [ 84.423352253486016, 71.823117348117322 ], [ 82.039469952908107, 71.821255895660684 ], [ 82.036457981439952, 69.057802948566618 ] ] ] } },
{ "type": "Feature", "properties": { }, "geometry": { "type": "Polygon", "coordinates": [ [ [ 189.437723804841795, 154.531219917532269 ], [ 189.437723804841795, 152.187167900022189 ], [ 193.649188467674435, 152.186580528623551 ], [ 193.649188467674435, 154.530625248552099 ], [ 189.437723804841795, 154.531219917532269 ] ] ] } },
{ "type": "Feature", "properties": { }, "geometry": { "type": "Polygon", "coordinates": [ [ [ 173.147123917318623, 116.819293051171016 ], [ 173.147123917318623, 113.736605857051657 ], [ 176.809487624051485, 113.736605857051657 ], [ 176.809487624051485, 116.819293051171016 ], [ 173.147123917318623, 116.819293051171016 ] ] ] } },
{ "type": "Feature", "properties": { }, "geometry": { "type": "Polygon", "coordinates": [ [ [ 119.625643800559061, 83.874334839120564 ], [ 119.625643800559061, 80.768007942342763 ], [ 122.398881024541481, 80.768007942342763 ], [ 122.398881024541481, 83.874334839120564 ], [ 119.625643800559061, 83.874334839120564 ] ] ] } },
{ "type": "Feature", "properties": { }, "geometry": { "type": "Polygon", "coordinates": [ [ [ 227.551163675438431, 116.790225869694297 ], [ 227.551163675438431, 113.70751778770763 ], [ 231.236180381487372, 113.710573621403839 ], [ 231.236180381487372, 116.79328720131025 ], [ 227.551163675438431, 116.790225869694297 ] ] ] } },
{ "type": "Feature", "properties": { }, "geometry": { "type": "Polygon", "coordinates": [ [ [ 300.358571022689603, 116.820539112405356 ], [ 300.358571022689603, 113.737845117585053 ], [ 304.043587728738203, 113.740904778482459 ], [ 304.043587728738203, 116.823592731816959 ], [ 300.358571022689603, 116.820539112405356 ] ] ] } },
{ "type": "Feature", "properties": { }, "geometry": { "type": "Polygon", "coordinates": [ [ [ 311.025024787871985, 116.799471393214318 ], [ 311.025024787871985, 113.71676610576192 ], [ 314.710041493920585, 113.719821933900931 ], [ 314.710041493920585, 116.802525025965338 ], [ 311.025024787871985, 116.799471393214318 ] ] ] } },
{ "type": "Feature", "properties": { }, "geometry": { "type": "Polygon", "coordinates": [ [ [ 58.941431983774045, 67.214858367207469 ], [ 62.10215373443652, 67.21187066835742 ], [ 62.10496862632953, 70.40250653382887 ], [ 58.946537460919913, 70.40250653382887 ], [ 58.941431983774045, 67.214858367207469 ] ] ] } },
{ "type": "Feature", "properties": { }, "geometry": { "type": "Polygon", "coordinates": [ [ [ 215.076655060674312, 155.079773982000944 ], [ 215.076655060674312, 152.024637487425764 ], [ 217.7166535611006, 152.026804990342072 ], [ 217.7166535611006, 155.081947545299812 ], [ 215.076655060674312, 155.079773982000944 ] ] ] } },
{ "type": "Feature", "properties": { }, "geometry": { "type": "Polygon", "coordinates": [ [ [ 91.437140115034438, 66.514477647220858 ], [ 93.664846127368676, 66.509115069637843 ], [ 93.663024070917643, 71.053778151914372 ], [ 91.435608100222908, 71.057338465819669 ], [ 91.437140115034438, 66.514477647220858 ] ] ] } },
{ "type": "Feature", "properties": { }, "geometry": { "type": "Polygon", "coordinates": [ [ [ 139.48466363958579, 155.714478165558717 ], [ 139.48466363958579, 152.659799642309707 ], [ 143.169680345634333, 152.662827696285461 ], [ 143.169680345634333, 155.71750403526346 ], [ 139.48466363958579, 155.714478165558717 ] ] ] } },
{ "type": "Feature", "properties": { }, "geometry": { "type": "Polygon", "coordinates": [ [ [ 166.649684612138998, 116.817885462717797 ], [ 166.649684612138998, 113.735189560411143 ], [ 170.312063193402622, 113.735189560411143 ], [ 170.312063193402622, 116.817885462717797 ], [ 166.649684612138998, 116.817885462717797 ] ] ] } },
{ "type": "Feature", "properties": { }, "geometry": { "type": "Polygon", "coordinates": [ [ [ 246.59596959143613, 126.730455838238711 ], [ 246.59596959143613, 123.654887169914403 ], [ 250.281001171414829, 123.657943600534423 ], [ 250.281001171414829, 126.733502396836457 ], [ 246.59596959143613, 126.730455838238711 ] ] ] } },
{ "type": "Feature", "properties": { }, "geometry": { "type": "Polygon", "coordinates": [ [ [ 222.865369314490209, 116.75977395848183 ], [ 222.865369314490209, 113.677040144321182 ], [ 226.550386020538753, 113.680096000249605 ], [ 226.550386020538753, 116.762827620132839 ], [ 222.865369314490209, 116.75977395848183 ] ] ] } },
{ "type": "Feature", "properties": { }, "geometry": { "type": "Polygon", "coordinates": [ [ [ 320.588368244484116, 130.894976744854432 ], [ 320.584590265609563, 128.884514041137976 ], [ 323.357805178696765, 128.884514041137976 ], [ 323.361612905431627, 130.894976744854432 ], [ 320.588368244484116, 130.894976744854432 ] ] ] } },
{ "type": "Feature", "properties": { }, "geometry": { "type": "Polygon", "coordinates": [ [ [ 279.888024334656563, 116.830507592278266 ], [ 279.888024334656563, 113.747824608858735 ], [ 283.573041040705107, 113.750880414765547 ], [ 283.573041040705107, 116.833561203908403 ], [ 279.888024334656563, 116.830507592278266 ] ] ] } },
{ "type": "Feature", "properties": { }, "geometry": { "type": "Polygon", "coordinates": [ [ [ 294.025994382799581, 116.884856936948111 ], [ 294.025994382799581, 113.802209161997979 ], [ 297.711011088848124, 113.805268777320421 ], [ 297.711011088848124, 116.88791050967275 ], [ 294.025994382799581, 116.884856936948111 ] ] ] } },
{ "type": "Feature", "properties": { }, "geometry": { "type": "Polygon", "coordinates": [ [ [ 41.786403136460883, 67.194586400108932 ], [ 44.945974735375671, 67.191717930292981 ], [ 44.948621000028346, 70.380876968657432 ], [ 41.789049401113552, 70.383743340904431 ], [ 41.786403136460883, 67.194586400108932 ] ] ] } },
{ "type": "Feature", "properties": { }, "geometry": { "type": "Polygon", "coordinates": [ [ [ 69.113665884662666, 68.928161318122392 ], [ 71.497838226879594, 68.92822742543089 ], [ 71.500560156708715, 71.693557977480737 ], [ 69.116685292495632, 71.691696469444423 ], [ 69.113665884662666, 68.928161318122392 ] ] ] } },
{ "type": "Feature", "properties": { }, "geometry": { "type": "Polygon", "coordinates": [ [ [ 211.763324218992921, 155.077100546029499 ], [ 211.763324218992921, 152.021954492901131 ], [ 214.83423423738418, 152.024478302325861 ], [ 214.83423423738418, 155.079622535783642 ], [ 211.763324218992921, 155.077100546029499 ] ] ] } },
{ "type": "Feature", "properties": { }, "geometry": { "type": "Polygon", "coordinates": [ [ [ 114.173693191102032, 70.118160044978168 ], [ 111.390773036750616, 70.117709077774748 ], [ 111.400359285973366, 67.648852492597626 ], [ 114.173596510555953, 67.648852492597626 ], [ 114.173693191102032, 70.118160044978168 ] ] ] } },
{ "type": "Feature", "properties": { }, "geometry": { "type": "Polygon", "coordinates": [ [ [ 146.749776333554905, 155.714478165558717 ], [ 146.749776333554905, 152.659799642309707 ], [ 150.434793039603932, 152.662827696285461 ], [ 150.434793039603932, 155.71750403526346 ], [ 146.749776333554905, 155.714478165558717 ] ] ] } },
{ "type": "Feature", "properties": { }, "geometry": { "type": "Polygon", "coordinates": [ [ [ 151.776481221201863, 70.598566454023455 ], [ 151.776481221201863, 67.482741266172383 ], [ 154.549711008219248, 67.482741266172383 ], [ 154.549711008219248, 70.598566454023455 ], [ 151.776481221201863, 70.598566454023455 ] ] ] } },
{ "type": "Feature", "properties": { }, "geometry": { "type": "Polygon", "coordinates": [ [ [ 127.298941816583863, 73.33683639277217 ], [ 127.298941816583863, 74.531973270731157 ], [ 125.507391555071678, 74.527073976756796 ], [ 125.507391555071678, 73.331935752664336 ], [ 127.298941816583863, 73.33683639277217 ] ] ] } },
{ "type": "Feature", "properties": { }, "geometry": { "type": "Polygon", "coordinates": [ [ [ 305.88173801960977, 116.799471393214318 ], [ 305.88173801960977, 113.71676610576192 ], [ 309.56675472565837, 113.719821933900931 ], [ 309.56675472565837, 116.802525025965338 ], [ 305.88173801960977, 116.799471393214318 ] ] ] } },
{ "type": "Feature", "properties": { }, "geometry": { "type": "Polygon", "coordinates": [ [ [ 320.596013445213543, 128.205127987826273 ], [ 320.592235466339446, 126.193398690714943 ], [ 323.492116786526651, 126.224428278047412 ], [ 323.495894765400749, 128.236135302249977 ], [ 320.596013445213543, 128.205127987826273 ] ] ] } },
{ "type": "Feature", "properties": { }, "geometry": { "type": "Polygon", "coordinates": [ [ [ 254.754232166878808, 116.774480743119838 ], [ 254.754232166878808, 113.691753648514336 ], [ 258.439278620787661, 113.694813343871218 ], [ 258.439278620787661, 116.777534394766732 ], [ 254.754232166878808, 116.774480743119838 ] ] ] } },
{ "type": "Feature", "properties": { }, "geometry": { "type": "Polygon", "coordinates": [ [ [ 315.146174934447231, 110.434117306344703 ], [ 315.146174934447231, 109.100862594040009 ], [ 316.073772843095696, 109.100862594040009 ], [ 316.073772843095696, 110.434117306344703 ], [ 315.146174934447231, 110.434117306344703 ] ] ] } },
{ "type": "Feature", "properties": { }, "geometry": { "type": "Polygon", "coordinates": [ [ [ 22.052919926397514, 74.42320491922105 ], [ 22.052919926397514, 71.310115280710804 ], [ 24.826155291738882, 71.310115280710804 ], [ 24.826155291738882, 74.42320491922105 ], [ 22.052919926397514, 74.42320491922105 ] ] ] } },
{ "type": "Feature", "properties": { }, "geometry": { "type": "Polygon", "coordinates": [ [ [ 69.104860516776014, 66.343354397248817 ], [ 71.519450050480302, 66.338346665546752 ], [ 71.514541652909514, 68.85131207079182 ], [ 69.100242160844729, 68.85451836250293 ], [ 69.104860516776014, 66.343354397248817 ] ] ] } },
{ "type": "Feature", "properties": { }, "geometry": { "type": "Polygon", "coordinates": [ [ [ 106.809594477760029, 71.202411021096808 ], [ 106.807355951263148, 66.565179110340495 ], [ 108.593581344558913, 66.564234615415216 ], [ 108.595819871655934, 71.202411021096808 ], [ 106.809594477760029, 71.202411021096808 ] ] ] } },
{ "type": "Feature", "properties": { }, "geometry": { "type": "Polygon", "coordinates": [ [ [ 132.011449759796079, 155.714478165558717 ], [ 132.011449759796079, 152.659799642309707 ], [ 135.696466465844594, 152.662827696285461 ], [ 135.696466465844594, 155.71750403526346 ], [ 132.011449759796079, 155.714478165558717 ] ] ] } },
{ "type": "Feature", "properties": { }, "geometry": { "type": "Polygon", "coordinates": [ [ [ 145.870340217538882, 70.543474570137874 ], [ 145.870340217538882, 67.42760998646196 ], [ 148.643570005156391, 67.42760998646196 ], [ 148.643570005156391, 70.543474570137874 ], [ 145.870340217538882, 70.543474570137874 ] ] ] } },
{ "type": "Feature", "properties": { }, "geometry": { "type": "Polygon", "coordinates": [ [ [ 326.085714094953175, 133.580250760767399 ], [ 326.085714094953175, 130.509611521594621 ], [ 328.85895875590063, 130.509611521594621 ], [ 328.85895875590063, 133.580250760767399 ], [ 326.085714094953175, 133.580250760767399 ] ] ] } },
{ "type": "Feature", "properties": { }, "geometry": { "type": "Polygon", "coordinates": [ [ [ 231.883300550295587, 116.790225869694297 ], [ 231.883300550295587, 113.70751778770763 ], [ 235.568317256344187, 113.710573621403839 ], [ 235.568317256344187, 116.79328720131025 ], [ 231.883300550295587, 116.790225869694297 ] ] ] } },
{ "type": "Feature", "properties": { }, "geometry": { "type": "Polygon", "coordinates": [ [ [ 320.169786044009697, 137.210788040048868 ], [ 320.165978317274835, 135.20330072989168 ], [ 322.939222978222347, 135.20330072989168 ], [ 322.943000957096444, 137.210788040048868 ], [ 320.169786044009697, 137.210788040048868 ] ] ] } },
{ "type": "Feature", "properties": { }, "geometry": { "type": "Polygon", "coordinates": [ [ [ 272.867558077842318, 116.883695500982881 ], [ 272.867558077842318, 113.801050740661509 ], [ 276.552574783890861, 113.804110357095226 ], [ 276.552574783890861, 116.886749074818894 ], [ 272.867558077842318, 116.883695500982881 ] ] ] } },
{ "type": "Feature", "properties": { }, "geometry": { "type": "Polygon", "coordinates": [ [ [ 82.428981052579729, 62.239580787991322 ], [ 82.428981052579729, 59.117779830058389 ], [ 85.202210840197694, 59.117779830058389 ], [ 85.202210840197694, 62.239580787991322 ], [ 82.428981052579729, 62.239580787991322 ] ] ] } },
{ "type": "Feature", "properties": { }, "geometry": { "type": "Polygon", "coordinates": [ [ [ 314.067517370148494, 113.58515946056238 ], [ 314.067517370148494, 110.500144663590433 ], [ 316.840762031696158, 110.500144663590433 ], [ 316.840762031696158, 113.58515946056238 ], [ 314.067517370148494, 113.58515946056238 ] ] ] } },
{ "type": "Feature", "properties": { }, "geometry": { "type": "Polygon", "coordinates": [ [ [ 82.027645176588265, 66.473072895182227 ], [ 84.442242147257602, 66.46806531132161 ], [ 84.437333749687213, 68.980955987774365 ], [ 82.023026820656909, 68.984164129169756 ], [ 82.027645176588265, 66.473072895182227 ] ] ] } },
{ "type": "Feature", "properties": { }, "geometry": { "type": "Polygon", "coordinates": [ [ [ 130.686331138856048, 70.525785544551283 ], [ 130.686331138856048, 67.409908312104122 ], [ 133.459560925873006, 67.409908312104122 ], [ 133.459560925873006, 70.525785544551283 ], [ 130.686331138856048, 70.525785544551283 ] ] ] } },
{ "type": "Feature", "properties": { }, "geometry": { "type": "Polygon", "coordinates": [ [ [ 125.512322263537314, 155.714478165558717 ], [ 125.512322263537314, 152.659799642309707 ], [ 129.197346406551361, 152.662827696285461 ], [ 129.197346406551361, 155.71750403526346 ], [ 125.512322263537314, 155.714478165558717 ] ] ] } },
{ "type": "Feature", "properties": { }, "geometry": { "type": "Polygon", "coordinates": [ [ [ 151.858302722107481, 65.434233255746591 ], [ 151.854509869303229, 63.39305473069647 ], [ 154.65461685241695, 63.39305473069647 ], [ 154.65840970522126, 65.434233255746591 ], [ 151.858302722107481, 65.434233255746591 ] ] ] } },
{ "type": "Feature", "properties": { }, "geometry": { "type": "Polygon", "coordinates": [ [ [ 333.859753253514953, 154.636490430884066 ], [ 333.855975274640912, 152.637230276453153 ], [ 336.629190188328266, 152.637230276453153 ], [ 336.632997915063072, 154.636490430884066 ], [ 333.859753253514953, 154.636490430884066 ] ] ] } },
{ "type": "Feature", "properties": { }, "geometry": { "type": "Polygon", "coordinates": [ [ [ 167.092957540368303, 83.914719772741392 ], [ 167.092957540368303, 80.808423734785165 ], [ 169.866187327385688, 80.808423734785165 ], [ 169.866187327385688, 83.914719772741392 ], [ 167.092957540368303, 83.914719772741392 ] ] ] } },
{ "type": "Feature", "properties": { }, "geometry": { "type": "Polygon", "coordinates": [ [ [ 320.641587173388359, 133.275819395247737 ], [ 320.637809195114414, 131.266478080280308 ], [ 323.411053856061926, 131.266478080280308 ], [ 323.414831834936024, 133.275819395247737 ], [ 320.641587173388359, 133.275819395247737 ] ] ] } },
{ "type": "Feature", "properties": { }, "geometry": { "type": "Polygon", "coordinates": [ [ [ 266.413491159166028, 116.963387676037897 ], [ 266.413491159166028, 113.88080018589288 ], [ 270.098507865214572, 113.883855897314504 ], [ 270.098507865214572, 116.966441193182888 ], [ 266.413491159166028, 116.963387676037897 ] ] ] } },
{ "type": "Feature", "properties": { }, "geometry": { "type": "Polygon", "coordinates": [ [ [ 245.207577262366442, 141.941287614156067 ], [ 245.213630953163857, 131.095611413946472 ], [ 251.974115748972395, 131.100479395570829 ], [ 251.968076932705685, 141.946143219348698 ], [ 245.207577262366442, 141.941287614156067 ] ] ] } },
{ "type": "Feature", "properties": { }, "geometry": { "type": "Polygon", "coordinates": [ [ [ 298.961938535681838, 154.969720523582168 ], [ 298.961938535681838, 151.914496992702055 ], [ 302.646984989591147, 151.917525579129233 ], [ 302.646984989591147, 154.972746926848828 ], [ 298.961938535681838, 154.969720523582168 ] ] ] } },
{ "type": "Feature", "properties": { }, "geometry": { "type": "Polygon", "coordinates": [ [ [ 86.568753362182605, 70.501888433455591 ], [ 86.568753362182605, 67.385994112551245 ], [ 89.341990586165053, 67.385994112551245 ], [ 89.341990586165053, 70.501888433455591 ], [ 86.568753362182605, 70.501888433455591 ] ] ] } },
{ "type": "Feature", "properties": { }, "geometry": { "type": "Polygon", "coordinates": [ [ [ 119.504473311873184, 70.118160044978168 ], [ 116.721553157521285, 70.117709077774748 ], [ 116.731139406744092, 67.648852492597626 ], [ 119.504376631326679, 67.648852492597626 ], [ 119.504473311873184, 70.118160044978168 ] ] ] } },
{ "type": "Feature", "properties": { }, "geometry": { "type": "Polygon", "coordinates": [ [ [ 265.417919380441276, 155.123134314739843 ], [ 265.417919380441276, 152.068029104725071 ], [ 269.102936086489819, 152.071057581105094 ], [ 269.102936086489819, 155.126168230124534 ], [ 265.417919380441276, 155.123134314739843 ] ] ] } },
{ "type": "Feature", "properties": { }, "geometry": { "type": "Polygon", "coordinates": [ [ [ 145.188191938277129, 75.742452228662074 ], [ 145.188191938277129, 72.630306434796879 ], [ 147.961421725895093, 72.630306434796879 ], [ 147.961421725895093, 75.742452228662074 ], [ 145.188191938277129, 75.742452228662074 ] ] ] } },
{ "type": "Feature", "properties": { }, "geometry": { "type": "Polygon", "coordinates": [ [ [ 319.212470018594161, 123.986612321197455 ], [ 319.208692039719665, 121.972905018189749 ], [ 321.98193670126733, 121.972905018189749 ], [ 321.985714680141882, 123.986612321197455 ], [ 319.212470018594161, 123.986612321197455 ] ] ] } },
{ "type": "Feature", "properties": { }, "geometry": { "type": "Polygon", "coordinates": [ [ [ 161.957524208459688, 76.244768577855623 ], [ 161.957524208459688, 73.132982197390859 ], [ 164.730768869406745, 73.132982197390859 ], [ 164.730768869406745, 76.244768577855623 ], [ 161.957524208459688, 76.244768577855623 ] ] ] } },
{ "type": "Feature", "properties": { }, "geometry": { "type": "Polygon", "coordinates": [ [ [ 320.326646533043458, 141.701497943521986 ], [ 320.322868554168963, 139.696127421146002 ], [ 323.096083467856317, 139.696127421146002 ], [ 323.099861446130262, 141.701497943521986 ], [ 320.326646533043458, 141.701497943521986 ] ] ] } },
{ "type": "Feature", "properties": { }, "geometry": { "type": "Polygon", "coordinates": [ [ [ 247.942744657767719, 116.862743467080392 ], [ 247.942744657767719, 113.780083649174784 ], [ 251.62777623714581, 113.783139432850149 ], [ 251.62777623714581, 116.865797055367054 ], [ 247.942744657767719, 116.862743467080392 ] ] ] } },
{ "type": "Feature", "properties": { }, "geometry": { "type": "Polygon", "coordinates": [ [ [ 82.430133782171211, 58.037668516905534 ], [ 82.430133782171211, 54.912867142433143 ], [ 85.203371006754267, 54.912867142433143 ], [ 85.203371006754267, 58.037668516905534 ], [ 82.430133782171211, 58.037668516905534 ] ] ] } },
{ "type": "Feature", "properties": { }, "geometry": { "type": "Polygon", "coordinates": [ [ [ 315.106699518260086, 101.529720410274734 ], [ 315.102921539385534, 99.505453553292611 ], [ 317.876136453072945, 99.505453553292611 ], [ 317.879944179807751, 101.529720410274734 ], [ 315.106699518260086, 101.529720410274734 ] ] ] } }
]
}
