{
"type": "FeatureCollection",
"name": "shops",
"features": [
{ "type": "Feature", "properties": { "id": "shop_props:mayktfyxvb24oczq4hoo" }, "geometry": { "type": "Polygon", "coordinates": [ [ [ 319.073844970402206, 157.821194970934215 ], [ 322.2800103029507, 150.610386487208672 ], [ 325.471063720001609, 151.966547183414178 ], [ 327.312486276120126, 152.461629026954 ], [ 329.552738450389597, 152.798836184940626 ], [ 331.707019296623628, 152.811382732006109 ], [ 333.665588942704971, 152.607712201138213 ], [ 333.624060923548711, 160.627377341764515 ], [ 330.819343022068892, 160.787848585792119 ], [ 327.720061766435833, 160.578098146740842 ], [ 324.919270582533045, 160.083195977107351 ], [ 322.76954115954436, 159.456709844250383 ], [ 320.887453273421613, 158.705580786548069 ], [ 319.073844970402206, 157.821194970934215 ] ] ] } },
{ "type": "Feature", "properties": { "id": "shop_props:s8bg0hh7dzal8jtjq0kr" }, "geometry": { "type": "Polygon", "coordinates": [ [ [ 333.624060923548711, 160.627377341764515 ], [ 333.665588942704971, 174.734766612271528 ], [ 322.337602168537501, 174.734766612271528 ], [ 322.318563534864097, 183.786366263835788 ], [ 299.966811376309352, 183.95998962193201 ], [ 300.003840691946664, 170.97290088961293 ], [ 300.024821199575911, 158.523209821209576 ], [ 313.6750240468686, 158.513550347509351 ], [ 315.376929118982332, 155.469619390171005 ], [ 319.073844970402206, 157.821194970934215 ], [ 322.511478436136315, 159.359517172437563 ], [ 324.919270582533045, 160.083195977107351 ], [ 327.720061766435833, 160.578098146740842 ], [ 330.8869004220997, 160.787734394481731 ], [ 333.624060923548711, 160.627377341764515 ] ] ] } },
{ "type": "Feature", "properties": { "id": "shop_props:ig9p8rvlx62jn6wxiomn" }, "geometry": { "type": "Polygon", "coordinates": [ [ [ 270.129533985535147, 167.287421737604177 ], [ 270.12050562876243, 158.506269874315564 ], [ 275.887898165913043, 158.508319380948649 ], [ 275.88261164477268, 167.300639848931496 ], [ 270.129533985535147, 167.287421737604177 ] ] ] } },
{ "type": "Feature", "properties": { "id": "shop_props:0chh8mjg94z3tjbq0tcw" }, "geometry": { "type": "Polygon", "coordinates": [ [ [ 293.311601200433017, 170.961123217531963 ], [ 293.317806821919021, 167.282564568406173 ], [ 293.332581708662019, 158.511397349722444 ], [ 300.024821199575911, 158.523209821209576 ], [ 300.003840691946664, 170.97290088961293 ], [ 293.311601200433017, 170.961123217531963 ] ] ] } },
{ "type": "Feature", "properties": { "id": "shop_props:8i6zp06qulhoc2lyf2f7" }, "geometry": { "type": "Polygon", "coordinates": [ [ [ 264.845928112717615, 167.293102255202797 ], [ 264.836899755944899, 158.511962216996125 ], [ 270.12050562876243, 158.506269874315564 ], [ 270.129533985535147, 167.287421737604177 ], [ 264.845928112717615, 167.293102255202797 ] ] ] } },
{ "type": "Feature", "properties": { "id": "shop_props:ow4ih66i1i3j5v7oiz8j" }, "geometry": { "type": "Polygon", "coordinates": [ [ [ 264.845928112717615, 167.293102255202797 ], [ 270.129533985535147, 167.287421737604177 ], [ 275.88261164477268, 167.300639848931496 ], [ 275.887898165913043, 158.508319380948649 ], [ 287.042272827023567, 158.516099656786196 ], [ 287.036003862260657, 167.2778671801222 ], [ 293.317806821919021, 167.282564568406173 ], [ 293.311601200433017, 170.961123217531963 ], [ 300.003840691946664, 170.97290088961293 ], [ 299.966811376309352, 183.95998962193201 ], [ 269.725782196900809, 183.903260460849367 ], [ 269.728129329622732, 182.606356068803109 ], [ 267.908117538501642, 182.602940826157862 ], [ 267.909652757907452, 181.754440454287646 ], [ 264.834803816504404, 181.74866934440891 ], [ 264.845928112717615, 167.293102255202797 ] ] ] } },
{ "type": "Feature", "properties": { "id": "shop_props:xjqly3feevd7n6kmb5n7" }, "geometry": { "type": "Polygon", "coordinates": [ [ [ 293.317806821919021, 167.282564568406173 ], [ 287.036003862260657, 167.2778671801222 ], [ 287.042272827023567, 158.516099656786196 ], [ 293.332581708662019, 158.511397349722444 ], [ 293.317806821919021, 167.282564568406173 ] ] ] } },
{ "type": "Feature", "properties": { "id": "shop_props:2ywn3uihkccxqh7rqzpa" }, "geometry": { "type": "Polygon", "coordinates": [ [ [ 295.630634646913279, 134.323218154229124 ], [ 301.935499948741892, 134.291013934152943 ], [ 305.919315017179258, 134.28554465958581 ], [ 305.938038265419721, 148.73072881963779 ], [ 295.645576719489441, 148.736461590809341 ], [ 295.630634646913279, 134.323218154229124 ] ] ] } },
{ "type": "Feature", "properties": { "id": "shop_props:aqt1dfun6bmuh4rykf56" }, "geometry": { "type": "Polygon", "coordinates": [ [ [ 278.703820669381059, 148.734219339092789 ], [ 269.970369616803168, 148.756871113708939 ], [ 269.951592433755764, 141.120973674018984 ], [ 269.935803112674478, 134.356768000576182 ], [ 278.682166283743754, 134.348436821242927 ], [ 278.703820669381059, 148.734219339092789 ] ] ] } },
{ "type": "Feature", "properties": { "id": "shop_props:x772anbe8o3a4taatwpe" }, "geometry": { "type": "Polygon", "coordinates": [ [ [ 278.682166283743754, 134.348436821242927 ], [ 287.016930002058245, 134.327257187269538 ], [ 287.034990874732387, 148.744112170890958 ], [ 278.687451853350979, 148.759164847560328 ], [ 278.682166283743754, 134.348436821242927 ] ] ] } },
{ "type": "Feature", "properties": { "id": "shop_props:gji0v9k6i5opdikz41jf" }, "geometry": { "type": "Polygon", "coordinates": [ [ [ 287.034990874732387, 148.744112170890958 ], [ 287.016930002058245, 134.327257187269538 ], [ 295.630634646913279, 134.323218154229124 ], [ 295.645576719489441, 148.736461590809341 ], [ 287.034990874732387, 148.744112170890958 ] ] ] } },
{ "type": "Feature", "properties": { "id": "shop_props:sv30m35jclbov5w84mxa" }, "geometry": { "type": "Polygon", "coordinates": [ [ [ 261.319314992721331, 148.767563629293051 ], [ 261.313887698740189, 141.099232989967305 ], [ 269.951592433755764, 141.120973674018984 ], [ 269.970369616803168, 148.756871113708939 ], [ 261.319314992721331, 148.767563629293051 ] ] ] } },
{ "type": "Feature", "properties": { "id": "shop_props:rzocsah7mqhmrw64vr4w" }, "geometry": { "type": "Polygon", "coordinates": [ [ [ 354.512768684602065, 179.266699731969084 ], [ 387.23669871377956, 145.723269301296199 ], [ 398.55754600024386, 157.337001390464167 ], [ 374.52703395180788, 181.883635456780439 ], [ 372.6253211511941, 179.946045195609145 ], [ 372.6253211511941, 177.102684200654579 ], [ 367.675336005789745, 177.102684200654579 ], [ 367.675336005789745, 179.266699731969084 ], [ 354.512768684602065, 179.266699731969084 ] ] ] } },
{ "type": "Feature", "properties": { "id": "shop_props:p9l52fnti8i4g6s8uszm" }, "geometry": { "type": "Polygon", "coordinates": [ [ [ 315.376929118982332, 155.469619390171005 ], [ 320.13498104250948, 149.181799996411087 ], [ 322.2800103029507, 150.610386487208672 ], [ 319.073844970402206, 157.821194970934215 ], [ 315.376929118982332, 155.469619390171005 ] ] ] } },
{ "type": "Feature", "properties": { "id": "shop_props:mmc8pm5aqj0m5pkutcvz" }, "geometry": { "type": "Polygon", "coordinates": [ [ [ 278.669597689645229, 120.326204776306412 ], [ 287.010750368526317, 120.322076199218543 ], [ 287.016930002058245, 134.327257187269538 ], [ 278.682166283743754, 134.348436821242927 ], [ 278.669597689645229, 120.326204776306412 ] ] ] } },
{ "type": "Feature", "properties": { "id": "shop_props:nmb4pin1kpzzmr1o2b3v" }, "geometry": { "type": "Polygon", "coordinates": [ [ [ 258.631882843863082, 127.890499498586422 ], [ 258.692442098750632, 120.299410889892286 ], [ 263.848429829844974, 120.32367236985273 ], [ 263.835411200302133, 127.907306013669938 ], [ 258.631882843863082, 127.890499498586422 ] ] ] } },
{ "type": "Feature", "properties": { "id": "shop_props:8tqa1u1h4bt13lq3zjms" }, "geometry": { "type": "Polygon", "coordinates": [ [ [ 295.624455012781198, 120.31802390714752 ], [ 305.809688692054863, 120.357571037265259 ], [ 305.809688692054863, 128.369597665221704 ], [ 301.936249012859207, 128.369597665221704 ], [ 301.935499948741892, 134.291013934152943 ], [ 295.630634646913279, 134.323218154229124 ], [ 295.624455012781198, 120.31802390714752 ] ] ] } },
{ "type": "Feature", "properties": { "id": "shop_props:8coxexvxoson3vxh971x" }, "geometry": { "type": "Polygon", "coordinates": [ [ [ 287.016930002058245, 134.327257187269538 ], [ 287.010750368526317, 120.322076199218543 ], [ 295.624455012781198, 120.31802390714752 ], [ 295.630634646913279, 134.323218154229124 ], [ 287.016930002058245, 134.327257187269538 ] ] ] } },
{ "type": "Feature", "properties": { "id": "shop_props:rl54aauvii5c1yz6z8s3" }, "geometry": { "type": "Polygon", "coordinates": [ [ [ 269.923234518576294, 120.334563335188776 ], [ 269.930034804907507, 127.927043252003457 ], [ 263.835411200302133, 127.907306013669938 ], [ 263.848429829844974, 120.32367236985273 ], [ 269.923234518576294, 120.334563335188776 ] ] ] } },
{ "type": "Feature", "properties": { "id": "shop_props:ev7d5tuzxanj7sj5z0w3" }, "geometry": { "type": "Polygon", "coordinates": [ [ [ 269.923234518576294, 120.334563335188776 ], [ 278.669597689645229, 120.326204776306412 ], [ 278.682166283743754, 134.348436821242927 ], [ 269.935803112674478, 134.356768000576182 ], [ 269.930034804907507, 127.927043252003457 ], [ 269.923234518576294, 120.334563335188776 ] ] ] } },
{ "type": "Feature", "properties": { "id": "shop_props:vsfldoadlm5tb0mzaaxe" }, "geometry": { "type": "Polygon", "coordinates": [ [ [ 305.938038265419721, 148.73072881963779 ], [ 305.919315017179258, 134.28554465958581 ], [ 301.935499948741892, 134.291013934152943 ], [ 301.936249012859207, 128.369597665221704 ], [ 305.809688692054863, 128.369597665221704 ], [ 305.809688692054863, 120.357571037265259 ], [ 314.042796894532785, 121.932272112410416 ], [ 314.017719445192938, 147.149889900287434 ], [ 305.938038265419721, 148.73072881963779 ] ] ] } },
{ "type": "Feature", "properties": { "id": "shop_props:e3uq1pi8hwwsj32pqeke" }, "geometry": { "type": "Polygon", "coordinates": [ [ [ 237.952162372096268, 148.752800402609864 ], [ 237.941190337958631, 141.153215583633568 ], [ 238.450020036757167, 141.141952480541278 ], [ 244.187865091904683, 145.455073226585455 ], [ 244.184027617309937, 148.752517930064386 ], [ 237.952162372096268, 148.752800402609864 ] ] ] } },
{ "type": "Feature", "properties": { "id": "shop_props:pdk836mckx092er7bu4n" }, "geometry": { "type": "Polygon", "coordinates": [ [ [ 257.439512393142536, 142.564656077846564 ], [ 257.435079961339113, 148.752746961857213 ], [ 252.806758474536764, 148.752800402609864 ], [ 252.797239157999712, 145.367155303074469 ], [ 257.439512393142536, 142.564656077846564 ] ] ] } },
{ "type": "Feature", "properties": { "id": "shop_props:8q3d3ai0nm9anxckxm8m" }, "geometry": { "type": "Polygon", "coordinates": [ [ [ 223.574288632395024, 183.560784535612072 ], [ 212.310713090632134, 183.636321695545433 ], [ 212.150830544481295, 158.530573825868146 ], [ 223.45490779461079, 158.455286219887256 ], [ 223.552139748011001, 167.390383589576345 ], [ 223.574288632395024, 183.560784535612072 ] ] ] } },
{ "type": "Feature", "properties": { "id": "shop_props:ztaq9ncm4zve10uya7p9" }, "geometry": { "type": "Polygon", "coordinates": [ [ [ 255.749982432766387, 158.513093339931515 ], [ 264.836899755944899, 158.511962216996125 ], [ 264.845928112717615, 167.293102255202797 ], [ 264.834803816504404, 181.74866934440891 ], [ 264.862913474046536, 183.785911990766095 ], [ 261.033203155078866, 183.785911990766095 ], [ 261.033203155078866, 181.5083249108404 ], [ 255.749982432766387, 181.5083249108404 ], [ 255.749982432766387, 158.513093339931515 ] ] ] } },
{ "type": "Feature", "properties": { "id": "shop_props:z7tvnburyimc87o4f09w" }, "geometry": { "type": "Polygon", "coordinates": [ [ [ 243.895682794273853, 158.508980215043408 ], [ 243.901166519859316, 179.27779511296373 ], [ 241.100131550822965, 179.27957090081668 ], [ 241.105969677692457, 183.535845573296257 ], [ 223.574288632395024, 183.560784535612072 ], [ 223.552139748011001, 167.390383589576345 ], [ 235.325257586464431, 167.373571709963784 ], [ 235.313159758621197, 158.514902365406243 ], [ 243.895682794273853, 158.508980215043408 ] ] ] } },
{ "type": "Feature", "properties": { "id": "shop_props:lnmob6amrx6muyx2dphx" }, "geometry": { "type": "Polygon", "coordinates": [ [ [ 243.895682794273853, 158.508980215043408 ], [ 250.323441896737251, 158.507204354936732 ], [ 250.324470698322159, 162.411446174782441 ], [ 252.844363062358298, 162.410750622428708 ], [ 252.848817986358426, 179.275335211008127 ], [ 243.901166519859316, 179.27779511296373 ], [ 243.895682794273853, 158.508980215043408 ] ] ] } },
{ "type": "Feature", "properties": { "id": "shop_props:51tuvuvper7656ctf2xp" }, "geometry": { "type": "Polygon", "coordinates": [ [ [ 235.325257586464431, 167.373571709963784 ], [ 223.552139748011001, 167.390383589576345 ], [ 223.45490779461079, 158.455286219887256 ], [ 235.313159758621197, 158.514902365406243 ], [ 235.325257586464431, 167.373571709963784 ] ] ] } },
{ "type": "Feature", "properties": { "id": "shop_props:iuxmhy3qtqbpqpgwd15x" }, "geometry": { "type": "Polygon", "coordinates": [ [ [ 258.612315414235013, 134.332736643990302 ], [ 258.631882843863082, 127.890499498586422 ], [ 263.835411200302133, 127.907306013669938 ], [ 269.930034804907507, 127.927043252003457 ], [ 269.935803112674478, 134.356768000576182 ], [ 258.612315414235013, 134.332736643990302 ] ] ] } },
{ "type": "Feature", "properties": { "id": "shop_props:mn19xu01p6zvrw8esinx" }, "geometry": { "type": "Polygon", "coordinates": [ [ [ 238.445452053237005, 134.278161318835373 ], [ 225.111987084840678, 134.321990829936965 ], [ 225.112802517327879, 127.996357339983632 ], [ 231.824884079683983, 127.962988095724569 ], [ 235.681272266913794, 127.943823247907531 ], [ 238.421874955775337, 127.930203397207165 ], [ 238.445452053237005, 134.278161318835373 ] ] ] } },
{ "type": "Feature", "properties": { "id": "shop_props:jobdkud2rnoxw88t7uae" }, "geometry": { "type": "Polygon", "coordinates": [ [ [ 238.450020036757167, 141.141952480541278 ], [ 237.941190337958631, 141.153215583633568 ], [ 225.121355860466622, 141.140428566524292 ], [ 225.111987084840678, 134.321990829936965 ], [ 238.445452053237005, 134.278161318835373 ], [ 238.450020036757167, 141.141952480541278 ] ] ] } },
{ "type": "Feature", "properties": { "id": "shop_props:qxp6bmwmiz6vgr5oggun" }, "geometry": { "type": "Polygon", "coordinates": [ [ [ 217.596839497286425, 148.751067816658889 ], [ 217.589342951211592, 134.343920191771701 ], [ 225.111987084840678, 134.321990829936965 ], [ 225.121355860466622, 141.140428566524292 ], [ 225.133033012308658, 148.74167088249564 ], [ 217.596839497286425, 148.751067816658889 ] ] ] } },
{ "type": "Feature", "properties": { "id": "shop_props:4205ddaalftwqo5pv0vb" }, "geometry": { "type": "Polygon", "coordinates": [ [ [ 258.583904493568923, 141.092336181709385 ], [ 258.612315414235013, 134.332736643990302 ], [ 269.935803112674478, 134.356768000576182 ], [ 269.951592433755764, 141.120973674018984 ], [ 261.313887698740189, 141.099232989967305 ], [ 258.583904493568923, 141.092336181709385 ] ] ] } },
{ "type": "Feature", "properties": { "id": "shop_props:ypyy1i14w546pmiljkpx" }, "geometry": { "type": "Polygon", "coordinates": [ [ [ 225.133033012308658, 148.74167088249564 ], [ 225.121355860466622, 141.140428566524292 ], [ 237.941190337958631, 141.153215583633568 ], [ 237.934004799064667, 148.760188902242504 ], [ 225.133033012308658, 148.74167088249564 ] ] ] } },
{ "type": "Feature", "properties": { "id": "shop_props:10525oexzdkqubq06b75" }, "geometry": { "type": "Polygon", "coordinates": [ [ [ 257.439512393142536, 142.564656077846564 ], [ 258.583904493568923, 141.092336181709385 ], [ 261.313887698740189, 141.099232989967305 ], [ 261.319314992721331, 148.767563629293051 ], [ 257.435079961339113, 148.752746961857213 ], [ 257.439512393142536, 142.564656077846564 ] ] ] } },
{ "type": "Feature", "properties": { "id": "shop_props:tiz1cm0t2qgzw1ext4b4" }, "geometry": { "type": "Polygon", "coordinates": [ [ [ 258.631882843863082, 127.890499498586422 ], [ 252.705645483144139, 123.739391291390703 ], [ 252.721620086593418, 120.321672417856206 ], [ 258.692442098750632, 120.299410889892286 ], [ 258.631882843863082, 127.890499498586422 ] ] ] } },
{ "type": "Feature", "properties": { "id": "shop_props:8waz1js24phnojrqf2bg" }, "geometry": { "type": "Polygon", "coordinates": [ [ [ 258.078267810833211, 110.439342581566933 ], [ 258.074309641042078, 104.008218725967112 ], [ 261.375154689999079, 104.006034182393279 ], [ 261.390860306201091, 110.460034187956964 ], [ 258.078267810833211, 110.439342581566933 ] ] ] } },
{ "type": "Feature", "properties": { "id": "shop_props:p4x5dcnkzaay3celnubv" }, "geometry": { "type": "Polygon", "coordinates": [ [ [ 231.824884079683983, 127.962988095724569 ], [ 231.815958976539235, 120.315821780459089 ], [ 235.67174766381649, 120.314284855295512 ], [ 235.681272266913794, 127.943823247907531 ], [ 231.824884079683983, 127.962988095724569 ] ] ] } },
{ "type": "Feature", "properties": { "id": "shop_props:o13mogyn9wpcyjhcyg0q" }, "geometry": { "type": "Polygon", "coordinates": [ [ [ 238.421874955775337, 127.930203397207165 ], [ 235.681272266913794, 127.943823247907531 ], [ 235.67174766381649, 120.314284855295512 ], [ 244.222833706637545, 120.319243812694708 ], [ 244.222833706637545, 123.758182557497406 ], [ 238.421874955775337, 127.930203397207165 ] ] ] } },
{ "type": "Feature", "properties": { "id": "shop_props:l9yglyilbbgzp7mdrwmm" }, "geometry": { "type": "Polygon", "coordinates": [ [ [ 225.112802517327879, 127.996357339983632 ], [ 225.113790296737903, 120.321195019287671 ], [ 231.815958976539235, 120.315821780459089 ], [ 231.824884079683983, 127.962988095724569 ], [ 225.112802517327879, 127.996357339983632 ] ] ] } },
{ "type": "Feature", "properties": { "id": "shop_props:n4qxalv8hod0l7k4rey4" }, "geometry": { "type": "Polygon", "coordinates": [ [ [ 213.106646730104671, 120.318214283431558 ], [ 217.581978555947813, 120.31803364021863 ], [ 217.589342951211592, 134.343920191771701 ], [ 213.110972970835576, 134.346388308366414 ], [ 213.106646730104671, 120.318214283431558 ] ] ] } },
{ "type": "Feature", "properties": { "id": "shop_props:koxdp9ozorruqpanofld" }, "geometry": { "type": "Polygon", "coordinates": [ [ [ 217.589342951211592, 134.343920191771701 ], [ 217.581978555947813, 120.31803364021863 ], [ 225.113790296737903, 120.321195019287671 ], [ 225.112802517327879, 127.996357339983632 ], [ 225.111987084840678, 134.321990829936965 ], [ 217.589342951211592, 134.343920191771701 ] ] ] } },
{ "type": "Feature", "properties": { "id": "shop_props:10jacbayqhqzm2v82vbn" }, "geometry": { "type": "Polygon", "coordinates": [ [ [ 93.789399467435999, 158.512706784863184 ], [ 93.78760476650541, 146.833648016337236 ], [ 116.625374749164038, 146.830951798352203 ], [ 116.626684433058543, 158.515049664284817 ], [ 142.160022953197171, 158.513550347509351 ], [ 142.090571222237742, 175.346446302095899 ], [ 139.762938971557361, 175.346719266109886 ], [ 139.763509108464973, 180.402795040299935 ], [ 139.763922600242751, 184.065910098036312 ], [ 109.894544055070909, 184.069405637426286 ], [ 109.894456276910176, 183.292050030538121 ], [ 105.491980188655319, 183.292565336515537 ], [ 105.492068760460299, 184.076949087006597 ], [ 102.937834326191492, 184.077248002172183 ], [ 102.937427911777178, 180.476868934513107 ], [ 96.069820858658886, 180.477673321432718 ], [ 96.070226783198763, 184.073714679876048 ], [ 88.293030310568611, 184.073516549143392 ], [ 88.29163537712958, 175.053641908321197 ], [ 82.356935359460024, 175.05459609185715 ], [ 82.354385177419147, 158.51455253723617 ], [ 93.789399467435999, 158.512706784863184 ] ] ] } },
{ "type": "Feature", "properties": { "id": "shop_props:299tr1jml2fcsdthm3qy" }, "geometry": { "type": "Polygon", "coordinates": [ [ [ 194.54427058230371, 178.112803800073891 ], [ 194.542994145029127, 158.512422475975256 ], [ 204.037618131387887, 158.561629124251368 ], [ 204.023808208877682, 178.113379287478494 ], [ 194.54427058230371, 178.112803800073891 ] ] ] } },
{ "type": "Feature", "properties": { "id": "shop_props:h6e8ppuxe0r0bjcwvrw3" }, "geometry": { "type": "Polygon", "coordinates": [ [ [ 176.502651140876679, 167.190727303311519 ], [ 174.507121642860568, 167.191320266006045 ], [ 165.70988557099065, 167.193934320893561 ], [ 165.710537691613894, 169.485908560277721 ], [ 154.704188929685444, 169.489177262149951 ], [ 154.701070370321673, 158.517276102535874 ], [ 176.500184702136153, 158.510785276587796 ], [ 176.502651140876679, 167.190727303311519 ] ] ] } },
{ "type": "Feature", "properties": { "id": "shop_props:s5062g0clre1itwkxu11" }, "geometry": { "type": "Polygon", "coordinates": [ [ [ 188.844624318763749, 178.113190440734655 ], [ 188.843347880889013, 158.512810918519705 ], [ 194.542994145029127, 158.512422475975256 ], [ 194.54427058230371, 178.112803800073891 ], [ 188.844624318763749, 178.113190440734655 ] ] ] } },
{ "type": "Feature", "properties": { "id": "shop_props:kxfyirvimsqlkdop4scl" }, "geometry": { "type": "Polygon", "coordinates": [ [ [ 181.755970659483296, 158.514224169406532 ], [ 188.843347880889013, 158.512810918519705 ], [ 188.844624318763749, 178.113190440734655 ], [ 186.120728764208707, 178.113467901123414 ], [ 186.119859200605674, 173.335388946074204 ], [ 179.225178081332871, 173.336695168727147 ], [ 179.223184640897387, 162.362635063209524 ], [ 181.756668409861419, 162.362153834106806 ], [ 181.755970659483296, 158.514224169406532 ] ] ] } },
{ "type": "Feature", "properties": { "id": "shop_props:0iga9y6fr9c2v5b6xhmk" }, "geometry": { "type": "Polygon", "coordinates": [ [ [ 154.704188929685444, 169.489177262149951 ], [ 165.710537691613894, 169.485908560277721 ], [ 165.742716847697324, 184.09289857365772 ], [ 148.401764488671603, 184.077363539623917 ], [ 148.401764488671603, 183.418358580322518 ], [ 148.116184990168421, 183.418358580322518 ], [ 148.116184990168421, 177.773843146039866 ], [ 142.123864423447174, 177.773843146039866 ], [ 142.123864423447174, 180.40278674117738 ], [ 139.763509108464973, 180.402795040299935 ], [ 139.762938971557361, 175.346719266109886 ], [ 142.090571222237742, 175.346446302095899 ], [ 142.160022953197171, 158.513550347509351 ], [ 154.701070370321673, 158.517276102535874 ], [ 154.704188929685444, 169.489177262149951 ] ] ] } },
{ "type": "Feature", "properties": { "id": "shop_props:9zi5qsqhm77eqnj73cwm" }, "geometry": { "type": "Polygon", "coordinates": [ [ [ 212.310713090632134, 183.636321695545433 ], [ 208.750468352695151, 183.668720346992131 ], [ 208.707665834749349, 176.255119150876254 ], [ 204.048837241702017, 176.28307227675711 ], [ 203.996954768085516, 167.279275272120543 ], [ 204.087743111111848, 167.278729374109361 ], [ 204.037618131387887, 158.561629124251368 ], [ 212.150830544481295, 158.530573825868146 ], [ 212.310713090632134, 183.636321695545433 ] ] ] } },
{ "type": "Feature", "properties": { "id": "shop_props:6a7als0ahynp4s3ug5vp" }, "geometry": { "type": "Polygon", "coordinates": [ [ [ 200.27700235953705, 120.317071840075542 ], [ 206.982115543821806, 120.318498739051208 ], [ 206.980522398573527, 128.306008419446442 ], [ 200.275409214888981, 128.304584182727268 ], [ 200.27700235953705, 120.317071840075542 ] ] ] } },
{ "type": "Feature", "properties": { "id": "shop_props:hnrnvd9zpvv4pag9nkp5" }, "geometry": { "type": "Polygon", "coordinates": [ [ [ 206.981080481930462, 134.3497680724264 ], [ 206.980522398573527, 128.306008419446442 ], [ 206.982115543821806, 120.318498739051208 ], [ 213.106646730104671, 120.318214283431558 ], [ 213.110972970835576, 134.346388308366414 ], [ 206.981080481930462, 134.3497680724264 ] ] ] } },
{ "type": "Feature", "properties": { "id": "shop_props:2oop5asrxp3rto4ptbpi" }, "geometry": { "type": "Polygon", "coordinates": [ [ [ 200.108293170184453, 148.757675599556507 ], [ 200.110838510513958, 139.164463687797053 ], [ 206.979804663002113, 139.166390760684777 ], [ 206.981080481930462, 134.3497680724264 ], [ 213.110972970835576, 134.346388308366414 ], [ 217.589342951211592, 134.343920191771701 ], [ 217.596839497286425, 148.751067816658889 ], [ 200.108293170184453, 148.757675599556507 ] ] ] } },
{ "type": "Feature", "properties": { "id": "shop_props:3j5u1lfkxyyxtajovp4y" }, "geometry": { "type": "Polygon", "coordinates": [ [ [ 174.349111471541931, 148.752960275782556 ], [ 174.350598093131282, 135.833985377680875 ], [ 183.050022935174468, 135.834295538798699 ], [ 183.049587750247099, 148.753269593199235 ], [ 174.349111471541931, 148.752960275782556 ] ] ] } },
{ "type": "Feature", "properties": { "id": "shop_props:59hyac4mlw64fnnmqdt0" }, "geometry": { "type": "Polygon", "coordinates": [ [ [ 125.499753790707018, 144.758518092320941 ], [ 125.487007482678891, 138.077888903788249 ], [ 132.245585324288982, 138.082959262411947 ], [ 132.243485653758825, 144.758517998947156 ], [ 125.499753790707018, 144.758518092320941 ] ] ] } },
{ "type": "Feature", "properties": { "id": "shop_props:84z01kc8o8elr5rjncp8" }, "geometry": { "type": "Polygon", "coordinates": [ [ [ 125.499753790707018, 148.752800402609864 ], [ 125.499753790707018, 144.758518092320941 ], [ 132.243485653758825, 144.758517998947156 ], [ 132.242230222849145, 148.7478343643904 ], [ 125.499753790707018, 148.752800402609864 ] ] ] } },
{ "type": "Feature", "properties": { "id": "shop_props:q0oppm350vwplleamkok" }, "geometry": { "type": "Polygon", "coordinates": [ [ [ 132.242230222849145, 148.7478343643904 ], [ 132.243485653758825, 144.758517998947156 ], [ 132.245585324288982, 138.082959262411947 ], [ 147.913472398254697, 138.094713457738067 ], [ 147.885281960071012, 148.747595211573781 ], [ 132.242230222849145, 148.7478343643904 ] ] ] } },
{ "type": "Feature", "properties": { "id": "shop_props:6we2d3ear0cwykqny8ku" }, "geometry": { "type": "Polygon", "coordinates": [ [ [ 93.78760476650541, 146.833648016337236 ], [ 93.783848207627329, 122.28340606193963 ], [ 105.199786729573447, 122.289137353589254 ], [ 105.205338836456093, 110.483294881013435 ], [ 116.637191284668987, 110.489054834983833 ], [ 116.625374749164038, 146.830951798352203 ], [ 93.78760476650541, 146.833648016337236 ] ] ] } },
{ "type": "Feature", "properties": { "id": "shop_props:1nnmnps3goe259z1fg2p" }, "geometry": { "type": "Polygon", "coordinates": [ [ [ 191.827746700287889, 110.470561082335095 ], [ 191.827750909244969, 108.007969070285526 ], [ 193.874408429943657, 108.007969070285526 ], [ 193.874387798189076, 110.470523909690769 ], [ 191.827746700287889, 110.470561082335095 ] ] ] } },
{ "type": "Feature", "properties": { "id": "shop_props:6rln1asts80hnks59x26" }, "geometry": { "type": "Polygon", "coordinates": [ [ [ 147.924746567204807, 120.291846636924944 ], [ 147.934966105103825, 110.584195761427381 ], [ 163.544650444361821, 110.601804902671859 ], [ 163.534430905862564, 120.309415984396637 ], [ 161.001039815003168, 120.306564553014127 ], [ 147.924746567204807, 120.291846636924944 ] ] ] } },
{ "type": "Feature", "properties": { "id": "shop_props:1lrnebrnm13tjsolt2tv" }, "geometry": { "type": "Polygon", "coordinates": [ [ [ 147.885281960071012, 148.747595211573781 ], [ 147.913472398254697, 138.094713457738067 ], [ 147.924746567204807, 120.291846636924944 ], [ 161.001039815003168, 120.306564553014127 ], [ 160.97838228374934, 148.758619925521828 ], [ 147.885281960071012, 148.747595211573781 ] ] ] } },
{ "type": "Feature", "properties": { "id": "shop_props:z7oulntr5r4di5ldxsy4" }, "geometry": { "type": "Polygon", "coordinates": [ [ [ 160.97838228374934, 148.758619925521828 ], [ 161.001039815003168, 120.306564553014127 ], [ 163.534430905862564, 120.309415984396637 ], [ 174.351952191099798, 120.307341292489468 ], [ 174.350598093131282, 135.833985377680875 ], [ 174.349467518947989, 148.754430939130771 ], [ 160.97838228374934, 148.758619925521828 ] ] ] } },
{ "type": "Feature", "properties": { "id": "shop_props:3hlu86v50qvxdtocr2qh" }, "geometry": { "type": "Polygon", "coordinates": [ [ [ 174.351952191099798, 120.307341292489468 ], [ 183.053232752247425, 120.307302917105531 ], [ 183.050022935174468, 135.834295538798699 ], [ 174.350598093131282, 135.833985377680875 ], [ 174.351952191099798, 120.307341292489468 ] ] ] } },
{ "type": "Feature", "properties": { "id": "shop_props:lgwwihcfdfe2wqel2u31" }, "geometry": { "type": "Polygon", "coordinates": [ [ [ 183.049587750247099, 148.753269593199235 ], [ 183.050022935174468, 135.834295538798699 ], [ 183.053232752247425, 120.307302917105531 ], [ 200.27700235953705, 120.317071840075542 ], [ 200.275409214888981, 128.304584182727268 ], [ 206.980522398573527, 128.306008419446442 ], [ 206.981080481930462, 134.3497680724264 ], [ 206.979804663002113, 139.166390760684777 ], [ 200.110838510513958, 139.164463687797053 ], [ 200.108293170184453, 148.757675599556507 ], [ 183.049587750247099, 148.753269593199235 ] ] ] } },
{ "type": "Feature", "properties": { "id": "shop_props:e0gsbjql4tcaxbpkxzht" }, "geometry": { "type": "Polygon", "coordinates": [ [ [ 305.866672740631373, 110.465276009187406 ], [ 305.86620877078326, 100.987324320885904 ], [ 310.528122364398314, 100.985848421953378 ], [ 311.524542113233053, 100.986294965034986 ], [ 311.525512897124656, 103.699708428036033 ], [ 311.524167930270096, 110.467384464491388 ], [ 305.866672740631373, 110.465276009187406 ] ] ] } },
{ "type": "Feature", "properties": { "id": "shop_props:gzqdvlyu6fg2kwqxpdla" }, "geometry": { "type": "Polygon", "coordinates": [ [ [ 311.525512897124656, 103.699708428036033 ], [ 311.524542113233053, 100.986294965034986 ], [ 315.099930684744209, 100.987897267194114 ], [ 315.102062237329676, 103.7004727977491 ], [ 311.525512897124656, 103.699708428036033 ] ] ] } },
{ "type": "Feature", "properties": { "id": "shop_props:4nkpzutejvob81bsvuy8" }, "geometry": { "type": "Polygon", "coordinates": [ [ [ 261.390860306201091, 110.460034187956964 ], [ 261.375154689999079, 104.006034182393279 ], [ 261.368774666037154, 101.381488534589693 ], [ 261.604674178637651, 101.380870890176425 ], [ 263.30867730577711, 101.37640937440311 ], [ 267.873820745025, 101.364456641505328 ], [ 267.895906385188937, 110.443038175848642 ], [ 261.390860306201091, 110.460034187956964 ] ] ] } },
{ "type": "Feature", "properties": { "id": "shop_props:6kz1a7ccoxz1hwkh3q89" }, "geometry": { "type": "Polygon", "coordinates": [ [ [ 240.07342963092006, 110.47073463583439 ], [ 240.075425572956505, 103.720805744395591 ], [ 244.509868433949009, 103.727093534169953 ], [ 244.501012640220182, 110.443439496156074 ], [ 240.07342963092006, 110.47073463583439 ] ] ] } },
{ "type": "Feature", "properties": { "id": "shop_props:pr5bn2ihex5smie1owfl" }, "geometry": { "type": "Polygon", "coordinates": [ [ [ 235.615730888965714, 110.468572646403757 ], [ 235.619878299741828, 101.284405772243389 ], [ 240.078626223495718, 101.290808681509702 ], [ 240.075425572956505, 103.720805744395591 ], [ 240.07342963092006, 110.47073463583439 ], [ 235.615730888965714, 110.468572646403757 ] ] ] } },
{ "type": "Feature", "properties": { "id": "shop_props:z164cll19h5wpzn50ukv" }, "geometry": { "type": "Polygon", "coordinates": [ [ [ 273.475875343307052, 110.421294619454727 ], [ 273.447939097084827, 103.208609390031114 ], [ 278.513203535783816, 103.187464416516605 ], [ 278.518000279822843, 110.472767226311788 ], [ 273.475875343307052, 110.421294619454727 ] ] ] } },
{ "type": "Feature", "properties": { "id": "shop_props:hhcdu48d897ja4u8vrib" }, "geometry": { "type": "Polygon", "coordinates": [ [ [ 311.524167930270096, 110.467384464491388 ], [ 311.525512897124656, 103.699708428036033 ], [ 315.102062237329676, 103.7004727977491 ], [ 315.100717270474149, 110.468147632576972 ], [ 311.524167930270096, 110.467384464491388 ] ] ] } },
{ "type": "Feature", "properties": { "id": "shop_props:mhcburhrj3djekzz11i7" }, "geometry": { "type": "Polygon", "coordinates": [ [ [ 226.999291902930281, 110.469091346056317 ], [ 226.987446671353723, 101.272235605874187 ], [ 235.619878299741828, 101.284405772243389 ], [ 235.615730888965714, 110.468572646403757 ], [ 226.999291902930281, 110.469091346056317 ] ] ] } },
{ "type": "Feature", "properties": { "id": "shop_props:rgklppx8u71xcsmknmii" }, "geometry": { "type": "Polygon", "coordinates": [ [ [ 286.991660365282712, 110.470056090798622 ], [ 286.982390072412386, 101.29015772722083 ], [ 286.976413420360757, 95.361400204530796 ], [ 295.525556072177324, 95.355896939796665 ], [ 295.528640683127833, 110.461968640685598 ], [ 286.991660365282712, 110.470056090798622 ] ] ] } },
{ "type": "Feature", "properties": { "id": "shop_props:3vfc5kk21nwmbo8odklh" }, "geometry": { "type": "Polygon", "coordinates": [ [ [ 273.475875343307052, 110.421294619454727 ], [ 267.895906385188937, 110.443038175848642 ], [ 267.873820745025, 101.364456641505328 ], [ 263.30867730577711, 101.37640937440311 ], [ 263.285638446958728, 95.418598180483073 ], [ 278.508060108383802, 95.361909563497377 ], [ 278.513203535783816, 103.187464416516605 ], [ 273.447939097084827, 103.208609390031114 ], [ 273.475875343307052, 110.421294619454727 ] ] ] } },
{ "type": "Feature", "properties": { "id": "shop_props:0lsza4riwgyluwr3ku5a" }, "geometry": { "type": "Polygon", "coordinates": [ [ [ 310.528122364398314, 100.985848421953378 ], [ 310.530462482791904, 95.355241243470303 ], [ 315.102270802537646, 95.357292763191012 ], [ 315.099930684744209, 100.987897267194114 ], [ 311.524542113233053, 100.986294965034986 ], [ 310.528122364398314, 100.985848421953378 ] ] ] } },
{ "type": "Feature", "properties": { "id": "shop_props:8592xi4fl4v02qo9jdkt" }, "geometry": { "type": "Polygon", "coordinates": [ [ [ 295.528640683127833, 110.461968640685598 ], [ 295.525556072177324, 95.355896939796665 ], [ 310.530462482791904, 95.355241243470303 ], [ 310.528122364398314, 100.985848421953378 ], [ 305.861761346182789, 100.986044001590315 ], [ 305.866672740631373, 110.465276009187406 ], [ 295.528640683127833, 110.461968640685598 ] ] ] } },
{ "type": "Feature", "properties": { "id": "shop_props:wg564frbyzkqna52b5am" }, "geometry": { "type": "Polygon", "coordinates": [ [ [ 278.518000279822843, 110.472767226311788 ], [ 278.513203535783816, 103.187464416516605 ], [ 278.508060108383802, 95.361909563497377 ], [ 286.976413420360757, 95.361400204530796 ], [ 286.982390072412386, 101.29015772722083 ], [ 284.781293874226662, 101.29172104706754 ], [ 284.787334550934929, 110.468334920872707 ], [ 278.518000279822843, 110.472767226311788 ] ] ] } },
{ "type": "Feature", "properties": { "id": "shop_props:f4jkiqccgx6rmzzlqfcr" }, "geometry": { "type": "Polygon", "coordinates": [ [ [ 386.932439259081832, 145.375528920653181 ], [ 354.208538978364345, 178.921710566290841 ], [ 352.254401764086026, 178.921710566290841 ], [ 352.254401764086026, 177.506793684256081 ], [ 338.801465538266427, 177.522459216609377 ], [ 338.801465538266427, 167.700376200310728 ], [ 341.282705162258139, 167.700376200310728 ], [ 341.282705162258139, 151.078623272334596 ], [ 342.730801455005519, 149.893504654540607 ], [ 344.963319184363627, 148.277442053713514 ], [ 346.08894862627676, 146.968752860965395 ], [ 347.214578068791411, 144.812390423033179 ], [ 348.867339668278703, 141.75976779916931 ], [ 349.917944995994674, 139.735726743695693 ], [ 350.068260955134576, 137.951915913817771 ], [ 349.936953881807767, 133.184806476762446 ], [ 349.974614677908789, 130.169297972623696 ], [ 349.359726320073776, 128.729582796519452 ], [ 348.855113295843239, 127.359289914915934 ], [ 347.513544106287213, 124.765747793239669 ], [ 346.004286204100822, 122.632104155411184 ], [ 344.401828243195837, 121.132149832627036 ], [ 342.810793462494985, 119.755539286183264 ], [ 340.109003171293978, 118.235323494144296 ], [ 336.680532048371447, 117.157385186273544 ], [ 334.87314104878152, 116.772342090388065 ], [ 332.987423923086283, 116.760950485379524 ], [ 325.602695066138836, 116.760950485379524 ], [ 323.663164053129947, 114.706089976250141 ], [ 323.663164053129947, 95.454269477721127 ], [ 332.8964252054393, 95.454269477721127 ], [ 332.8964252054393, 108.084900806412307 ], [ 341.843273919752733, 108.084900806412307 ], [ 341.843273919752733, 104.692471503698485 ], [ 347.476478266794231, 104.659284156525601 ], [ 386.932439259081832, 145.375528920653181 ] ] ] } },
{ "type": "Feature", "properties": { "id": "shop_props:h0vgxexejqh69ho4571t" }, "geometry": { "type": "Polygon", "coordinates": [ [ [ 226.994930727433626, 95.584818816165921 ], [ 252.453108421808025, 95.620985095083896 ], [ 252.436581611092151, 101.882960665301155 ], [ 252.441848810411557, 110.443067213892263 ], [ 244.501012640220182, 110.443439496156074 ], [ 244.509868433949009, 103.727093534169953 ], [ 240.075425572956505, 103.720805744395591 ], [ 240.078626223495718, 101.290808681509702 ], [ 226.987446671353723, 101.272235605874187 ], [ 226.994930727433626, 95.584818816165921 ] ] ] } },
{ "type": "Feature", "properties": { "id": "shop_props:zh8kemcbplsv8v60nicn" }, "geometry": { "type": "Polygon", "coordinates": [ [ [ 252.436581611092151, 101.882960665301155 ], [ 252.751811721556351, 101.882751941124525 ], [ 252.75102944683988, 100.609968856559945 ], [ 261.604193475017553, 100.604105171330019 ], [ 261.604674178637651, 101.380870890176425 ], [ 261.368774666037154, 101.381488534589693 ], [ 261.375154689999079, 104.006034182393279 ], [ 258.074309641042078, 104.008218725967112 ], [ 258.078267810833211, 110.439342581566933 ], [ 252.441848810411557, 110.443067213892263 ], [ 252.436581611092151, 101.882960665301155 ] ] ] } },
{ "type": "Feature", "properties": { "id": "shop_props:kyrlkt6zd88zx509hnfb" }, "geometry": { "type": "Polygon", "coordinates": [ [ [ 209.28109000477636, 101.210085199768983 ], [ 209.294891059719617, 100.554021412650783 ], [ 209.3192885112243, 95.416260154259916 ], [ 226.994930727433626, 95.584818816165921 ], [ 226.987446671353723, 101.272235605874187 ], [ 221.849071744191036, 101.276032564846361 ], [ 217.537434142645964, 101.244018087442058 ], [ 209.28109000477636, 101.210085199768983 ] ] ] } },
{ "type": "Feature", "properties": { "id": "shop_props:uv70l17fvb03jko2zpsc" }, "geometry": { "type": "Polygon", "coordinates": [ [ [ 163.525616375044194, 95.908188176422854 ], [ 163.552313276366135, 101.930412518086442 ], [ 147.938229987255568, 101.921536792431183 ], [ 147.998745664337349, 95.922209299626871 ], [ 163.525616375044194, 95.908188176422854 ] ] ] } },
{ "type": "Feature", "properties": { "id": "shop_props:xpmxrx6dk64n45ytl6vu" }, "geometry": { "type": "Polygon", "coordinates": [ [ [ 125.510240089806345, 101.915830082460047 ], [ 125.498837757478341, 98.323562346283794 ], [ 138.513125796175871, 98.327718516349066 ], [ 138.512065542376234, 101.924771297380772 ], [ 125.510240089806345, 101.915830082460047 ] ] ] } },
{ "type": "Feature", "properties": { "id": "shop_props:1sm1pwx0gduqy091h44g" }, "geometry": { "type": "Polygon", "coordinates": [ [ [ 209.25883817653849, 110.460454683173651 ], [ 206.159783179822881, 110.466213422174846 ], [ 206.145864519013344, 100.558775607576479 ], [ 209.294891059719617, 100.554021412650783 ], [ 209.28109000477636, 101.210085199768983 ], [ 209.25883817653849, 110.460454683173651 ] ] ] } },
{ "type": "Feature", "properties": { "id": "shop_props:a6bq67rycvl0bavlabyo" }, "geometry": { "type": "Polygon", "coordinates": [ [ [ 221.866550013375161, 110.48078055233313 ], [ 217.522632562553554, 110.473015654217306 ], [ 217.537434142645964, 101.244018087442058 ], [ 221.849071744191036, 101.276032564846361 ], [ 221.866550013375161, 110.48078055233313 ] ] ] } },
{ "type": "Feature", "properties": { "id": "shop_props:bp23zc096vrwwomvgk6r" }, "geometry": { "type": "Polygon", "coordinates": [ [ [ 209.28109000477636, 101.210085199768983 ], [ 217.537434142645964, 101.244018087442058 ], [ 217.522632562553554, 110.473015654217306 ], [ 209.25883817653849, 110.460454683173651 ], [ 209.28109000477636, 101.210085199768983 ] ] ] } },
{ "type": "Feature", "properties": { "id": "shop_props:4ia05yvl8xl72jezywl3" }, "geometry": { "type": "Polygon", "coordinates": [ [ [ 147.934966105103825, 110.584195761427381 ], [ 147.938229987255568, 101.921536792431183 ], [ 163.552313276366135, 101.930412518086442 ], [ 163.544650444361821, 110.601804902671859 ], [ 147.934966105103825, 110.584195761427381 ] ] ] } },
{ "type": "Feature", "properties": { "id": "shop_props:ert73du45wfpxhtr629w" }, "geometry": { "type": "Polygon", "coordinates": [ [ [ 226.999291902930281, 110.469091346056317 ], [ 221.866550013375161, 110.48078055233313 ], [ 221.849071744191036, 101.276032564846361 ], [ 226.987446671353723, 101.272235605874187 ], [ 226.999291902930281, 110.469091346056317 ] ] ] } },
{ "type": "Feature", "properties": { "id": "shop_props:ri5odkwde8txkteznxu3" }, "geometry": { "type": "Polygon", "coordinates": [ [ [ 154.726571412096831, 89.818949011892897 ], [ 154.725805896366268, 85.435958697953524 ], [ 163.514777216324035, 85.429514135227805 ], [ 163.520522530012983, 89.810996658747882 ], [ 154.726571412096831, 89.818949011892897 ] ] ] } },
{ "type": "Feature", "properties": { "id": "shop_props:1cpit7warrpwczl5xtuf" }, "geometry": { "type": "Polygon", "coordinates": [ [ [ 147.998745664337349, 95.922209299626871 ], [ 147.993651819906376, 89.825037568238216 ], [ 154.726571412096831, 89.818949011892897 ], [ 163.520522530012983, 89.810996658747882 ], [ 163.525616375044194, 95.908188176422854 ], [ 147.998745664337349, 95.922209299626871 ] ] ] } },
{ "type": "Feature", "properties": { "id": "shop_props:b4lk6028bifzxz8g7a8q" }, "geometry": { "type": "Polygon", "coordinates": [ [ [ 183.260378576813054, 93.873780736692055 ], [ 174.40740704224288, 93.873780627755323 ], [ 174.407407092670923, 89.466949616978411 ], [ 183.260378626640971, 89.466949725915129 ], [ 183.260378576813054, 93.873780736692055 ] ] ] } },
{ "type": "Feature", "properties": { "id": "shop_props:atguqvtkto0scyp8h0ym" }, "geometry": { "type": "Polygon", "coordinates": [ [ [ 125.498837757478341, 98.323562346283794 ], [ 125.500670828898208, 92.126165343814449 ], [ 133.746808697500541, 92.128802564219001 ], [ 133.747526050057076, 89.701097889052576 ], [ 144.092313678449074, 89.704408139899058 ], [ 144.088701287313029, 101.928990403385299 ], [ 138.512065542376234, 101.924771297380772 ], [ 138.513125796175871, 98.327718516349066 ], [ 125.498837757478341, 98.323562346283794 ] ] ] } },
{ "type": "Feature", "properties": { "id": "shop_props:hi0na3gvfra17f2epe44" }, "geometry": { "type": "Polygon", "coordinates": [ [ [ 174.407407067456688, 110.47055322451348 ], [ 174.40740704224288, 93.873780627755323 ], [ 183.260378576813054, 93.873780736692055 ], [ 183.260357359730392, 110.470545366691752 ], [ 174.407407067456688, 110.47055322451348 ] ] ] } },
{ "type": "Feature", "properties": { "id": "shop_props:wpmqw51dp3i2hsqg5iuo" }, "geometry": { "type": "Polygon", "coordinates": [ [ [ 193.874387798189076, 110.470523909690769 ], [ 193.874408429943657, 108.007969070285526 ], [ 193.87443241937936, 105.142866487560454 ], [ 191.827755803786459, 105.142848061859937 ], [ 191.827772494333828, 95.358244124400102 ], [ 192.113334710958611, 95.358244649072546 ], [ 200.384742623364303, 95.365013863584494 ], [ 200.405957283731851, 110.474895725791484 ], [ 193.874387798189076, 110.470523909690769 ] ] ] } },
{ "type": "Feature", "properties": { "id": "shop_props:u4ci69yi3uo347457owj" }, "geometry": { "type": "Polygon", "coordinates": [ [ [ 183.260357359730392, 110.470545366691752 ], [ 183.260378576813054, 93.873780736692055 ], [ 192.113337239574776, 93.873804508022516 ], [ 192.113334710958611, 95.358244649072546 ], [ 191.827772494333828, 95.358244124400102 ], [ 191.827755803786459, 105.142848061859937 ], [ 191.827750909244969, 108.007969070285526 ], [ 191.827746700287889, 110.470561082335095 ], [ 183.260357359730392, 110.470545366691752 ] ] ] } },
{ "type": "Feature", "properties": { "id": "shop_props:kf71twgz701ty4n52hzw" }, "geometry": { "type": "Polygon", "coordinates": [ [ [ 200.405957283731851, 110.474895725791484 ], [ 200.384742623364303, 95.365013863584494 ], [ 209.3192885112243, 95.416260154259916 ], [ 209.294891059719617, 100.554021412650783 ], [ 206.145864519013344, 100.558775607576479 ], [ 206.159783179822881, 110.466213422174846 ], [ 200.405957283731851, 110.474895725791484 ] ] ] } },
{ "type": "Feature", "properties": { "id": "shop_props:p2tw8zg1thymrob9gyen" }, "geometry": { "type": "Polygon", "coordinates": [ [ [ 158.720153366122616, 63.230388052855119 ], [ 158.720153366122616, 56.118116332096911 ], [ 159.171711074081003, 55.127416072125953 ], [ 160.660175218828215, 55.953332979857116 ], [ 161.320429069815305, 54.675035853702923 ], [ 164.522042978517675, 56.589498000314087 ], [ 164.522042978517675, 61.487933638673937 ], [ 163.327175382459615, 63.230388052855119 ], [ 158.720153366122616, 63.230388052855119 ] ] ] } },
{ "type": "Feature", "properties": { "id": "shop_props:7zps679d82uf9pesphks" }, "geometry": { "type": "Polygon", "coordinates": [ [ [ 150.065233378826548, 60.184464787916909 ], [ 150.064997643602084, 63.159375126767323 ], [ 145.519855843363274, 63.14075109366928 ], [ 145.503842925855821, 60.20300217709913 ], [ 150.065233378826548, 60.184464787916909 ] ] ] } },
{ "type": "Feature", "properties": { "id": "shop_props:4gpolqaf5nv5vmh3tf2k" }, "geometry": { "type": "Polygon", "coordinates": [ [ [ 147.993651819906376, 89.825037568238216 ], [ 147.991511056361787, 74.530297374710742 ], [ 154.723901127391883, 74.529016448486573 ], [ 154.725805896366268, 85.435958697953524 ], [ 154.726571412096831, 89.818949011892897 ], [ 147.993651819906376, 89.825037568238216 ] ] ] } },
{ "type": "Feature", "properties": { "id": "shop_props:ozhmatdhu4z87ubxlgyl" }, "geometry": { "type": "Polygon", "coordinates": [ [ [ 139.30202258923083, 74.613237616101159 ], [ 139.27403487438292, 86.454088595426683 ], [ 144.082855902978906, 86.466436421508874 ], [ 144.092313678449074, 89.704408139899058 ], [ 133.747526050057076, 89.701097889052576 ], [ 133.755462777657584, 86.743275373995601 ], [ 133.760178664811718, 77.668857467360027 ], [ 133.771503033876314, 74.56721505443214 ], [ 139.30202258923083, 74.613237616101159 ] ] ] } },
{ "type": "Feature", "properties": { "id": "shop_props:ax44ea2sohymhxztdzfz" }, "geometry": { "type": "Polygon", "coordinates": [ [ [ 183.545951019565138, 74.965604019906436 ], [ 183.799579487347415, 75.26580586938654 ], [ 184.051886911673535, 75.567180525278133 ], [ 184.302869485210891, 75.869722937626335 ], [ 184.552523400027297, 76.17342805537659 ], [ 184.800844848789268, 76.478290826359341 ], [ 185.047830022965343, 76.784306202840469 ], [ 185.29347511582219, 77.091469133765614 ], [ 185.537776318827383, 77.399774569182952 ], [ 185.780729825249068, 77.709217461374351 ], [ 186.022331825953728, 78.019792762602592 ], [ 186.262578514209508, 78.331495422922259 ], [ 186.501466082084022, 78.644320396836093 ], [ 186.738990721643773, 78.958262636616396 ], [ 186.975148625557523, 79.273317095644558 ], [ 187.209935985891718, 79.589478728429739 ], [ 187.832097696201174, 80.490807476664827 ], [ 190.436671966325008, 84.583238202974854 ], [ 183.050192506743883, 84.614433906164166 ], [ 183.053900733753665, 86.346746282525032 ], [ 174.729802579736855, 86.366081991571178 ], [ 174.692986565960354, 74.529524595829486 ], [ 174.692986565960354, 74.449985581060304 ], [ 174.692986565960354, 67.975052438606809 ], [ 176.692043055483737, 67.975052438606809 ], [ 177.871159157645934, 69.018214995342333 ], [ 179.05067685652449, 70.06148368215041 ], [ 179.334848923789309, 70.349950564571571 ], [ 179.617708357107631, 70.639783341969704 ], [ 179.899250634146966, 70.930976779866171 ], [ 180.179471233174041, 71.223525644897578 ], [ 180.45836563305761, 71.517424703710148 ], [ 180.735929311464133, 71.812668721831699 ], [ 181.012157747261995, 72.109252467010776 ], [ 181.287046418719115, 72.407170704768987 ], [ 181.56059080410202, 72.706418202864441 ], [ 181.832786381079273, 73.006989726824941 ], [ 182.103628629118163, 73.30888004439619 ], [ 182.373113025886028, 73.612083923329934 ], [ 182.641235049651073, 73.91659612916024 ], [ 182.907990178680279, 74.222411430741786 ], [ 183.17337389184172, 74.529524595829486 ], [ 183.545951019565138, 74.965604019906436 ] ] ] } },
{ "type": "Feature", "properties": { "id": "shop_props:tvmjvwu50xdw0ykpsruq" }, "geometry": { "type": "Polygon", "coordinates": [ [ [ 128.054569628393267, 74.544454380774525 ], [ 133.771503033876314, 74.56721505443214 ], [ 133.760178664811718, 77.668857467360027 ], [ 128.043245259328671, 77.646113021791592 ], [ 128.054569628393267, 74.544454380774525 ] ] ] } },
{ "type": "Feature", "properties": { "id": "shop_props:ctki5o1zv39evnugzi9e" }, "geometry": { "type": "Polygon", "coordinates": [ [ [ 139.27403487438292, 86.454088595426683 ], [ 139.30202258923083, 74.613237616101159 ], [ 144.110843618426998, 74.625619161125385 ], [ 144.082855902978906, 86.466436421508874 ], [ 139.27403487438292, 86.454088595426683 ] ] ] } },
{ "type": "Feature", "properties": { "id": "shop_props:yqa15dy9qc9v66ln3oyb" }, "geometry": { "type": "Polygon", "coordinates": [ [ [ 163.514777216324035, 85.429514135227805 ], [ 154.725805896366268, 85.435958697953524 ], [ 154.723901127391883, 74.529016448486573 ], [ 154.988001169226948, 74.529524595829486 ], [ 163.514777216324035, 85.429514135227805 ] ] ] } },
{ "type": "Feature", "properties": { "id": "shop_props:yq16cclljeqzs2t10g4u" }, "geometry": { "type": "Polygon", "coordinates": [ [ [ 5.481353644560919, 74.88556597060456 ], [ 5.470733109681699, 70.618987071693667 ], [ 10.2701580173373, 70.605955635061065 ], [ 10.280780286587381, 74.884776029901587 ], [ 5.481353644560919, 74.88556597060456 ] ] ] } },
{ "type": "Feature", "properties": { "id": "shop_props:8i0p4hmbc5f2tub3o1vw" }, "geometry": { "type": "Polygon", "coordinates": [ [ [ 125.497142960899723, 86.739438433393957 ], [ 125.502365730535786, 74.528850479359789 ], [ 127.298941746945047, 74.529687546991084 ], [ 128.054569628393267, 74.544454380774525 ], [ 128.043245259328671, 77.646113021791592 ], [ 133.760178664811718, 77.668857467360027 ], [ 133.755462777657584, 86.743275373995601 ], [ 125.497142960899723, 86.739438433393957 ] ] ] } },
{ "type": "Feature", "properties": { "id": "shop_props:ci7m07ije37or1hsnln3" }, "geometry": { "type": "Polygon", "coordinates": [ [ [ 105.206407370093132, 74.874991315698281 ], [ 116.701897256344182, 74.827782947585661 ], [ 116.637191284668987, 110.489054834983833 ], [ 105.205338836456093, 110.483294881013435 ], [ 105.199786729573447, 122.289137353589254 ], [ 93.783848207627329, 122.28340606193963 ], [ 93.781645105169972, 86.737994149169069 ], [ 98.16379447955552, 86.740866705182015 ], [ 105.198769939515344, 86.74547097232562 ], [ 105.206407370093132, 74.874991315698281 ] ] ] } },
{ "type": "Feature", "properties": { "id": "shop_props:z2xixpia4isg88yz3j9e" }, "geometry": { "type": "Polygon", "coordinates": [ [ [ 93.781645105169972, 86.737994149169069 ], [ 93.780913408780123, 74.867649062606802 ], [ 98.171432098639002, 74.870061389663817 ], [ 98.16379447955552, 86.740866705182015 ], [ 93.781645105169972, 86.737994149169069 ] ] ] } },
{ "type": "Feature", "properties": { "id": "shop_props:vdw7y6jfwb23mndnt792" }, "geometry": { "type": "Polygon", "coordinates": [ [ [ 105.206407370093132, 74.874991315698281 ], [ 105.198769939515344, 86.74547097232562 ], [ 98.16379447955552, 86.740866705182015 ], [ 98.171432098639002, 74.870061389663817 ], [ 105.206407370093132, 74.874991315698281 ] ] ] } },
{ "type": "Feature", "properties": { "id": "shop_props:7he2symb6q2x829qannx" }, "geometry": { "type": "Polygon", "coordinates": [ [ [ 2.132389930526498, 166.595088788448663 ], [ 2.118401765190449, 74.886119480780877 ], [ 5.481353644560919, 74.88556597060456 ], [ 10.280780286587381, 74.884776029901587 ], [ 93.780913408780123, 74.867649062606802 ], [ 93.781645105169972, 86.737994149169069 ], [ 93.783848207627329, 122.28340606193963 ], [ 93.78760476650541, 146.833648016337236 ], [ 93.789399467435999, 158.512706784863184 ], [ 82.354385177419147, 158.51455253723617 ], [ 82.356935359460024, 175.05459609185715 ], [ 88.29163537712958, 175.053641908321197 ], [ 88.293030310568611, 184.073516549143392 ], [ 58.276820714194791, 184.078332210498502 ], [ 58.274118232257493, 166.586044134616742 ], [ 2.132389930526498, 166.595088788448663 ] ] ] } },
{ "type": "Feature", "properties": { "id": "shop_props:8u3koo4yo6ikhj9ipxdg" }, "geometry": { "type": "Polygon", "coordinates": [ [ [ 147.913472398254697, 138.094713457738067 ], [ 132.245585324288982, 138.082959262411947 ], [ 125.487007482678891, 138.077888903788249 ], [ 125.512515423517499, 101.914936232640315 ], [ 138.512065542376234, 101.924771297380772 ], [ 144.088701287313029, 101.928990403385299 ], [ 147.938229987255568, 101.921536792431183 ], [ 147.934966105103825, 110.584195761427381 ], [ 147.924746567204807, 120.291846636924944 ], [ 147.913472398254697, 138.094713457738067 ] ] ] } },
{ "type": "Feature", "properties": { "id": "shop_props:9iznp48wmtp1ftj1gui2" }, "geometry": { "type": "Polygon", "coordinates": [ [ [ 133.755462777657584, 86.743275373995601 ], [ 133.747526050057076, 89.701097889052576 ], [ 133.746808697500541, 92.128802564219001 ], [ 125.500670828898208, 92.126165343814449 ], [ 125.497142960899723, 86.739438433393957 ], [ 133.755462777657584, 86.743275373995601 ] ] ] } },
{ "type": "Feature", "properties": { "id": "shop_props:1tlq0wcnviks9goypz6a" }, "geometry": { "type": "Polygon", "coordinates": [ [ [ 99.205387282565511, 63.17440103081308 ], [ 99.205393314143706, 58.193600836329594 ], [ 93.493803344076028, 58.193600836329594 ], [ 93.493803344076028, 50.602540151865036 ], [ 116.625742723449846, 50.602540151865036 ], [ 116.625718294568202, 63.155654817413982 ], [ 99.205387282565511, 63.17440103081308 ] ] ] } },
{ "type": "Feature", "properties": { "id": "shop_props:vwnuzk1006g2aqu06qzl" }, "geometry": { "type": "Polygon", "coordinates": [ [ [ 35.7091909662091, 63.182903094719585 ], [ 35.71511876590035, 50.603137729870355 ], [ 47.159210155188546, 50.603706646670048 ], [ 47.167299440229364, 58.123489796852624 ], [ 43.106745140234715, 58.125081621170693 ], [ 43.108550637611955, 63.185227023777841 ], [ 35.7091909662091, 63.182903094719585 ] ] ] } },
{ "type": "Feature", "properties": { "id": "shop_props:rb1uz5vx9zpndw13sycn" }, "geometry": { "type": "Polygon", "coordinates": [ [ [ 58.618168365507096, 55.897771846462369 ], [ 58.611872694187483, 63.192802972885538 ], [ 53.605248762571982, 63.185553419654191 ], [ 53.610462725275511, 55.895378525357074 ], [ 58.618168365507096, 55.897771846462369 ] ] ] } },
{ "type": "Feature", "properties": { "id": "shop_props:hwyqabypv065iie7rq0p" }, "geometry": { "type": "Polygon", "coordinates": [ [ [ 58.618168365507096, 55.897771846462369 ], [ 64.231260469994965, 55.901559889377673 ], [ 64.251067548439835, 63.208777309107084 ], [ 58.611872694187483, 63.192802972885538 ], [ 58.618168365507096, 55.897771846462369 ] ] ] } },
{ "type": "Feature", "properties": { "id": "shop_props:oxe9erop6b7kq91orq7e" }, "geometry": { "type": "Polygon", "coordinates": [ [ [ 2.111122837393728, 70.600287961875651 ], [ 2.089133371692839, 62.637608637106219 ], [ 10.241344354513503, 62.612938806045925 ], [ 10.2701580173373, 70.605955635061065 ], [ 5.470733109681699, 70.618987071693667 ], [ 5.481353644560919, 74.88556597060456 ], [ 2.118401765190449, 74.886119480780877 ], [ 2.111122837393728, 70.600287961875651 ] ] ] } },
{ "type": "Feature", "properties": { "id": "shop_props:fjgylyivwzuxebfszvlp" }, "geometry": { "type": "Polygon", "coordinates": [ [ [ 47.172751643960872, 63.184567214568247 ], [ 43.108550637611955, 63.185227023777841 ], [ 43.106745140234715, 58.125081621170693 ], [ 47.167299440229364, 58.123489796852624 ], [ 47.172751643960872, 63.184567214568247 ] ] ] } },
{ "type": "Feature", "properties": { "id": "shop_props:yyy4k0wxvbgboezx6ntu" }, "geometry": { "type": "Polygon", "coordinates": [ [ [ 99.205387282565511, 63.17440103081308 ], [ 93.493803344076028, 63.180547313091211 ], [ 93.493803344076028, 58.193600836329594 ], [ 99.205393314143706, 58.193600836329594 ], [ 99.205387282565511, 63.17440103081308 ] ] ] } },
{ "type": "Feature", "properties": { "id": "shop_props:u3w8kj5wzzufcnwxhue2" }, "geometry": { "type": "Polygon", "coordinates": [ [ [ 15.625732504306255, 63.179968931112121 ], [ 15.625850625260258, 60.23753475369378 ], [ 18.291160177857343, 60.237652197514421 ], [ 18.291240248901136, 58.241927594125272 ], [ 24.288468874003073, 58.242191975558747 ], [ 24.288270681404224, 63.180350378428741 ], [ 15.625732504306255, 63.179968931112121 ] ] ] } },
{ "type": "Feature", "properties": { "id": "shop_props:107qrq8qbqfb0m6kwfwi" }, "geometry": { "type": "Polygon", "coordinates": [ [ [ 122.596838032068547, 63.174630012587421 ], [ 122.550005443863313, 50.511378092594512 ], [ 148.101448243986596, 50.407306506882549 ], [ 148.11102510755245, 52.999875130051052 ], [ 150.038635107943264, 52.99202847345255 ], [ 150.065233378826548, 60.184464787916909 ], [ 145.503842925855821, 60.20300217709913 ], [ 145.488169946932231, 55.966321542500623 ], [ 139.566891152680427, 55.990408684178959 ], [ 139.593221585359345, 63.105603650520891 ], [ 122.596838032068547, 63.174630012587421 ] ] ] } },
{ "type": "Feature", "properties": { "id": "shop_props:9nnsmfley890s1jshmca" }, "geometry": { "type": "Polygon", "coordinates": [ [ [ 82.178587153732565, 50.496488412666331 ], [ 82.235601491072828, 63.139944416879722 ], [ 77.735651728240839, 63.160426870024992 ], [ 77.685507318635175, 50.519401669696329 ], [ 82.178587153732565, 50.496488412666331 ] ] ] } },
{ "type": "Feature", "properties": { "id": "shop_props:l0mvnlj7t4gv76k5vet7" }, "geometry": { "type": "Polygon", "coordinates": [ [ [ 64.231260469994965, 55.901559889377673 ], [ 66.275301339426008, 55.895469237688445 ], [ 66.260875777524362, 50.56590288157674 ], [ 69.992454287724243, 50.554770301257157 ], [ 70.026686928070689, 63.191596344152586 ], [ 64.251067548439835, 63.208777309107084 ], [ 64.231260469994965, 55.901559889377673 ] ] ] } },
{ "type": "Feature", "properties": { "id": "shop_props:qqg1dub9k2h1itnbwo4b" }, "geometry": { "type": "Polygon", "coordinates": [ [ [ 70.026686928070689, 63.191596344152586 ], [ 69.992454287724243, 50.554770301257157 ], [ 77.685507318635175, 50.519401669696329 ], [ 77.735651728240839, 63.160426870024992 ], [ 70.026686928070689, 63.191596344152586 ] ] ] } },
{ "type": "Feature", "properties": { "id": "shop_props:259ov73vfwekn944kgh4" }, "geometry": { "type": "Polygon", "coordinates": [ [ [ 116.625718294568202, 63.155654817413982 ], [ 116.625742723449846, 50.602540151865036 ], [ 122.550005443863313, 50.511378092594512 ], [ 122.596838032068547, 63.174630012587421 ], [ 116.625718294568202, 63.155654817413982 ] ] ] } },
{ "type": "Feature", "properties": { "id": "shop_props:w09wacjy3205apct9tlr" }, "geometry": { "type": "Polygon", "coordinates": [ [ [ 47.172751643960872, 63.184567214568247 ], [ 47.167299440229364, 58.123489796852624 ], [ 47.159210155188546, 50.603706646670048 ], [ 50.644504524229404, 50.599575313951746 ], [ 50.65020491295823, 55.899992982438754 ], [ 53.610462725275511, 55.895378525357074 ], [ 53.605248762571982, 63.185553419654191 ], [ 47.172751643960872, 63.184567214568247 ] ] ] } },
{ "type": "Feature", "properties": { "id": "shop_props:op7x208gp4lhs2ynvyqg" }, "geometry": { "type": "Polygon", "coordinates": [ [ [ 29.707986950671692, 63.181302730064388 ], [ 24.288270681404224, 63.180350378428741 ], [ 24.288468874003073, 58.242191975558747 ], [ 25.525087887533751, 58.242341198596307 ], [ 25.526521396176754, 50.602107376929773 ], [ 29.710348309561653, 50.602972359890806 ], [ 29.707986950671692, 63.181302730064388 ] ] ] } },
{ "type": "Feature", "properties": { "id": "shop_props:qu43cylbjiodk7se9ew6" }, "geometry": { "type": "Polygon", "coordinates": [ [ [ 35.71511876590035, 50.603137729870355 ], [ 35.7091909662091, 63.182903094719585 ], [ 29.712739512365715, 63.179800237480748 ], [ 29.717548910290883, 52.976228180943806 ], [ 31.335498882367826, 52.977067341697925 ], [ 31.336617284734121, 50.600865557514531 ], [ 35.71511876590035, 50.603137729870355 ] ] ] } }
]
}
