{
"type": "FeatureCollection",
"name": "shops",
"features": [
{ "type": "Feature", "properties": { "id": "shop_props:rs000osvr71wphbcbedu" }, "geometry": { "type": "Polygon", "coordinates": [ [ [ 332.75690523304047, 168.484430232385535 ], [ 332.75675684793714, 173.663691536000044 ], [ 338.247211712077672, 173.663691536000044 ], [ 338.247211712077672, 177.151152728284217 ], [ 347.07909033026408, 177.151152728284217 ], [ 347.07909033026408, 181.603144534711618 ], [ 349.359056415090947, 181.699874544293465 ], [ 353.382695309043129, 179.333052212317341 ], [ 354.723888489413582, 181.699874544293465 ], [ 356.499968595594567, 181.699874544293465 ], [ 360.523577813127133, 179.333052212317341 ], [ 361.864800669918168, 181.699874544293465 ], [ 368.210042496203414, 181.699874544293465 ], [ 394.586792242854244, 154.747462353037378 ], [ 361.419586143887443, 120.022441785897826 ], [ 321.153253095827381, 120.316870871459443 ], [ 321.153253095827381, 121.51861404055731 ], [ 321.153253095827381, 122.990931851359321 ], [ 317.95994730612432, 126.732740193608308 ], [ 316.695944032713498, 132.428154575913823 ], [ 317.274972203887728, 137.05908457415299 ], [ 319.364649290490945, 140.49401256808062 ], [ 321.902478928179164, 143.439996478186856 ], [ 324.68345232003719, 144.781607283869818 ], [ 325.567678877761978, 145.127142987837829 ], [ 329.272883438711006, 145.817200265352454 ], [ 329.272883438711006, 146.098712409057754 ], [ 327.231105048591871, 146.098712409057754 ], [ 327.231105048591871, 155.586850858846617 ], [ 329.51029953027853, 155.647681767705592 ], [ 329.700232404252631, 155.792060430233136 ], [ 333.857150756975159, 155.792060430233136 ], [ 333.857150756975159, 157.350789937019982 ], [ 335.09171443480551, 157.350789937019982 ], [ 335.09171443480551, 158.916862368283603 ], [ 335.661513055526598, 158.916664822247412 ], [ 335.683117919429833, 168.123359595542325 ], [ 332.756578785812621, 168.123359595542325 ], [ 332.756578785812621, 168.643319408510564 ], [ 332.75690523304047, 168.484430232385535 ] ] ] } },
{ "type": "Feature", "properties": { "id": "shop_props:3mh3hvc4o1lurm7wafk3" }, "geometry": { "type": "Polygon", "coordinates": [ [ [ 292.297137424358368, 158.024922671936764 ], [ 292.297137424358368, 162.600543813017339 ], [ 303.109630112106458, 162.600543813017339 ], [ 303.109630112106458, 157.154397219307327 ], [ 304.819025973671273, 157.154397219307327 ], [ 304.819025973671273, 162.600543813017339 ], [ 314.709542945905753, 162.600543813017339 ], [ 321.153253095827381, 165.223711951962969 ], [ 329.700232404252631, 165.223711951962969 ], [ 329.652689831417263, 159.32336274972721 ], [ 324.667011255944089, 159.32336274972721 ], [ 324.632763984803319, 149.936657496971236 ], [ 319.972820287036882, 147.864882232884895 ], [ 315.680337345547002, 144.012070378228145 ], [ 313.890783876147054, 141.050444674858113 ], [ 311.992671898458582, 135.138896639374678 ], [ 294.623369969527516, 135.138896639374678 ], [ 294.562650804280963, 158.024922671936764 ], [ 292.297137424358368, 158.024922671936764 ] ] ] } },
{ "type": "Feature", "properties": { "id": "shop_props:2sljekp2gis9qg58ih79" }, "geometry": { "type": "Polygon", "coordinates": [ [ [ 273.96116620046962, 170.543445519871909 ], [ 273.872764058245764, 172.587818289232644 ], [ 273.957634636201192, 173.553208008256348 ], [ 285.733888272072932, 173.553208008256348 ], [ 285.727656099516423, 165.519973368575648 ], [ 273.954934027913168, 165.51008112814327 ], [ 273.96116620046962, 170.543445519871909 ] ] ] } },
{ "type": "Feature", "properties": { "id": null }, "geometry": { "type": "Polygon", "coordinates": [ [ [ 286.928951847290648, 149.253590377836446 ], [ 286.928951847290648, 146.912217084132692 ], [ 291.130385717932427, 146.911622763079635 ], [ 291.130385717932427, 149.253011615695783 ], [ 286.928951847290648, 149.253590377836446 ] ] ] } },
{ "type": "Feature", "properties": { "id": null }, "geometry": { "type": "Polygon", "coordinates": [ [ [ 290.489154530474821, 166.372409224523153 ], [ 293.696141422541643, 166.372409224523153 ], [ 293.696141422541643, 164.425404957011949 ], [ 290.489154530474821, 164.425404957011949 ], [ 290.489154530474821, 166.372409224523153 ] ] ] } },
{ "type": "Feature", "properties": { "id": null }, "geometry": { "type": "Polygon", "coordinates": [ [ [ 277.753888268598359, 153.551157604125535 ], [ 279.804688470024416, 153.551157604125535 ], [ 279.804688470024416, 152.094436985195728 ], [ 277.753591498390392, 152.094847935191723 ], [ 277.753888268598359, 153.551157604125535 ] ] ] } },
{ "type": "Feature", "properties": { "id": "shop_props:moi0b9eh9lfen7l70nx4" }, "geometry": { "type": "Polygon", "coordinates": [ [ [ 166.998776892466168, 183.633628746745586 ], [ 162.120410389809678, 183.633628746745586 ], [ 162.291349976506524, 169.310740117949166 ], [ 167.098031657150756, 169.292580203262759 ], [ 166.998776892466168, 183.633628746745586 ] ] ] } },
{ "type": "Feature", "properties": { "id": null }, "geometry": { "type": "Polygon", "coordinates": [ [ [ 295.332027327119306, 171.300883310794916 ], [ 298.539014219186072, 171.300883310794916 ], [ 298.539014219186072, 169.356154721590855 ], [ 295.332027327119306, 169.356154721590855 ], [ 295.332027327119306, 171.300883310794916 ] ] ] } },
{ "type": "Feature", "properties": { "id": null }, "geometry": { "type": "Polygon", "coordinates": [ [ [ 149.540562636979587, 65.150916672986142 ], [ 151.591362839005768, 65.150916672986142 ], [ 151.591362839005768, 63.663938152912607 ], [ 149.540280705282441, 63.664353754911708 ], [ 149.540562636979587, 65.150916672986142 ] ] ] } },
{ "type": "Feature", "properties": { "id": null }, "geometry": { "type": "Polygon", "coordinates": [ [ [ 151.502242773305909, 74.773845545564768 ], [ 153.553057813842486, 74.773845545564768 ], [ 153.553057813842486, 73.29013924221158 ], [ 151.501975680119074, 73.290557802148513 ], [ 151.502242773305909, 74.773845545564768 ] ] ] } },
{ "type": "Feature", "properties": { "id": null }, "geometry": { "type": "Polygon", "coordinates": [ [ [ 152.891809482492192, 65.191546135059127 ], [ 154.942624522428616, 65.191546135059127 ], [ 154.942624522428616, 63.704577572602794 ], [ 152.891527550795018, 63.704997054048775 ], [ 152.891809482492192, 65.191546135059127 ] ] ] } },
{ "type": "Feature", "properties": { "id": null }, "geometry": { "type": "Polygon", "coordinates": [ [ [ 159.614184209782934, 108.475463988708199 ], [ 154.064569863503806, 108.454154527816144 ], [ 154.075902243455204, 101.682795847089707 ], [ 159.646626932678231, 101.715130944544455 ], [ 159.614184209782934, 108.475463988708199 ] ] ] } },
{ "type": "Feature", "properties": { "id": null }, "geometry": null },
{ "type": "Feature", "properties": { "id": "shop_props:t0m7co6zkg7smo21kvck" }, "geometry": { "type": "Polygon", "coordinates": [ [ [ 343.641483381980834, 84.514137421135317 ], [ 338.672512963787483, 84.514137421135317 ], [ 338.672512963787483, 107.608609230768195 ], [ 286.440972747564729, 107.608609230768195 ], [ 286.440972747564729, 99.331813739233155 ], [ 277.324194819018203, 99.332491750709323 ], [ 277.324847713474355, 66.665009280458534 ], [ 305.244327225381539, 66.665009280458534 ], [ 305.244327225381539, 63.613145144881337 ], [ 326.490307487731798, 63.613145144881337 ], [ 343.641483381980834, 84.514137421135317 ] ] ] } },
{ "type": "Feature", "properties": { "id": "shop_props:etrmy65fyzk3om0nq2ya" }, "geometry": { "type": "Polygon", "coordinates": [ [ [ 200.262240378221833, 61.739341556189842 ], [ 190.38573095557939, 61.789336456670235 ], [ 190.385256123247302, 49.096895341638692 ], [ 200.261765545890228, 49.046755314322581 ], [ 200.262240378221833, 61.739341556189842 ] ] ] } },
{ "type": "Feature", "properties": { "id": null }, "geometry": { "type": "Polygon", "coordinates": [ [ [ 154.086190486232624, 74.773845545564768 ], [ 156.137005526769201, 74.773845545564768 ], [ 156.137005526769201, 73.29013924221158 ], [ 154.085923393646027, 73.290557802148513 ], [ 154.086190486232624, 74.773845545564768 ] ] ] } },
{ "type": "Feature", "properties": { "id": "shop_props:21oe8g9h2tm3oguai6uc" }, "geometry": { "type": "Polygon", "coordinates": [ [ [ 277.617829411613741, 117.633560386331595 ], [ 277.642335690267259, 146.755307818055854 ], [ 273.850887475566196, 146.758684675311628 ], [ 273.872764058245764, 172.587818289232644 ], [ 251.924351116863079, 172.607247524040417 ], [ 251.921658993726965, 169.437252121860809 ], [ 208.128862834083264, 169.476047430997482 ], [ 208.085172095884587, 117.695913430661875 ], [ 277.617829411613741, 117.633560386331595 ] ] ] } },
{ "type": "Feature", "properties": { "id": null }, "geometry": { "type": "Polygon", "coordinates": [ [ [ 65.862454991942357, 109.975784367748247 ], [ 57.764219977009205, 109.96760829287274 ], [ 57.752580455441958, 122.336068563663886 ], [ 65.865500776748235, 122.344217235649154 ], [ 65.862454991942357, 109.975784367748247 ] ] ] } },
{ "type": "Feature", "properties": { "id": null }, "geometry": { "type": "Polygon", "coordinates": [ [ [ 52.099383709766848, 141.77125557662373 ], [ 36.066673078500017, 141.803095699074078 ], [ 36.051638690422195, 133.791766082988261 ], [ 36.03115725610148, 122.853617993751655 ], [ 47.257884400750584, 122.827631142053391 ], [ 52.055865947645039, 122.825247505112955 ], [ 52.099383709766848, 141.77125557662373 ] ] ] } },
{ "type": "Feature", "properties": { "id": "shop_props:nuntt0s4j8a501r3so67" }, "geometry": { "type": "Polygon", "coordinates": [ [ [ 65.865500776748235, 122.344217235649154 ], [ 57.752580455441958, 122.336068563663886 ], [ 57.734092810952404, 134.088109832764928 ], [ 65.837719125507306, 134.102064788639552 ], [ 65.865500776748235, 122.344217235649154 ] ] ] } },
{ "type": "Feature", "properties": { "id": "shop_props:mamoirhuapcpjbht2mm9" }, "geometry": { "type": "Polygon", "coordinates": [ [ [ 2.20890784333305, 137.9637899284333 ], [ 2.854260245295592, 137.96370740851205 ], [ 2.853757334638, 133.795960869648866 ], [ 3.57372042505774, 133.795868718923771 ], [ 32.709169686179862, 133.792139580221402 ], [ 32.710135373217241, 141.791437605061617 ], [ 12.172347016379986, 141.794061369679184 ], [ 12.172193831588205, 140.526151037674992 ], [ 4.71712626372332, 140.527103728347413 ], [ 4.717105531112226, 140.355469326410855 ], [ 2.209196701709804, 140.355789827525285 ], [ 2.20890784333305, 137.9637899284333 ] ] ] } },
{ "type": "Feature", "properties": { "id": "shop_props:jr8azvverutds6ksm32t" }, "geometry": { "type": "Polygon", "coordinates": [ [ [ 4.71711592353225, 146.404560778188198 ], [ 15.078937920500351, 146.403783497371705 ], [ 15.078937920500351, 146.403737774381483 ], [ 35.712322528855005, 146.403737774381483 ], [ 35.712322528855005, 152.982027131675608 ], [ 35.712263174813501, 166.844307578196208 ], [ 15.083249433782949, 166.785321275664728 ], [ 15.080731524616652, 158.31904496116374 ], [ 15.08075563712085, 158.31904496116374 ], [ 15.08075563712085, 158.124505844758374 ], [ 15.080702775115244, 158.124505844758374 ], [ 12.456880287338725, 158.124505844758374 ], [ 12.456880287338725, 157.900774798800967 ], [ 9.305893916019947, 157.900774798800967 ], [ 9.305893916019947, 153.7167712699802 ], [ 2.741813981251478, 153.7167712699802 ], [ 2.741813981251478, 153.284412417591255 ], [ 2.177713336507288, 153.284412417591255 ], [ 2.177713336507288, 147.271613421194701 ], [ 2.662991838750074, 147.271613421194701 ], [ 2.662991838750074, 146.642554613463631 ], [ 4.71711592353225, 146.642554613463631 ], [ 4.71711592353225, 146.404560778188198 ] ] ] } },
{ "type": "Feature", "properties": { "id": null }, "geometry": { "type": "Polygon", "coordinates": [ [ [ 8.017303702181307, 141.987001801034381 ], [ 10.068117351138588, 141.987001801034381 ], [ 10.068117351138588, 140.526306879114912 ], [ 8.017027335000666, 140.526718949600593 ], [ 8.017303702181307, 141.987001801034381 ] ] ] } },
{ "type": "Feature", "properties": { "id": null }, "geometry": { "type": "Polygon", "coordinates": [ [ [ 5.264828355983422, 141.987962969792505 ], [ 7.315641773211162, 141.987962969792505 ], [ 7.315641773211162, 140.527268378016402 ], [ 5.264551756472662, 140.527665187491948 ], [ 5.264828355983422, 141.987962969792505 ] ] ] } },
{ "type": "Feature", "properties": { "id": "shop_props:yskf4nbxjwproei9oovz" }, "geometry": { "type": "Polygon", "coordinates": [ [ [ 57.741198084292975, 138.590970006283214 ], [ 57.741819321219495, 141.628426202359094 ], [ 65.870266680914412, 141.626297115952525 ], [ 65.837719125507306, 134.102064788639552 ], [ 57.734092810952404, 134.088109832764928 ], [ 57.741198084292975, 138.590970006283214 ] ] ] } },
{ "type": "Feature", "properties": { "id": "shop_props:an2xugo6mxdz1x80bsqm" }, "geometry": { "type": "Polygon", "coordinates": [ [ [ 39.129814290536082, 152.983437635831848 ], [ 39.129245125572403, 146.404160277128739 ], [ 49.924847040966711, 146.403586770577249 ], [ 49.926479446402716, 152.980617215558283 ], [ 39.129814290536082, 152.983437635831848 ] ] ] } },
{ "type": "Feature", "properties": { "id": null }, "geometry": { "type": "Polygon", "coordinates": [ [ [ 159.721611909757144, 84.836516627951454 ], [ 149.182811025954663, 84.794854684234664 ], [ 149.171440145841387, 74.963333243704142 ], [ 159.77232167579362, 74.978510328302562 ], [ 159.721611909757144, 84.836516627951454 ] ] ] } },
{ "type": "Feature", "properties": { "id": "shop_props:yxw1oq7k2mlz43dvu1r2" }, "geometry": { "type": "Polygon", "coordinates": [ [ [ 47.248867641273051, 74.998299731280227 ], [ 52.028534896764953, 74.998372931638684 ], [ 52.036454397117502, 80.942843721660623 ], [ 47.238472850223054, 80.945250631939658 ], [ 47.248867641273051, 74.998299731280227 ] ] ] } },
{ "type": "Feature", "properties": { "id": "shop_props:59vwux2954iy07m2khsz" }, "geometry": { "type": "Polygon", "coordinates": [ [ [ 36.051638690422195, 133.791766082988261 ], [ 32.709169686179862, 133.792139580221402 ], [ 3.57372042505774, 133.795868718923771 ], [ 3.573719909368926, 130.799626252765194 ], [ 2.262233468193338, 130.799626252765194 ], [ 2.262233468193338, 123.845071050682691 ], [ 3.304964892893484, 123.845071050682691 ], [ 3.304964892893484, 122.74765222595245 ], [ 23.77545505206761, 122.74765222595245 ], [ 23.77545505206761, 122.708418460553219 ], [ 24.54943151192111, 122.708418460553219 ], [ 24.54943151192111, 121.89816083137508 ], [ 23.90745839894511, 121.89816083137508 ], [ 23.90745839894511, 113.642167882809247 ], [ 23.70233089574959, 113.642167882809247 ], [ 23.70233089574959, 113.593021344818681 ], [ 24.374693267769011, 113.593021344818681 ], [ 24.374693267769011, 113.55370370891157 ], [ 24.373649008126684, 113.55370370891157 ], [ 24.366127319370399, 113.480442000518408 ], [ 24.351711311819603, 113.40962063901614 ], [ 24.330764524475615, 113.34160582624898 ], [ 24.303650498741575, 113.276763787462173 ], [ 24.270732773619109, 113.21546075786226 ], [ 24.232374889310631, 113.158062989346675 ], [ 24.188940386018544, 113.104936742709455 ], [ 24.14079280454548, 113.056448282064963 ], [ 24.088295684493218, 113.012963878209675 ], [ 24.031812565464431, 112.974849796376404 ], [ 23.971706987661051, 112.942472297359103 ], [ 23.908342492485918, 112.916197630824854 ], [ 23.842082618340502, 112.896392029771548 ], [ 23.773290906027729, 112.883421706074472 ], [ 23.70233089574959, 112.877652843838106 ], [ 23.70233089574959, 112.877107530517023 ], [ 23.773290536820713, 112.871338661601783 ], [ 23.842081889532331, 112.858368277887038 ], [ 23.908341423887144, 112.838562453406226 ], [ 23.971705609889181, 112.812287235518966 ], [ 24.03181091634077, 112.779908649365069 ], [ 24.088293814446249, 112.741792706736291 ], [ 24.140790773608163, 112.698305404967101 ], [ 24.188938262629332, 112.649812739184043 ], [ 24.232372752714138, 112.596680697831232 ], [ 24.270730712664864, 112.539275276025649 ], [ 24.303648612485109, 112.477962472223368 ], [ 24.330762922178057, 112.413108294876764 ], [ 24.351710111747256, 112.345078766907804 ], [ 24.366126649995515, 112.274239924548894 ], [ 24.373649008126684, 112.200957822947061 ], [ 24.374693267769011, 112.200957822947061 ], [ 24.374693267769011, 112.161627441561137 ], [ 23.70233089574959, 112.161627441561137 ], [ 23.70233089574959, 112.112463957398219 ], [ 23.90745839894511, 112.112463957398219 ], [ 23.90745839894511, 111.078917312294678 ], [ 24.54943151192111, 111.078917312294678 ], [ 24.54943151192111, 110.032333281342417 ], [ 23.90745839894511, 110.032333281342417 ], [ 23.90745839894511, 99.313815575193033 ], [ 24.490552320760994, 99.313815575193033 ], [ 24.490552320760994, 98.26436817328235 ], [ 23.903659741489818, 98.26436817328235 ], [ 23.90745839894511, 87.43149779715614 ], [ 24.485803999241764, 87.43149779715614 ], [ 24.485803999241764, 86.317833939834415 ], [ 23.917904707247878, 86.317833939834415 ], [ 23.917904707247878, 75.594835260656438 ], [ 24.561302316019262, 75.594835260656438 ], [ 24.561302316019262, 74.998336331457907 ], [ 47.248867641273051, 74.998299731280227 ], [ 47.238472850223054, 80.945250631939658 ], [ 47.257884400750584, 122.827631142053391 ], [ 36.03115725610148, 122.853617993751655 ], [ 36.051638690422195, 133.791766082988261 ] ] ] } },
{ "type": "Feature", "properties": { "id": "shop_props:xdvpt9qeewx9u0icdpqg" }, "geometry": { "type": "Polygon", "coordinates": [ [ [ 52.036454397117502, 80.942843721660623 ], [ 47.238472850223054, 80.945250631939658 ], [ 47.257884400750584, 122.827631142053391 ], [ 52.055865947645039, 122.825247505112955 ], [ 52.036454397117502, 80.942843721660623 ] ] ] } },
{ "type": "Feature", "properties": { "id": "shop_props:4y1ar5oi1tnhp23tac7n" }, "geometry": { "type": "Polygon", "coordinates": [ [ [ 159.721611909757144, 84.836516627951454 ], [ 159.646626932678231, 101.715130944544455 ], [ 154.075902243455204, 101.682795847089707 ], [ 149.128175545504291, 101.673882820951064 ], [ 149.182811025954663, 84.794854684234664 ], [ 159.721611909757144, 84.836516627951454 ] ] ] } },
{ "type": "Feature", "properties": { "id": null }, "geometry": { "type": "Polygon", "coordinates": [ [ [ 57.765723965124444, 86.927081778653232 ], [ 65.856793779954586, 86.891672353993201 ], [ 65.8596991917438, 98.754179324294128 ], [ 57.770118238357554, 98.761819366507424 ], [ 57.765723965124444, 86.927081778653232 ] ] ] } },
{ "type": "Feature", "properties": { "id": "shop_props:jiiw2up53gidxl7a4vyz" }, "geometry": { "type": "Polygon", "coordinates": [ [ [ 65.861122914306137, 104.55522024522061 ], [ 57.764438088163416, 104.557133180924339 ], [ 57.764219977009205, 109.96760829287274 ], [ 65.862454991942357, 109.975784367748247 ], [ 65.861122914306137, 104.55522024522061 ] ] ] } },
{ "type": "Feature", "properties": { "id": "shop_props:3fcb6zzfgxq2hgqwpb3y" }, "geometry": { "type": "Polygon", "coordinates": [ [ [ 65.8596991917438, 98.754179324294128 ], [ 57.770118238357554, 98.761819366507424 ], [ 57.764438088163416, 104.557133180924339 ], [ 65.861122914306137, 104.55522024522061 ], [ 65.8596991917438, 98.754179324294128 ] ] ] } },
{ "type": "Feature", "properties": { "id": null }, "geometry": { "type": "Polygon", "coordinates": [ [ [ 154.064569863503806, 108.454154527816144 ], [ 149.116843165552922, 108.445255506593284 ], [ 149.128175545504291, 101.673882820951064 ], [ 154.075902243455204, 101.682795847089707 ], [ 154.064569863503806, 108.454154527816144 ] ] ] } },
{ "type": "Feature", "properties": { "id": "shop_props:i4d4upzo0k0vv5he8ms6" }, "geometry": { "type": "Polygon", "coordinates": [ [ [ 50.480501174203404, 25.583756307838364 ], [ 50.505159061165941, 6.140688697019612 ], [ 58.47558451897217, 1.881695735956006 ], [ 89.841462794458309, 1.881695735956006 ], [ 89.727503070193535, 17.924321602859315 ], [ 134.11480819069854, 18.225729121765198 ], [ 134.11480819069854, 10.140922170149766 ], [ 138.81827322558874, 10.140922170149766 ], [ 144.399673291605382, 12.928021829580072 ], [ 144.399673291605382, 24.620781433614376 ], [ 159.233430712846939, 24.620781433614376 ], [ 159.233430712846939, 38.972887845295425 ], [ 160.430007816122355, 38.972887845295425 ], [ 160.430007816122355, 63.117015108505839 ], [ 153.802507933722097, 63.117015108505839 ], [ 153.802507933722097, 50.66830730835801 ], [ 149.422301530706477, 50.617352909837301 ], [ 149.429229609408509, 41.056899045134848 ], [ 93.243312955589147, 41.01184875588649 ], [ 93.225440001959839, 65.633652044357021 ], [ 19.746733969812166, 65.510577547109961 ], [ 19.746733969812166, 32.348368885100001 ], [ 24.884418198145784, 26.807234414073076 ], [ 42.928043036304828, 26.797207281210603 ], [ 42.928043036304828, 25.603291054675449 ], [ 50.480501174203404, 25.583756307838364 ] ] ] } },
{ "type": "Feature", "properties": { "id": "shop_props:ytep11g90ickgv1osc94" }, "geometry": { "type": "Polygon", "coordinates": [ [ [ 139.084156125521957, 57.800480906004182 ], [ 139.082421304527628, 60.187285988521829 ], [ 127.119536712335318, 60.177735842934183 ], [ 127.115547923596125, 65.66067318179735 ], [ 93.225440001959839, 65.633652044357021 ], [ 93.243312955589147, 41.01184875588649 ], [ 149.429229609408509, 41.056899045134848 ], [ 149.422301530706477, 50.617352909837301 ], [ 149.417080265513249, 57.80873431634717 ], [ 139.084156125521957, 57.800480906004182 ] ] ] } },
{ "type": "Feature", "properties": { "id": null }, "geometry": { "type": "Polygon", "coordinates": [ [ [ 139.743231481087065, 64.812226037254774 ], [ 141.794046521623727, 64.812226037254774 ], [ 141.794046521623727, 63.325128252577976 ], [ 139.74294954938992, 63.325543885702785 ], [ 139.743231481087065, 64.812226037254774 ] ] ] } },
{ "type": "Feature", "properties": { "id": null }, "geometry": { "type": "Polygon", "coordinates": [ [ [ 58.097083914578853, 71.812463409123538 ], [ 60.147895245037532, 71.812463409123538 ], [ 60.147895245037532, 70.327755110566258 ], [ 58.096805692358991, 70.328173956191577 ], [ 58.097083914578853, 71.812463409123538 ] ] ] } },
{ "type": "Feature", "properties": { "id": null }, "geometry": { "type": "Polygon", "coordinates": [ [ [ 144.803518063915931, 74.434131373148105 ], [ 146.854333103852355, 74.434131373148105 ], [ 146.854333103852355, 72.950316971102311 ], [ 144.803236132218757, 72.950735564389021 ], [ 144.803518063915931, 74.434131373148105 ] ] ] } },
{ "type": "Feature", "properties": { "id": null }, "geometry": { "type": "Polygon", "coordinates": [ [ [ 149.149998327252945, 74.80188718838042 ], [ 151.200813367789607, 74.80188718838042 ], [ 151.200813367789607, 73.318190446919786 ], [ 149.149731234666348, 73.318609004632535 ], [ 149.149998327252945, 74.80188718838042 ] ] ] } },
{ "type": "Feature", "properties": { "id": "shop_props:dwtrljo88rwcy75xr6d6" }, "geometry": { "type": "Polygon", "coordinates": [ [ [ 116.482804016974157, 158.698948000685164 ], [ 116.479749779434457, 146.401598261276803 ], [ 105.09413300512206, 146.404577149669706 ], [ 105.076520621425942, 74.792853650437777 ], [ 141.36457847908386, 74.689445269834636 ], [ 141.341387588119318, 110.943398239594956 ], [ 149.238571417016686, 110.948839549919796 ], [ 149.20218269854837, 167.223925329520853 ], [ 154.335969733241228, 167.227416144657212 ], [ 154.325153733090957, 183.811170512685806 ], [ 141.64642482341722, 183.80258330439645 ], [ 141.648300051046988, 180.932049412319031 ], [ 127.49499296312446, 180.922456900736677 ], [ 127.509464961633256, 158.703019274248504 ], [ 123.710153911715238, 158.697062543465051 ], [ 116.482804016974157, 158.698948000685164 ] ] ] } },
{ "type": "Feature", "properties": { "id": "shop_props:46xu6svkpqp6j1y37sgl" }, "geometry": { "type": "Polygon", "coordinates": [ [ [ 49.913089039444039, 180.705281598641193 ], [ 49.913040974725291, 180.513039291852294 ], [ 49.910650576371587, 170.941228105771756 ], [ 39.13428502499135, 170.944031276407088 ], [ 39.129814290536082, 152.983437635831848 ], [ 49.926479446402716, 152.980617215558283 ], [ 49.924847040966711, 146.403586770577249 ], [ 57.743002415817209, 146.401541258997099 ], [ 57.741819321219495, 141.628426202359094 ], [ 65.870266680914412, 141.626297115952525 ], [ 65.865500776748235, 122.344217235649154 ], [ 65.862454991942357, 109.975784367748247 ], [ 65.861122914306137, 104.55522024522061 ], [ 65.8596991917438, 98.754179324294128 ], [ 65.856793779954586, 86.891672353993201 ], [ 65.853841217758699, 74.803288125086965 ], [ 105.076520621425942, 74.792853650437777 ], [ 105.09413300512206, 146.404577149669706 ], [ 116.479749779434457, 146.401598261276803 ], [ 116.482804016974157, 158.698948000685164 ], [ 123.710153911715238, 158.697062543465051 ], [ 123.714267725875658, 175.204263907068821 ], [ 116.314479749999052, 175.206186807052632 ], [ 116.315806840041773, 180.517521382031163 ], [ 65.863648345085423, 180.53061522659749 ], [ 65.864687210706492, 184.683711080496494 ], [ 51.500622497213001, 184.687435287083673 ], [ 51.502840989289325, 193.542576103622054 ], [ 40.157230961738414, 193.545511488871256 ], [ 40.156310494426613, 189.87373145274654 ], [ 42.863912324806925, 189.873030315775679 ], [ 42.862714888777461, 185.09158264140774 ], [ 40.157319091095665, 185.092284008479652 ], [ 40.156222272017246, 180.70781368718454 ], [ 49.913089039444039, 180.705281598641193 ] ] ] } },
{ "type": "Feature", "properties": { "id": "shop_props:b1g286pf4iuxcau8ppnq" }, "geometry": { "type": "Polygon", "coordinates": [ [ [ 57.717684324104347, 74.967394687489232 ], [ 65.853841217758699, 74.803288125086965 ], [ 65.856793779954586, 86.891672353993201 ], [ 57.765723965124444, 86.927081778653232 ], [ 57.717684324104347, 74.967394687489232 ] ] ] } }
]
}
