{
    "type": "FeatureCollection",
    "generator": "JOSM",
    "features": [
        {
            "type": "Feature",
            "properties": null,
            "geometry": {
                "type": "LineString",
                "coordinates": [
                    [
                        38.53609641136,
                        55.84818155520
                    ],
                    [
                        38.59238839299,
                        55.84830094967
                    ]
                ]
            }
        },
        {
            "type": "Feature",
            "properties": null,
            "geometry": {
                "type": "LineString",
                "coordinates": [
                    [
                        37.46164915946,
                        55.83628122153
                    ],
                    [
                        38.28840456868,
                        55.83751753300
                    ]
                ]
            }
        },
        {
            "type": "Feature",
            "properties": null,
            "geometry": {
                "type": "LineString",
                "coordinates": [
                    [
                        36.27589935734,
                        56.66151671782
                    ],
                    [
                        35.19545237781,
                        56.66151671782
                    ]
                ]
            }
        },
        {
            "type": "Feature",
            "properties": null,
            "geometry": {
                "type": "LineString",
                "coordinates": [
                    [
                        34.24976166351,
                        56.50269465359
                    ],
                    [
                        34.24960450373,
                        56.37326265243
                    ]
                ]
            }
        },
        {
            "type": "Feature",
            "properties": null,
            "geometry": {
                "type": "LineString",
                "coordinates": [
                    [
                        39.70228376152,
                        55.86919108609
                    ],
                    [
                        39.74550032633,
                        55.83921986833
                    ],
                    [
                        39.94578111282,
                        55.83908138484
                    ],
                    [
                        39.94582355354,
                        55.84778379141
                    ]
                ]
            }
        },
        {
            "type": "Feature",
            "properties": null,
            "geometry": {
                "type": "LineString",
                "coordinates": [
                    [
                        35.19545237781,
                        56.66151671782
                    ],
                    [
                        35.19448555768,
                        56.63717776210
                    ]
                ]
            }
        },
        {
            "type": "Feature",
            "properties": null,
            "geometry": {
                "type": "LineString",
                "coordinates": [
                    [
                        34.37796001574,
                        55.43992715507
                    ],
                    [
                        34.37903913585,
                        55.43992715507
                    ],
                    [
                        34.62639825293,
                        55.44092837307
                    ],
                    [
                        35.22232501009,
                        55.44037038042
                    ],
                    [
                        35.22232248448,
                        55.44892464222
                    ]
                ]
            }
        },
        {
            "type": "Feature",
            "properties": null,
            "geometry": {
                "type": "LineString",
                "coordinates": [
                    [
                        34.24986446218,
                        55.44037038051
                    ],
                    [
                        34.34480245183,
                        55.44081360097
                    ]
                ]
            }
        },
        {
            "type": "Feature",
            "properties": null,
            "geometry": {
                "type": "LineString",
                "coordinates": [
                    [
                        35.35704016002,
                        55.42840757484
                    ],
                    [
                        36.73044110624,
                        55.42840829176
                    ]
                ]
            }
        },
        {
            "type": "Feature",
            "properties": null,
            "geometry": {
                "type": "LineString",
                "coordinates": [
                    [
                        34.25222129857,
                        56.35943279287
                    ],
                    [
                        34.24950026471,
                        56.35943285400
                    ],
                    [
                        34.24951224266,
                        56.34644220377
                    ]
                ]
            }
        },
        {
            "type": "Feature",
            "properties": null,
            "geometry": {
                "type": "LineString",
                "coordinates": [
                    [
                        36.87716586609,
                        55.45834128611
                    ],
                    [
                        36.98251493074,
                        55.48813404271
                    ]
                ]
            }
        },
        {
            "type": "Feature",
            "properties": null,
            "geometry": {
                "type": "LineString",
                "coordinates": [
                    [
                        38.36384823747,
                        56.66218758976
                    ],
                    [
                        37.06157819327,
                        56.66235834188
                    ]
                ]
            }
        },
        {
            "type": "Feature",
            "properties": null,
            "geometry": {
                "type": "LineString",
                "coordinates": [
                    [
                        38.61577619681,
                        55.84834657385
                    ],
                    [
                        38.61621246959,
                        55.83545912930
                    ],
                    [
                        39.49733744418,
                        55.83709577866
                    ]
                ]
            }
        },
        {
            "type": "Feature",
            "properties": null,
            "geometry": {
                "type": "LineString",
                "coordinates": [
                    [
                        35.19516702971,
                        56.52162693431
                    ],
                    [
                        34.20899331805,
                        56.52300355883
                    ],
                    [
                        34.20822432368,
                        56.35948010803
                    ],
                    [
                        34.24950026471,
                        56.35943285400
                    ]
                ]
            }
        },
        {
            "type": "Feature",
            "properties": null,
            "geometry": {
                "type": "LineString",
                "coordinates": [
                    [
                        34.62639825293,
                        55.44092837307
                    ],
                    [
                        34.62644908474,
                        55.42619198083
                    ],
                    [
                        35.22273868682,
                        55.42685419543
                    ],
                    [
                        35.22269206254,
                        55.44037078791
                    ]
                ]
            }
        },
        {
            "type": "Feature",
            "properties": null,
            "geometry": {
                "type": "LineString",
                "coordinates": [
                    [
                        36.57777430085,
                        56.66151671782
                    ],
                    [
                        36.30106066794,
                        56.66163195311
                    ]
                ]
            }
        },
        {
            "type": "Feature",
            "properties": null,
            "geometry": {
                "type": "LineString",
                "coordinates": [
                    [
                        39.49241825206,
                        55.84654203033
                    ],
                    [
                        39.49514400725,
                        55.84030273704
                    ],
                    [
                        39.49733744418,
                        55.83709577866
                    ],
                    [
                        39.49815935216,
                        55.83589402351
                    ],
                    [
                        39.50360188171,
                        55.83206724957
                    ],
                    [
                        39.50879423424,
                        55.82985367791
                    ],
                    [
                        39.51418658669,
                        55.82782042220
                    ],
                    [
                        39.51976359685,
                        55.82597076025
                    ],
                    [
                        39.52550992251,
                        55.82430796790
                    ],
                    [
                        39.53141022146,
                        55.82283531891
                    ],
                    [
                        39.53744915148,
                        55.82155608474
                    ],
                    [
                        39.54361137036,
                        55.82047353447
                    ],
                    [
                        39.54988153588,
                        55.81959093454
                    ],
                    [
                        39.55624430584,
                        55.81891154867
                    ],
                    [
                        39.56268433801,
                        55.81843863765
                    ],
                    [
                        39.56918629018,
                        55.81817545916
                    ],
                    [
                        39.57573482015,
                        55.81812526764
                    ],
                    [
                        39.58231458568,
                        55.81829131405
                    ],
                    [
                        39.58886563321,
                        55.81867369123
                    ],
                    [
                        39.59532889150,
                        55.81926732887
                    ],
                    [
                        39.60169004140,
                        55.82006772815
                    ],
                    [
                        39.60793476375,
                        55.82107038725
                    ],
                    [
                        39.61404873937,
                        55.82227080165
                    ],
                    [
                        39.62001764912,
                        55.82366446430
                    ],
                    [
                        39.62582717382,
                        55.82524686587
                    ],
                    [
                        39.63146299432,
                        55.82701349496
                    ],
                    [
                        39.63691079145,
                        55.82895983834
                    ],
                    [
                        39.64215624606,
                        55.83108138115
                    ],
                    [
                        39.64718503897,
                        55.83337360706
                    ],
                    [
                        39.65198285103,
                        55.83583199857
                    ],
                    [
                        39.65653536308,
                        55.83845203709
                    ],
                    [
                        39.66082825594,
                        55.84122920320
                    ],
                    [
                        39.66484721047,
                        55.84415897684
                    ],
                    [
                        39.66739087222,
                        55.84754251967
                    ],
                    [
                        39.66744983157,
                        55.84847591238
                    ]
                ]
            }
        },
        {
            "type": "Feature",
            "properties": null,
            "geometry": {
                "type": "LineString",
                "coordinates": [
                    [
                        40.44479568453,
                        56.65944242241
                    ],
                    [
                        39.97299665608,
                        56.66151671782
                    ]
                ]
            }
        },
        {
            "type": "Feature",
            "properties": null,
            "geometry": {
                "type": "LineString",
                "coordinates": [
                    [
                        39.94581774072,
                        55.92922612303
                    ],
                    [
                        40.05185421404,
                        55.92907929456
                    ]
                ]
            }
        },
        {
            "type": "Feature",
            "properties": null,
            "geometry": {
                "type": "LineString",
                "coordinates": [
                    [
                        39.92052327336,
                        55.84912673619
                    ],
                    [
                        39.92052459750,
                        55.84792629584
                    ]
                ]
            }
        },
        {
            "type": "Feature",
            "properties": null,
            "geometry": {
                "type": "LineString",
                "coordinates": [
                    [
                        38.28840456868,
                        55.83751753300
                    ],
                    [
                        38.30135538875,
                        55.83006478973
                    ],
                    [
                        38.31612115335,
                        55.82485121688
                    ],
                    [
                        38.33151358696,
                        55.82050603904
                    ],
                    [
                        38.34741874978,
                        55.81702954733
                    ],
                    [
                        38.36372270197,
                        55.81442197472
                    ],
                    [
                        38.38031150371,
                        55.81268349590
                    ],
                    [
                        38.39707121519,
                        55.81181422737
                    ],
                    [
                        38.41388789658,
                        55.81181422737
                    ],
                    [
                        38.43064760806,
                        55.81268349590
                    ],
                    [
                        38.44723640980,
                        55.81442197472
                    ],
                    [
                        38.46354036200,
                        55.81702954733
                    ],
                    [
                        38.47944552481,
                        55.82050603904
                    ],
                    [
                        38.49483795843,
                        55.82485121688
                    ],
                    [
                        38.50960372302,
                        55.83006478973
                    ],
                    [
                        38.52362887877,
                        55.83614640823
                    ],
                    [
                        38.53391550769,
                        55.84270349814
                    ],
                    [
                        38.53609641136,
                        55.84818155520
                    ]
                ]
            }
        },
        {
            "type": "Feature",
            "properties": null,
            "geometry": {
                "type": "LineString",
                "coordinates": [
                    [
                        35.14835584856,
                        56.50236174705
                    ],
                    [
                        34.24976166351,
                        56.50269465359
                    ]
                ]
            }
        },
        {
            "type": "Feature",
            "properties": null,
            "geometry": {
                "type": "LineString",
                "coordinates": [
                    [
                        36.73083468356,
                        55.45832100163
                    ],
                    [
                        36.87716586609,
                        55.45834128611
                    ]
                ]
            }
        },
        {
            "type": "Feature",
            "properties": null,
            "geometry": {
                "type": "LineString",
                "coordinates": [
                    [
                        39.93693879135,
                        55.84900903077
                    ],
                    [
                        39.93693879135,
                        55.84783801409
                    ],
                    [
                        39.94582355354,
                        55.84778379141
                    ],
                    [
                        39.94578233078,
                        55.84895355513
                    ],
                    [
                        39.94540229015,
                        55.91794276086
                    ]
                ]
            }
        },
        {
            "type": "Feature",
            "properties": null,
            "geometry": {
                "type": "LineString",
                "coordinates": [
                    [
                        36.98251493074,
                        55.48813404271
                    ],
                    [
                        37.00330831117,
                        55.48840276902
                    ],
                    [
                        37.02370945366,
                        55.48968974340
                    ],
                    [
                        37.04362667020,
                        55.49195729238
                    ],
                    [
                        37.06296827280,
                        55.49516767598
                    ],
                    [
                        37.08164257348,
                        55.49928309692
                    ],
                    [
                        37.09955788423,
                        55.50426570946
                    ],
                    [
                        37.11662251706,
                        55.51007762785
                    ],
                    [
                        37.13274478398,
                        55.51668093445
                    ],
                    [
                        37.14783299699,
                        55.52403768750
                    ],
                    [
                        37.16179546810,
                        55.53210992849
                    ],
                    [
                        37.17454050932,
                        55.54085968921
                    ],
                    [
                        37.18597643265,
                        55.55024899843
                    ],
                    [
                        37.19601155009,
                        55.56023988818
                    ],
                    [
                        37.20455417366,
                        55.57079439975
                    ],
                    [
                        37.21151261536,
                        55.58187458926
                    ],
                    [
                        37.23420822876,
                        55.59331600402
                    ],
                    [
                        37.25456830984,
                        55.60406846274
                    ],
                    [
                        37.27455006463,
                        55.61503271068
                    ],
                    [
                        37.29414837363,
                        55.62620529191
                    ],
                    [
                        37.31335811738,
                        55.63758275080
                    ],
                    [
                        37.33217417639,
                        55.64916163225
                    ],
                    [
                        37.35059143117,
                        55.66093848184
                    ],
                    [
                        37.36860476226,
                        55.67290984600
                    ],
                    [
                        37.38620905017,
                        55.68507227219
                    ],
                    [
                        37.40339917542,
                        55.69742230905
                    ],
                    [
                        37.41231572385,
                        55.70534496932
                    ],
                    [
                        37.43597811505,
                        55.72802710907
                    ],
                    [
                        37.44469583812,
                        55.73994748759
                    ],
                    [
                        37.46189456099,
                        55.76769902111
                    ]
                ]
            }
        },
        {
            "type": "Feature",
            "properties": null,
            "geometry": {
                "type": "LineString",
                "coordinates": [
                    [
                        39.66644734158,
                        55.84848418857
                    ],
                    [
                        39.92052459750,
                        55.84792629584
                    ]
                ]
            }
        },
        {
            "type": "Feature",
            "properties": null,
            "geometry": {
                "type": "LineString",
                "coordinates": [
                    [
                        40.05185421404,
                        55.92907929456
                    ],
                    [
                        40.24117620199,
                        56.03435143108
                    ]
                ]
            }
        },
        {
            "type": "Feature",
            "properties": null,
            "geometry": {
                "type": "LineString",
                "coordinates": [
                    [
                        35.24458103323,
                        55.44897552701
                    ],
                    [
                        35.24460889808,
                        55.44505478861
                    ],
                    [
                        35.35704016002,
                        55.42840757484
                    ]
                ]
            }
        },
        {
            "type": "Feature",
            "properties": null,
            "geometry": {
                "type": "LineString",
                "coordinates": [
                    [
                        35.19580234919,
                        56.60836344098
                    ],
                    [
                        35.19563808919,
                        56.50280224723
                    ],
                    [
                        35.17113970227,
                        56.50276698778
                    ]
                ]
            }
        },
        {
            "type": "Feature",
            "properties": null,
            "geometry": {
                "type": "LineString",
                "coordinates": [
                    [
                        34.24992721076,
                        56.32608613700
                    ],
                    [
                        34.24986446218,
                        55.44037038051
                    ]
                ]
            }
        },
        {
            "type": "Feature",
            "properties": null,
            "geometry": {
                "type": "LineString",
                "coordinates": [
                    [
                        36.73044110624,
                        55.42840829176
                    ],
                    [
                        36.73083468356,
                        55.45832100163
                    ]
                ]
            }
        },
        {
            "type": "Feature",
            "properties": null,
            "geometry": {
                "type": "LineString",
                "coordinates": [
                    [
                        37.01370071854,
                        56.66289951801
                    ],
                    [
                        36.60102349761,
                        56.66213972370
                    ]
                ]
            }
        },
        {
            "type": "Feature",
            "properties": null,
            "geometry": {
                "type": "LineString",
                "coordinates": [
                    [
                        40.82098375790,
                        56.35693037029
                    ],
                    [
                        40.91520430342,
                        56.40909447966
                    ],
                    [
                        40.88434119825,
                        56.42431064021
                    ]
                ]
            }
        },
        {
            "type": "Feature",
            "properties": null,
            "geometry": {
                "type": "LineString",
                "coordinates": [
                    [
                        40.18200605642,
                        56.01622489430
                    ],
                    [
                        40.22650207111,
                        56.02984405021
                    ],
                    [
                        40.27013712346,
                        56.04421152008
                    ],
                    [
                        40.31288309154,
                        56.05931266412
                    ],
                    [
                        40.35471185341,
                        56.07513282147
                    ],
                    [
                        40.39559528715,
                        56.09165731291
                    ],
                    [
                        40.43550527082,
                        56.10887144336
                    ],
                    [
                        40.47441368250,
                        56.12676050452
                    ],
                    [
                        40.51229240026,
                        56.14530977733
                    ],
                    [
                        40.54911330216,
                        56.16450453444
                    ],
                    [
                        40.58484826628,
                        56.18433004259
                    ],
                    [
                        40.61946917068,
                        56.20477156497
                    ],
                    [
                        40.65294789344,
                        56.22581436351
                    ],
                    [
                        40.68525631262,
                        56.24744370114
                    ],
                    [
                        40.71636630630,
                        56.26964484396
                    ],
                    [
                        40.74624975253,
                        56.29240306338
                    ],
                    [
                        40.75676806257,
                        56.30081284617
                    ],
                    [
                        40.76197408170,
                        56.30503682365
                    ],
                    [
                        40.76713615692,
                        56.30927666922
                    ],
                    [
                        40.77225416609,
                        56.31353227130
                    ],
                    [
                        40.77732798710,
                        56.31780351832
                    ],
                    [
                        40.78235749781,
                        56.32209029875
                    ],
                    [
                        40.78734257611,
                        56.32639250108
                    ],
                    [
                        40.79228309986,
                        56.33071001384
                    ],
                    [
                        40.79717894694,
                        56.33504272557
                    ],
                    [
                        40.80202999523,
                        56.33939052487
                    ],
                    [
                        40.80683612260,
                        56.34375330033
                    ],
                    [
                        40.81159720691,
                        56.34813094060
                    ],
                    [
                        40.81631312606,
                        56.35252333435
                    ],
                    [
                        40.82098375790,
                        56.35693037029
                    ]
                ]
            }
        },
        {
            "type": "Feature",
            "properties": null,
            "geometry": {
                "type": "LineString",
                "coordinates": [
                    [
                        40.88434119825,
                        56.42431064021
                    ],
                    [
                        40.90903357598,
                        56.45468225930
                    ],
                    [
                        40.76585253336,
                        56.49562844940
                    ],
                    [
                        40.75993081783,
                        56.49205305578
                    ]
                ]
            }
        },
        {
            "type": "Feature",
            "properties": null,
            "geometry": {
                "type": "LineString",
                "coordinates": [
                    [
                        39.93719763812,
                        56.66105577315
                    ],
                    [
                        38.38258645680,
                        56.66218758976
                    ]
                ]
            }
        },
        {
            "type": "Feature",
            "properties": null,
            "geometry": {
                "type": "LineString",
                "coordinates": [
                    [
                        37.46084820280,
                        55.78863171475
                    ],
                    [
                        37.46164913908,
                        55.84782059841
                    ]
                ]
            }
        },
        {
            "type": "Feature",
            "properties": null,
            "geometry": {
                "type": "LineString",
                "coordinates": [
                    [
                        40.88434119825,
                        56.42431064021
                    ],
                    [
                        40.75993081783,
                        56.49205305578
                    ],
                    [
                        40.44479568453,
                        56.65944242241
                    ]
                ]
            }
        }
    ]
}