{
"type": "FeatureCollection",
"generator": "JOSM",
"name": "islands",
"features": [
{ "type": "Feature", "properties": { }, "geometry": { "type": "Polygon", "coordinates": [ [ [ 61.237540521855273, 122.412910378908521 ], [ 61.238215324381279, 119.269042388849016 ], [ 65.001250630703595, 119.270767757248166 ], [ 64.999901027452069, 122.414634172186325 ], [ 61.237540521855273, 122.412910378908521 ] ] ] } },
{ "type": "Feature", "properties": { }, "geometry": { "type": "Polygon", "coordinates": [ [ [ 298.650293314351359, 118.061414444340841 ], [ 298.650293314351359, 114.914351650841894 ], [ 302.41332042788531, 114.917471298638972 ], [ 302.41332042788531, 118.064531804487331 ], [ 298.650293314351359, 118.061414444340841 ] ] ] } },
{ "type": "Feature", "properties": { }, "geometry": { "type": "Polygon", "coordinates": [ [ [ 57.189484063333865, 71.462986256290662 ], [ 57.190020590418492, 69.291297249500616 ], [ 60.953052055189268, 69.293329885548943 ], [ 60.95197900102044, 71.465017588444994 ], [ 57.189484063333865, 71.462986256290662 ] ] ] } },
{ "type": "Feature", "properties": { }, "geometry": { "type": "Polygon", "coordinates": [ [ [ 126.879459227042588, 71.533363755874831 ], [ 126.879459227042588, 68.824505598967576 ], [ 130.652252743494671, 68.824505598967576 ], [ 130.652252743494671, 71.533363755874831 ], [ 126.879459227042588, 71.533363755874831 ] ] ] } },
{ "type": "Feature", "properties": { }, "geometry": { "type": "Polygon", "coordinates": [ [ [ 126.875062066792452, 68.734447589884496 ], [ 126.875062066792452, 65.974640790261716 ], [ 130.63809677457985, 65.977797907499593 ], [ 130.63809677457985, 68.737602709596743 ], [ 126.875062066792452, 68.734447589884496 ] ] ] } },
{ "type": "Feature", "properties": { }, "geometry": { "type": "Polygon", "coordinates": [ [ [ 169.687655667313351, 111.835328668627142 ], [ 169.687655667313351, 108.683697776867746 ], [ 173.450682780847274, 108.686825888302877 ], [ 173.450682780847274, 111.838454485742503 ], [ 169.687655667313351, 111.835328668627142 ] ] ] } },
{ "type": "Feature", "properties": { }, "geometry": { "type": "Polygon", "coordinates": [ [ [ 156.472936985518118, 88.465805278226355 ], [ 156.473611786243168, 85.297055343693572 ], [ 160.236654686818554, 85.298794366851652 ], [ 160.235305085367997, 88.467542718481624 ], [ 156.472936985518118, 88.465805278226355 ] ] ] } },
{ "type": "Feature", "properties": { }, "geometry": { "type": "Polygon", "coordinates": [ [ [ 68.396732181465083, 149.904138048035264 ], [ 68.396732181465083, 146.780489239048478 ], [ 71.228677787145017, 146.780489239048478 ], [ 71.228677787145017, 149.904138048035264 ], [ 68.396732181465083, 149.904138048035264 ] ] ] } },
{ "type": "Feature", "properties": { }, "geometry": { "type": "Polygon", "coordinates": [ [ [ 62.076885728774705, 96.078405310189751 ], [ 62.076885728774705, 92.915226998663272 ], [ 65.839916638834566, 92.918362618881744 ], [ 65.839916638834566, 96.081538637200481 ], [ 62.076885728774705, 96.078405310189751 ] ] ] } },
{ "type": "Feature", "properties": { }, "geometry": { "type": "Polygon", "coordinates": [ [ [ 151.524712017508705, 86.829519183363317 ], [ 151.525385970559114, 83.659572184215065 ], [ 155.288413681427556, 83.661309672268544 ], [ 155.287065774726415, 86.831255090737386 ], [ 151.524712017508705, 86.829519183363317 ] ] ] } },
{ "type": "Feature", "properties": { }, "geometry": { "type": "Polygon", "coordinates": [ [ [ 61.482902771704609, 112.368681853825123 ], [ 61.484250378237817, 109.218141061808225 ], [ 65.247285682759113, 109.219868298788242 ], [ 65.245937777858998, 112.371105588005818 ], [ 61.482902771704609, 112.368681853825123 ] ] ] } },
{ "type": "Feature", "properties": { }, "geometry": { "type": "Polygon", "coordinates": [ [ [ 61.747861679752063, 78.065186084872565 ], [ 61.748536056640042, 74.888830893077127 ], [ 65.511571362361721, 74.890572990890334 ], [ 65.510222607985966, 78.066926598670932 ], [ 61.747861679752063, 78.065186084872565 ] ] ] } },
{ "type": "Feature", "properties": { }, "geometry": { "type": "Polygon", "coordinates": [ [ [ 175.27390169353265, 112.069428437628943 ], [ 175.27390169353265, 108.917969251907948 ], [ 179.036928806465909, 108.921097192158257 ], [ 179.036928806465909, 112.072554084671523 ], [ 175.27390169353265, 112.069428437628943 ] ] ] } },
{ "type": "Feature", "properties": { }, "geometry": { "type": "Polygon", "coordinates": [ [ [ 298.058415855275086, 156.78882696808742 ], [ 298.058415855275086, 153.670249924997734 ], [ 301.821442968208828, 153.673341343991979 ], [ 301.821442968208828, 156.791916110547845 ], [ 298.058415855275086, 156.78882696808742 ] ] ] } },
{ "type": "Feature", "properties": { }, "geometry": { "type": "Polygon", "coordinates": [ [ [ 172.078085416019888, 79.051211122754097 ], [ 172.078085416019888, 75.875574284221898 ], [ 175.841112528953147, 75.878724232822876 ], [ 175.841112528953147, 79.054356789514443 ], [ 172.078085416019888, 79.051211122754097 ] ] ] } },
{ "type": "Feature", "properties": { }, "geometry": { "type": "Polygon", "coordinates": [ [ [ 63.732499945283337, 136.548098016547158 ], [ 63.727417380569747, 133.33093065524119 ], [ 67.503265755909979, 133.33402324251611 ], [ 67.503265755909979, 136.563931229879501 ], [ 66.155527125330337, 136.55827216594875 ], [ 63.732499945283337, 136.548098016547158 ] ] ] } },
{ "type": "Feature", "properties": { }, "geometry": { "type": "Polygon", "coordinates": [ [ [ 69.687827612762575, 136.492141339777504 ], [ 69.687827612762575, 134.888443966960523 ], [ 70.890333114865129, 134.888443966960523 ], [ 70.890333114865129, 136.492141339777504 ], [ 69.687827612762575, 136.492141339777504 ] ] ] } },
{ "type": "Feature", "properties": { }, "geometry": { "type": "Polygon", "coordinates": [ [ [ 168.49077761909237, 135.05391913438902 ], [ 168.49077761909237, 131.91933518885466 ], [ 172.253804732025628, 131.922442465777067 ], [ 172.253804732025628, 135.057024128108566 ], [ 168.49077761909237, 135.05391913438902 ] ] ] } },
{ "type": "Feature", "properties": { }, "geometry": { "type": "Polygon", "coordinates": [ [ [ 148.254774656344296, 66.224959878581885 ], [ 148.254774656344296, 63.039957747262648 ], [ 152.017816958384799, 63.043115992763909 ], [ 152.017816958384799, 66.228116814630766 ], [ 148.254774656344296, 66.224959878581885 ] ] ] } },
{ "type": "Feature", "properties": { }, "geometry": { "type": "Polygon", "coordinates": [ [ [ 105.39201242445202, 130.166416025901469 ], [ 105.39201242445202, 127.02823940477171 ], [ 109.155039537385747, 127.031350242113845 ], [ 109.155039537385747, 130.169524578928588 ], [ 105.39201242445202, 130.166416025901469 ] ] ] } },
{ "type": "Feature", "properties": { }, "geometry": { "type": "Polygon", "coordinates": [ [ [ 61.625360446776817, 86.708600544026623 ], [ 61.625360446776817, 83.538564780051104 ], [ 65.388391357437257, 83.541711154893747 ], [ 65.388391357437257, 86.711744618991332 ], [ 61.625360446776817, 86.708600544026623 ] ] ] } },
{ "type": "Feature", "properties": { }, "geometry": { "type": "Polygon", "coordinates": [ [ [ 89.750213699985551, 129.784994323508585 ], [ 89.750213699985551, 126.64653740632447 ], [ 93.513248407772934, 126.649656358266483 ], [ 93.513248407772934, 129.788103153321032 ], [ 89.750213699985551, 129.784994323508585 ] ] ] } },
{ "type": "Feature", "properties": { }, "geometry": { "type": "Polygon", "coordinates": [ [ [ 185.200182449237872, 153.729033223592438 ], [ 185.200182449237872, 151.334891090224176 ], [ 186.523568077207244, 151.334291164539621 ], [ 186.523568077207244, 153.72843363694227 ], [ 185.200182449237872, 153.729033223592438 ] ] ] } },
{ "type": "Feature", "properties": { }, "geometry": { "type": "Polygon", "coordinates": [ [ [ 176.353522146101568, 156.78882696808742 ], [ 176.353522146101568, 153.670249924997734 ], [ 180.116564448741769, 153.673341343991979 ], [ 180.116564448741769, 156.791916110547845 ], [ 176.353522146101568, 156.78882696808742 ] ] ] } },
{ "type": "Feature", "properties": { }, "geometry": { "type": "Polygon", "coordinates": [ [ [ 175.938366464864714, 117.472428255964232 ], [ 175.938366464864714, 114.324937122767949 ], [ 179.701393578398608, 114.328057199637698 ], [ 179.701393578398608, 117.475553898560008 ], [ 175.938366464864714, 117.472428255964232 ] ] ] } },
{ "type": "Feature", "properties": { }, "geometry": { "type": "Polygon", "coordinates": [ [ [ 68.006032519333615, 68.747679307060395 ], [ 68.007273625621167, 66.037525064079773 ], [ 71.71130800460439, 66.039382051283368 ], [ 71.710066601150658, 68.75018378595297 ], [ 68.006032519333615, 68.747679307060395 ] ] ] } },
{ "type": "Feature", "properties": { }, "geometry": { "type": "Polygon", "coordinates": [ [ [ 172.083173666517581, 83.022623404598662 ], [ 172.083173666517581, 79.84989187727534 ], [ 175.846200779451351, 79.853038946860863 ], [ 175.846200779451351, 83.025766195677321 ], [ 172.083173666517581, 83.022623404598662 ] ] ] } },
{ "type": "Feature", "properties": { }, "geometry": { "type": "Polygon", "coordinates": [ [ [ 163.53207237275538, 80.229031002837871 ], [ 163.53207237275538, 77.054257070823496 ], [ 167.295099486289303, 77.057406166835406 ], [ 167.295099486289303, 80.232177797860714 ], [ 163.53207237275538, 80.229031002837871 ] ] ] } },
{ "type": "Feature", "properties": { }, "geometry": { "type": "Polygon", "coordinates": [ [ [ 172.051748023042592, 75.307656112941814 ], [ 172.051748023042592, 72.129285638114084 ], [ 175.814775136576486, 72.132438300103772 ], [ 175.814775136576486, 75.310806473942321 ], [ 172.051748023042592, 75.307656112941814 ] ] ] } },
{ "type": "Feature", "properties": { }, "geometry": { "type": "Polygon", "coordinates": [ [ [ 68.000042748735282, 71.603756854388067 ], [ 68.006032519333615, 68.747679307060395 ], [ 71.710066601150658, 68.75018378595297 ], [ 71.72326788779128, 71.606254067934501 ], [ 68.000042748735282, 71.603756854388067 ] ] ] } },
{ "type": "Feature", "properties": { }, "geometry": { "type": "Polygon", "coordinates": [ [ [ 140.727247115940798, 65.517943462589642 ], [ 140.727247115940798, 62.332424309004395 ], [ 144.490289417981302, 62.335584060708499 ], [ 144.490289417981302, 65.521100909970016 ], [ 140.727247115940798, 65.517943462589642 ] ] ] } },
{ "type": "Feature", "properties": { }, "geometry": { "type": "Polygon", "coordinates": [ [ [ 168.978520612585044, 149.99657239981434 ], [ 168.978520612585044, 146.872983861181893 ], [ 172.741547726118938, 146.876088038995221 ], [ 172.741547726118938, 149.999666499961648 ], [ 168.978520612585044, 149.99657239981434 ] ] ] } },
{ "type": "Feature", "properties": { }, "geometry": { "type": "Polygon", "coordinates": [ [ [ 97.489139066908223, 129.943627918648559 ], [ 97.489139066908223, 126.805287576024242 ], [ 101.252166179841552, 126.8083985756586 ], [ 101.252166179841552, 129.946736633966992 ], [ 97.489139066908223, 129.943627918648559 ] ] ] } },
{ "type": "Feature", "properties": { }, "geometry": { "type": "Polygon", "coordinates": [ [ [ 172.062440645094426, 87.007659046429438 ], [ 172.063114596944132, 83.837842358856975 ], [ 175.826157496318729, 83.839579779104298 ], [ 175.824809592619317, 87.009394884885211 ], [ 172.062440645094426, 87.007659046429438 ] ] ] } },
{ "type": "Feature", "properties": { }, "geometry": { "type": "Polygon", "coordinates": [ [ [ 61.182432030492762, 127.917721178906149 ], [ 61.177560394510877, 125.328389846330438 ], [ 65.110206026070742, 125.370468312441687 ], [ 65.115077661452403, 127.95977416406285 ], [ 61.182432030492762, 127.917721178906149 ] ] ] } },
{ "type": "Feature", "properties": { }, "geometry": { "type": "Polygon", "coordinates": [ [ [ 71.451239386185705, 129.631539020060416 ], [ 71.451239386185705, 126.492977173323283 ], [ 75.214266499719614, 126.496088399721472 ], [ 75.214266499719614, 129.634647962143561 ], [ 71.451239386185705, 129.631539020060416 ] ] ] } },
{ "type": "Feature", "properties": { }, "geometry": { "type": "Polygon", "coordinates": [ [ [ 57.190020590418492, 69.291297249500616 ], [ 57.177331470418899, 65.996572381940041 ], [ 60.940366776140579, 65.998318039061729 ], [ 60.953052055189268, 69.293329885548943 ], [ 57.190020590418492, 69.291297249500616 ] ] ] } },
{ "type": "Feature", "properties": { }, "geometry": { "type": "Polygon", "coordinates": [ [ [ 185.179844635752289, 114.346038856580662 ], [ 185.179844635752289, 111.929688046859511 ], [ 186.503215074615269, 111.929082555448915 ], [ 186.503215074615269, 114.345433706427883 ], [ 185.179844635752289, 114.346038856580662 ] ] ] } },
{ "type": "Feature", "properties": { }, "geometry": { "type": "Polygon", "coordinates": [ [ [ 69.727871695633908, 134.661436032278829 ], [ 69.727871695633908, 132.042630487690275 ], [ 70.930377197736476, 132.042630487690275 ], [ 70.930377197736476, 134.661436032278829 ], [ 69.727871695633908, 134.661436032278829 ] ] ] } },
{ "type": "Feature", "properties": { }, "geometry": { "type": "Polygon", "coordinates": [ [ [ 69.627783708099088, 138.318269163869928 ], [ 69.627783708099088, 136.715259183228085 ], [ 70.830289209601446, 136.715259183228085 ], [ 70.830289209601446, 138.318269163869928 ], [ 69.627783708099088, 138.318269163869928 ] ] ] } },
{ "type": "Feature", "properties": { }, "geometry": { "type": "Polygon", "coordinates": [ [ [ 142.086994450850341, 86.829519183363317 ], [ 142.087668404501386, 83.659572184215065 ], [ 145.850696114769221, 83.661309672268544 ], [ 145.849348208068079, 86.831255090737386 ], [ 142.086994450850341, 86.829519183363317 ] ] ] } },
{ "type": "Feature", "properties": { }, "geometry": { "type": "Polygon", "coordinates": [ [ [ 61.668101752040059, 103.959833164004877 ], [ 61.668101752040059, 100.802428317812314 ], [ 65.431132662100282, 100.805562158377825 ], [ 65.431132662100282, 103.962964709138475 ], [ 61.668101752040059, 103.959833164004877 ] ] ] } },
{ "type": "Feature", "properties": { }, "geometry": { "type": "Polygon", "coordinates": [ [ [ 185.089653495192039, 120.763715132206173 ], [ 185.089653495192039, 118.350973773069384 ], [ 186.413039123161383, 118.350369186492102 ], [ 186.413039123161383, 120.763103039068298 ], [ 185.089653495192039, 120.763715132206173 ] ] ] } },
{ "type": "Feature", "properties": { }, "geometry": { "type": "Polygon", "coordinates": [ [ [ 185.292484833609933, 159.716306326459488 ], [ 185.292484833609933, 157.325549151610488 ], [ 186.615870461579703, 157.32495007295708 ], [ 186.615870461579703, 159.715707587951727 ], [ 185.292484833609933, 159.716306326459488 ] ] ] } }
]
}
