{
"type": "FeatureCollection",
"name": "shops",
"features": [
{ "type": "Feature", "properties": { "id": "shop_props:om5ox0zlkyl14ovh3eai" }, "geometry": { "type": "Polygon", "coordinates": [ [ [ 353.10921660704588, 142.375752749806225 ], [ 370.757456831244895, 142.375752749806225 ], [ 370.743099300043696, 124.588051511983437 ], [ 372.586959418730373, 125.775882495819587 ], [ 374.437182022556897, 127.505129152011975 ], [ 377.200120530295408, 130.278049304593139 ], [ 379.806038858365412, 132.715337702005627 ], [ 386.128857720967915, 140.259696991859187 ], [ 388.471537580930715, 143.806767980270337 ], [ 390.237032818207524, 146.64155012941535 ], [ 393.856847030101392, 152.196276167865165 ], [ 399.468860426453716, 157.497082252219144 ], [ 397.778215910065057, 158.96285347642737 ], [ 353.165281575088102, 158.971077827616199 ], [ 353.10921660704588, 142.375752749806225 ] ] ] } },
{ "type": "Feature", "properties": { "id": "shop_props:60x0ij7zzimbtvv58xcf" }, "geometry": { "type": "Polygon", "coordinates": [ [ [ 308.212073601103327, 147.83037792733478 ], [ 308.243914731874213, 138.41036835378452 ], [ 318.566283286761461, 138.410816031797111 ], [ 318.556562449961916, 145.48687431447442 ], [ 312.847180759651962, 148.683254458285774 ], [ 309.992505103903682, 148.672215139172209 ], [ 310.002225940703227, 147.808938826265717 ], [ 308.212073601103327, 147.83037792733478 ] ] ] } },
{ "type": "Feature", "properties": { "id": "shop_props:3ae22vu5mtaqq09wmipv" }, "geometry": { "type": "Polygon", "coordinates": [ [ [ 341.692154373360154, 178.102584695789972 ], [ 341.794432406640055, 159.279487750177452 ], [ 353.165281575088102, 158.971077827616199 ], [ 397.778215910065057, 158.96285347642737 ], [ 399.132657283146216, 162.415718036803213 ], [ 390.274905689682441, 166.526524971894901 ], [ 371.826191632054645, 185.249756110964 ], [ 353.317380457761942, 185.343509585386471 ], [ 353.259950334759367, 179.291584184182653 ], [ 344.303535707011179, 179.218790863824637 ], [ 344.219571978341492, 177.904385385877418 ], [ 341.886571111743422, 177.904385385877418 ], [ 341.692154373360154, 178.102584695789972 ] ] ] } },
{ "type": "Feature", "properties": { "id": "shop_props:j67ujsa2inmqzdyu4sr5" }, "geometry": { "type": "Polygon", "coordinates": [ [ [ 326.773035616712832, 156.474510993194031 ], [ 335.664759805884955, 156.376229445495198 ], [ 335.881342149816362, 176.900534103420682 ], [ 326.998113669104953, 176.998383833257833 ], [ 327.037628276440785, 169.2978878772455 ], [ 326.773035616712832, 156.474510993194031 ] ] ] } },
{ "type": "Feature", "properties": { "id": null }, "geometry": { "type": "Polygon", "coordinates": [ [ [ 318.184807742039368, 169.250522588337617 ], [ 318.239580010298369, 158.55321494701937 ], [ 319.733030538692503, 157.519934858734729 ], [ 321.169787677895272, 156.368293228177635 ], [ 326.773035616712832, 156.474510993194031 ], [ 327.037628276440785, 169.2978878772455 ], [ 318.184807742039368, 169.250522588337617 ] ] ] } },
{ "type": "Feature", "properties": { "id": "shop_props:j7nbvt0qk7hr059hodvx" }, "geometry": { "type": "Polygon", "coordinates": [ [ [ 327.38360182630953, 117.276521005848181 ], [ 327.327788020331866, 111.61279850225803 ], [ 332.902585578384446, 111.553928198487299 ], [ 332.916357240266734, 112.952125312727475 ], [ 332.958399384961012, 117.217728328774797 ], [ 327.38360182630953, 117.276521005848181 ] ] ] } },
{ "type": "Feature", "properties": { "id": "shop_props:boeni2a3i0qqs0ghnufy" }, "geometry": { "type": "Polygon", "coordinates": [ [ [ 352.968325226584057, 129.664593926962169 ], [ 351.28783553965485, 126.344411508583804 ], [ 350.227140341260792, 124.813273947967772 ], [ 349.194574815018427, 123.516228361893695 ], [ 348.077954426066015, 122.267237984650748 ], [ 347.052588394733334, 121.404975738801994 ], [ 346.031384096399108, 120.564364375061643 ], [ 345.105200978510879, 119.902241094095046 ], [ 344.202742778871595, 119.460763483790572 ], [ 343.223732988763857, 118.970182073864223 ], [ 342.320819124927937, 118.487246845467112 ], [ 341.369787117705641, 118.129375523996785 ], [ 338.115038266535635, 117.253580540457037 ], [ 338.115038266535635, 108.260760224675309 ], [ 348.86827555522683, 108.309264714428238 ], [ 353.434925399544284, 111.583753819344935 ], [ 353.434925399544284, 115.154884020759724 ], [ 357.84666649050564, 117.433703092537257 ], [ 362.673219842170454, 120.309073180359007 ], [ 352.968325226584057, 129.664593926962169 ] ] ] } },
{ "type": "Feature", "properties": { "id": "shop_props:rns1sjzg33wmdly42xd1" }, "geometry": { "type": "Polygon", "coordinates": [ [ [ 353.10921660704588, 142.375752749806225 ], [ 352.968325226584057, 129.664593926962169 ], [ 362.673219842170454, 120.309073180359007 ], [ 363.613917538013936, 119.401152201469287 ], [ 370.743099300043696, 124.588051511983437 ], [ 370.757456831244895, 142.375752749806225 ], [ 353.10921660704588, 142.375752749806225 ] ] ] } },
{ "type": "Feature", "properties": { "id": "shop_props:1jjdu63lp7g0sururmdw" }, "geometry": { "type": "Polygon", "coordinates": [ [ [ 308.243914731874213, 138.41036835378452 ], [ 308.362092198104449, 123.908426454812584 ], [ 308.369125334444107, 123.043813392794306 ], [ 312.855595359086806, 123.043813392794306 ], [ 318.556562449961916, 126.24067815494476 ], [ 318.566283286761461, 138.410816031797111 ], [ 308.243914731874213, 138.41036835378452 ] ] ] } },
{ "type": "Feature", "properties": { "id": "shop_props:eyg61pmmdydlc043gxp0" }, "geometry": { "type": "Polygon", "coordinates": [ [ [ 282.356165675895227, 147.808938826265717 ], [ 282.32959133021086, 142.375588717071423 ], [ 282.239515633105498, 123.907102202183808 ], [ 300.330600735002065, 123.907102202183808 ], [ 300.330600735002065, 147.808938826265717 ], [ 282.356165675895227, 147.808938826265717 ] ] ] } },
{ "type": "Feature", "properties": { "id": null }, "geometry": { "type": "Polygon", "coordinates": [ [ [ 300.330600735002065, 147.808938826265717 ], [ 300.330600735002065, 123.907102202183808 ], [ 308.362092198104449, 123.908426454812584 ], [ 308.243914731874213, 138.41036835378452 ], [ 308.212073601103327, 147.83037792733478 ], [ 300.330600735002065, 147.808938826265717 ] ] ] } },
{ "type": "Feature", "properties": { "id": null }, "geometry": { "type": "Polygon", "coordinates": [ [ [ 270.795447698954092, 147.808938826265717 ], [ 270.795447698954092, 142.375752749806225 ], [ 273.374112340872443, 142.375716077377916 ], [ 282.32959133021086, 142.375588717071423 ], [ 282.356165675895227, 147.808938826265717 ], [ 270.795447698954092, 147.808938826265717 ] ] ] } },
{ "type": "Feature", "properties": { "id": "shop_props:74pcprtdh1ed9xd579ea" }, "geometry": { "type": "Polygon", "coordinates": [ [ [ 308.578163397767241, 163.629980551277953 ], [ 308.592067033961825, 160.913478167023641 ], [ 308.60440439415737, 158.501532396571122 ], [ 318.239580010298369, 158.55321494701937 ], [ 318.184807742039368, 169.250522588337617 ], [ 327.037628276440785, 169.2978878772455 ], [ 326.998113669104953, 176.998383833257833 ], [ 326.99043887420089, 178.492392316604764 ], [ 326.30493667075865, 178.488732697788407 ], [ 326.302494185433829, 178.964086275742488 ], [ 325.228368915867236, 178.958352597512743 ], [ 325.193725502665359, 185.694830237399685 ], [ 264.083620080620108, 185.369135277369821 ], [ 264.088643544633555, 184.392907885922256 ], [ 258.155466030649791, 184.361277460291234 ], [ 258.179566933470824, 179.674465531858345 ], [ 258.205357605053678, 174.653248528934455 ], [ 255.515406387780672, 174.638874824150889 ], [ 255.573297921998716, 163.345998999312854 ], [ 308.578163397767241, 163.629980551277953 ] ] ] } },
{ "type": "Feature", "properties": { "id": null }, "geometry": { "type": "Polygon", "coordinates": [ [ [ 211.335715785735232, 178.201680844796499 ], [ 211.337857407760538, 162.873514684848573 ], [ 220.031236616119514, 162.829158763001431 ], [ 219.987848510412505, 178.203790807421171 ], [ 211.335715785735232, 178.201680844796499 ] ] ] } },
{ "type": "Feature", "properties": { "id": "shop_props:nw1r4g7dgdcm4bo3krpm" }, "geometry": { "type": "Polygon", "coordinates": [ [ [ 197.533752529531654, 162.873530224865078 ], [ 211.337857407760538, 162.873514684848573 ], [ 211.335715785735232, 178.201680844796499 ], [ 219.987848510412505, 178.203790807421171 ], [ 219.967171754300466, 185.51089200384709 ], [ 197.598396617948964, 185.583162663961588 ], [ 197.533752529531654, 162.873530224865078 ] ] ] } },
{ "type": "Feature", "properties": { "id": null }, "geometry": { "type": "Polygon", "coordinates": [ [ [ 180.958100340164066, 162.873514684848573 ], [ 197.533752529531654, 162.873530224865078 ], [ 197.540962905535906, 185.572208464780772 ], [ 190.240158495457592, 185.557597952639014 ], [ 190.241499620160909, 180.133588494520382 ], [ 188.005707123353943, 180.133588494520382 ], [ 188.005707123353943, 175.58475858871833 ], [ 180.958100340164066, 175.58475858871833 ], [ 180.958100340164066, 162.873514684848573 ] ] ] } },
{ "type": "Feature", "properties": { "id": "shop_props:k5twi9n2esdhn5i4kdq1" }, "geometry": { "type": "Polygon", "coordinates": [ [ [ 253.184574851725444, 181.480035991715596 ], [ 246.973438008948619, 181.461801746184989 ], [ 246.961751703179544, 185.590063839655812 ], [ 219.967171754300466, 185.51089200384709 ], [ 219.987848510412505, 178.203790807421171 ], [ 220.031236616119514, 162.829158763001431 ], [ 250.753658991987749, 162.919751006192314 ], [ 250.743433194382874, 166.548254361094138 ], [ 253.226727609569963, 166.555570556308851 ], [ 253.184574851725444, 181.480035991715596 ] ] ] } },
{ "type": "Feature", "properties": { "id": null }, "geometry": { "type": "Polygon", "coordinates": [ [ [ 273.374112340872443, 142.375716077377916 ], [ 273.374112340872443, 135.44558638909956 ], [ 273.374112341472653, 129.365191556730082 ], [ 273.374112341472653, 123.907102202183808 ], [ 282.239515633105498, 123.907102202183808 ], [ 282.32959133021086, 142.375588717071423 ], [ 273.374112340872443, 142.375716077377916 ] ] ] } },
{ "type": "Feature", "properties": { "id": "shop_props:mxva400zgyhce1xfo85o" }, "geometry": { "type": "Polygon", "coordinates": [ [ [ 273.374112341472653, 129.365191556730082 ], [ 273.374112340872443, 135.44558638909956 ], [ 266.23197139759418, 135.444334809938937 ], [ 263.676696540431521, 135.443887026325939 ], [ 263.472558964648897, 132.977415858853561 ], [ 262.887394958072093, 131.111718864065097 ], [ 262.02704013382106, 129.363871769356678 ], [ 273.374112341472653, 129.365191556730082 ] ] ] } },
{ "type": "Feature", "properties": { "id": "shop_props:purdcf5av7xmuzg0q0nx" }, "geometry": { "type": "Polygon", "coordinates": [ [ [ 184.982403857086069, 135.470565267912264 ], [ 193.965842653676731, 135.677547620785418 ], [ 193.878018699491861, 147.69032592149415 ], [ 185.043328163608066, 147.689998016166896 ], [ 184.982403857086069, 135.470565267912264 ] ] ] } },
{ "type": "Feature", "properties": { "id": null }, "geometry": { "type": "Polygon", "coordinates": [ [ [ 266.209035319338568, 147.807480651619016 ], [ 260.830162084999472, 147.820276703730542 ], [ 260.826911680396222, 144.043924115417525 ], [ 262.663846086305398, 140.72924195604125 ], [ 263.676696540431521, 135.443887026325939 ], [ 266.23197139759418, 135.444334809938937 ], [ 266.209035319338568, 147.807480651619016 ] ] ] } },
{ "type": "Feature", "properties": { "id": null }, "geometry": { "type": "Polygon", "coordinates": [ [ [ 270.795447698954092, 147.808938826265717 ], [ 266.209035319338568, 147.807480651619016 ], [ 266.23197139759418, 135.444334809938937 ], [ 273.374112340872443, 135.44558638909956 ], [ 273.374112340872443, 142.375716077377916 ], [ 270.795447698954092, 142.375752749806225 ], [ 270.795447698954092, 147.808938826265717 ] ] ] } },
{ "type": "Feature", "properties": { "id": "shop_props:1g7jbe7ehcblawox4ux4" }, "geometry": { "type": "Polygon", "coordinates": [ [ [ 234.660520064977987, 147.732002870549394 ], [ 234.589731399661844, 135.514008455827337 ], [ 239.25486733576534, 135.544601966803356 ], [ 239.786747384417623, 140.100764619386382 ], [ 240.946563043278189, 142.395000551067199 ], [ 242.553576073870914, 144.046476232567358 ], [ 242.553576073870914, 147.818919902664703 ], [ 234.660520064977987, 147.732002870549394 ] ] ] } },
{ "type": "Feature", "properties": { "id": "shop_props:dyuxencbh9efnnzun2s6" }, "geometry": { "type": "Polygon", "coordinates": [ [ [ 278.545213670806731, 108.701331793248769 ], [ 278.53867598354509, 103.330289239942857 ], [ 282.363066303022549, 103.325281519356025 ], [ 282.352039874220964, 108.712166620007835 ], [ 278.545213670806731, 108.701331793248769 ] ] ] } },
{ "type": "Feature", "properties": { "id": "shop_props:6m5y5x4thj0f908mx4m7" }, "geometry": { "type": "Polygon", "coordinates": [ [ [ 193.897758513264733, 123.856918666163622 ], [ 228.07015785890286, 123.896445449758204 ], [ 228.047832277559053, 147.72417489754082 ], [ 193.878018699491861, 147.69032592149415 ], [ 193.965842653676731, 135.677547620785418 ], [ 193.897758513264733, 123.856918666163622 ] ] ] } },
{ "type": "Feature", "properties": { "id": "shop_props:w2f0u91pynvjy61w250f" }, "geometry": { "type": "Polygon", "coordinates": [ [ [ 184.982403857086069, 135.470565267912264 ], [ 185.085843455962106, 123.852363222234686 ], [ 193.897758513264733, 123.856918666163622 ], [ 193.965842653676731, 135.677547620785418 ], [ 184.982403857086069, 135.470565267912264 ] ] ] } },
{ "type": "Feature", "properties": { "id": "shop_props:u803lsgnplrcc1u5s2cd" }, "geometry": { "type": "Polygon", "coordinates": [ [ [ 176.052950830562281, 135.320064375228441 ], [ 176.052950830562281, 128.089475464602913 ], [ 180.097715138299321, 123.907102202183808 ], [ 185.085843455962106, 123.852363222234686 ], [ 184.982403857086069, 135.470565267912264 ], [ 176.052950830562281, 135.320064375228441 ] ] ] } },
{ "type": "Feature", "properties": { "id": "shop_props:hggy8lew2ycu4nm6okcd" }, "geometry": { "type": "Polygon", "coordinates": [ [ [ 262.02704013382106, 129.363871769356678 ], [ 261.471099393468592, 128.523335023254788 ], [ 260.8291900013798, 127.691125631509223 ], [ 260.8291900013798, 123.897064960530486 ], [ 273.374112341472653, 123.907102202183808 ], [ 273.374112341472653, 129.365191556730082 ], [ 262.02704013382106, 129.363871769356678 ] ] ] } },
{ "type": "Feature", "properties": { "id": "shop_props:8hbu08wzzvruche7tebi" }, "geometry": { "type": "Polygon", "coordinates": [ [ [ 228.07015785890286, 123.896445449758204 ], [ 242.560247332940179, 123.795213488127473 ], [ 241.067706872233515, 126.587271024496047 ], [ 239.924359726038489, 129.01836167862507 ], [ 239.440329552127196, 131.519768943937606 ], [ 239.259940854612211, 133.668066724890537 ], [ 239.25486733576534, 135.544601966803356 ], [ 234.589731399661844, 135.514008455827337 ], [ 234.660520064977987, 147.732002870549394 ], [ 228.047832277559053, 147.72417489754082 ], [ 228.07015785890286, 123.896445449758204 ] ] ] } },
{ "type": "Feature", "properties": { "id": "shop_props:aoif8v7pxxh8947yh10l" }, "geometry": { "type": "Polygon", "coordinates": [ [ [ 71.50844074506837, 144.820787799715646 ], [ 71.490341794268431, 132.150821487663052 ], [ 94.112401068959201, 132.11655177518503 ], [ 94.903829321369074, 132.190325002364176 ], [ 96.054366317472443, 132.550198913628009 ], [ 97.121258549543185, 133.138622520152524 ], [ 98.047198645926244, 133.922604718018277 ], [ 98.813724610896145, 134.886105353819204 ], [ 99.382606215038564, 135.986840465319546 ], [ 99.727270639924996, 137.163096091822723 ], [ 99.844383941765145, 138.406291153227954 ], [ 99.72124068342049, 139.65054523323704 ], [ 99.372179098884558, 140.820821757112867 ], [ 98.809152779821375, 141.901158351560326 ], [ 98.04769228198937, 142.855298357687985 ], [ 97.116018410979578, 143.641607031256115 ], [ 96.050637465311752, 144.226486362992546 ], [ 93.906298384408842, 144.888264522262148 ], [ 71.50844074506837, 144.820787799715646 ] ] ] } },
{ "type": "Feature", "properties": { "id": "shop_props:8uwlfcqsdxj7b8rh9gky" }, "geometry": { "type": "Polygon", "coordinates": [ [ [ 185.043328163608066, 147.689998016166896 ], [ 181.027558758268697, 147.808938826265717 ], [ 176.04386792303842, 142.686940860039329 ], [ 176.04386792303842, 142.025953187265088 ], [ 176.052950830562281, 135.320064375228441 ], [ 184.982403857086069, 135.470565267912264 ], [ 185.043328163608066, 147.689998016166896 ] ] ] } },
{ "type": "Feature", "properties": { "id": "shop_props:2j3sukgf1dwi03wbefgt" }, "geometry": { "type": "Polygon", "coordinates": [ [ [ 71.337301265620837, 185.126189235378433 ], [ 71.50844074506837, 144.820787799715646 ], [ 93.906298384408842, 144.888264522262148 ], [ 128.468261437181695, 144.992657789599178 ], [ 128.446013648005817, 152.761300774101443 ], [ 128.352393096988123, 185.296765515763809 ], [ 71.337301265620837, 185.126189235378433 ] ] ] } },
{ "type": "Feature", "properties": { "id": "shop_props:ur7ae3hprg2y2qjv2y85" }, "geometry": { "type": "Polygon", "coordinates": [ [ [ 165.015849092889283, 150.363930362903432 ], [ 144.131514263716184, 150.363716496516275 ], [ 144.131604899477111, 137.175736228013193 ], [ 165.015947979070887, 137.175774947994285 ], [ 165.015849092889283, 150.363930362903432 ] ] ] } },
{ "type": "Feature", "properties": { "id": "shop_props:q3l0yrn5s1f1ap4j98sc" }, "geometry": { "type": "Polygon", "coordinates": [ [ [ 165.015849092889283, 150.363930362903432 ], [ 164.821237617442932, 152.866318727764792 ], [ 164.756882638942727, 160.345588813686476 ], [ 155.822674048187906, 169.342126461987789 ], [ 155.903903792277418, 179.128813323774551 ], [ 167.112313250622606, 179.14533967731208 ], [ 167.085144597293947, 181.478842854343668 ], [ 169.214736950224733, 181.490353640584175 ], [ 169.206368699747458, 185.535689391973449 ], [ 144.147104153705214, 185.51376245451695 ], [ 144.156077610330669, 184.779510883525916 ], [ 144.129594851940936, 181.294201073892737 ], [ 140.216203497226559, 181.314740086904749 ], [ 139.512801135919005, 181.31065637243421 ], [ 139.505740946627981, 182.572344409486703 ], [ 136.046943975775974, 182.552269792783903 ], [ 136.046952715470439, 180.458705548334109 ], [ 135.173550704882899, 180.458705548334109 ], [ 135.173550704882899, 157.610552765180415 ], [ 144.203619058135729, 157.610553065306874 ], [ 144.131514263716184, 150.363716496516275 ], [ 165.015849092889283, 150.363930362903432 ] ] ] } },
{ "type": "Feature", "properties": { "id": "shop_props:vp77e5sewlicptl6o87i" }, "geometry": { "type": "Polygon", "coordinates": [ [ [ 164.756882638942727, 160.345588813686476 ], [ 176.352382985909429, 162.873600154926322 ], [ 176.329022599618469, 166.601534039247042 ], [ 178.144130688999809, 166.601534039247042 ], [ 178.186917560382483, 166.601534039247042 ], [ 178.178351072882265, 169.444524606067148 ], [ 177.032704872491507, 169.459419802810231 ], [ 177.032704872491507, 169.605172730585281 ], [ 167.086466023164775, 169.571543257785635 ], [ 167.112313250622606, 179.14533967731208 ], [ 155.903903792277418, 179.128813323774551 ], [ 155.822674048187906, 169.342126461987789 ], [ 164.756882638942727, 160.345588813686476 ] ] ] } },
{ "type": "Feature", "properties": { "id": "shop_props:jo9bmjevedzxntv19lrh" }, "geometry": { "type": "Polygon", "coordinates": [ [ [ 50.366755449990926, 119.206063495465756 ], [ 50.366594331755621, 114.792519019695476 ], [ 58.005108416881001, 114.739352022202425 ], [ 58.028988729158975, 119.206063495465756 ], [ 50.366755449990926, 119.206063495465756 ] ] ] } },
{ "type": "Feature", "properties": { "id": "shop_props:qdm13ddvysunb3mpt5yq" }, "geometry": { "type": "Polygon", "coordinates": [ [ [ 58.028988729158975, 119.206063495465756 ], [ 58.031606626724532, 123.349790677349347 ], [ 47.061119121857004, 123.355270087378472 ], [ 47.058925512515827, 119.206063495465756 ], [ 50.366755449990926, 119.206063495465756 ], [ 58.028988729158975, 119.206063495465756 ] ] ] } },
{ "type": "Feature", "properties": { "id": "shop_props:qllv5gl6ofnbw0fd5ruv" }, "geometry": { "type": "Polygon", "coordinates": [ [ [ 0.516746639917416, 123.378517445814424 ], [ 47.061119121857004, 123.355270087378472 ], [ 58.031606626724532, 123.349790677349347 ], [ 58.132109342129525, 126.331441058172487 ], [ 58.366765029519676, 127.955959902096922 ], [ 58.997373948927553, 129.380404206618493 ], [ 60.070975836371154, 130.670285202650376 ], [ 61.309011756846971, 131.50898265360226 ], [ 63.725425757952685, 132.069608930109325 ], [ 63.727417380569747, 133.330930655240422 ], [ 63.732499945283337, 136.548098016548067 ], [ 66.155527125330337, 136.558272165949631 ], [ 66.200400207104565, 160.123685955892881 ], [ 63.167502878493941, 160.123685955892881 ], [ 63.167502878493941, 165.275734516359705 ], [ 54.588985786788626, 165.275734516359705 ], [ 54.594369860763742, 167.529425183269723 ], [ 0.537081294433677, 167.524842968941243 ], [ 0.516746639917416, 123.378517445814424 ] ] ] } },
{ "type": "Feature", "properties": { "id": "shop_props:8pewr2q2ye76qy5b8j1u" }, "geometry": { "type": "Polygon", "coordinates": [ [ [ 137.672419741707671, 137.094979286328908 ], [ 142.053721411332475, 137.083260551804301 ], [ 141.961671896981386, 152.913119149392628 ], [ 128.446013648005817, 152.761300774101443 ], [ 128.468261437181695, 144.992657789599178 ], [ 121.972866779916572, 144.825939646702778 ], [ 116.669603431239707, 144.886140946007401 ], [ 115.525886209582595, 144.703029586814779 ], [ 114.42737087985104, 144.364027227075582 ], [ 114.327360175398994, 144.333154279306143 ], [ 113.258447831755461, 143.746697370484554 ], [ 112.315579809410465, 142.952749827429159 ], [ 111.540054475502387, 141.98203881634754 ], [ 110.96632004691358, 140.878525781730957 ], [ 110.612496771371084, 139.679061523442329 ], [ 110.493188686532875, 138.435370639995455 ], [ 110.612291722332486, 137.186743279923377 ], [ 110.72663306712505, 136.825540639660971 ], [ 110.966532690205298, 135.984635385138489 ], [ 111.543722573037414, 134.874451373795523 ], [ 112.313787529635931, 133.90939127869899 ], [ 113.2551898322981, 133.113990424200921 ], [ 114.329205615546115, 132.522965259271899 ], [ 115.494293489535153, 132.159199303714104 ], [ 116.645635492085944, 132.059590845578271 ], [ 121.892381288249524, 132.059590845578271 ], [ 137.659803184347055, 132.093990816276573 ], [ 137.672419741707671, 137.094979286328908 ] ] ] } },
{ "type": "Feature", "properties": { "id": "shop_props:3fnz88zlz5aaicsk3gpa" }, "geometry": { "type": "Polygon", "coordinates": [ [ [ 165.015947979070887, 137.175774947994285 ], [ 144.131604899477111, 137.175736228013193 ], [ 144.131613846287848, 132.059571462801102 ], [ 165.015956925881653, 132.05961022835865 ], [ 165.015947979070887, 137.175774947994285 ] ] ] } },
{ "type": "Feature", "properties": { "id": "shop_props:sy05e6w7q0n339o1q6uz" }, "geometry": { "type": "Polygon", "coordinates": [ [ [ 142.053721411332475, 137.083260551804301 ], [ 137.672419741707671, 137.094979286328908 ], [ 137.659803184347055, 132.093990816276573 ], [ 142.047381288117492, 132.082241518610175 ], [ 142.053721411332475, 137.083260551804301 ] ] ] } },
{ "type": "Feature", "properties": { "id": "shop_props:ytcdphwdvoqrrgni9yh5" }, "geometry": { "type": "Polygon", "coordinates": [ [ [ 118.489999872787209, 123.696315173060185 ], [ 118.490662900918721, 111.27972383082286 ], [ 128.488847441667588, 111.280295573282643 ], [ 128.485308717789223, 123.696694520584572 ], [ 118.489999872787209, 123.696315173060185 ] ] ] } },
{ "type": "Feature", "properties": { "id": "shop_props:cr6ivxl4nefwgkn7zd01" }, "geometry": { "type": "Polygon", "coordinates": [ [ [ 69.071859495603093, 123.692896090980938 ], [ 69.081580333002449, 114.176605119593731 ], [ 79.583206827518438, 114.161155709038752 ], [ 79.583235908405442, 123.692896090980938 ], [ 69.071859495603093, 123.692896090980938 ] ] ] } },
{ "type": "Feature", "properties": { "id": "shop_props:c8v1dihtygpgmk4bxmqz" }, "geometry": { "type": "Polygon", "coordinates": [ [ [ 58.005108416881001, 114.739352022202425 ], [ 50.366594331755621, 114.792519019695476 ], [ 44.198883215955817, 114.835448181517251 ], [ 44.190395661262194, 110.197499083555215 ], [ 57.993308759228803, 110.15956647418524 ], [ 58.005108416881001, 114.739352022202425 ] ] ] } },
{ "type": "Feature", "properties": { "id": "shop_props:5t61vgu9cws2r9ss4rth" }, "geometry": { "type": "Polygon", "coordinates": [ [ [ 147.911930031245106, 123.568579245207303 ], [ 147.91907169576686, 111.289884128712927 ], [ 163.803866028234381, 111.299778384457241 ], [ 163.796724363712627, 123.578445208786874 ], [ 147.911930031245106, 123.568579245207303 ] ] ] } },
{ "type": "Feature", "properties": { "id": "shop_props:fze7ifdf8g16heyhxnkg" }, "geometry": { "type": "Polygon", "coordinates": [ [ [ 82.052515219969834, 123.696443547137491 ], [ 82.048694951010688, 116.250602882450735 ], [ 84.317456990960551, 116.249358469705982 ], [ 84.316343347459167, 114.076389390394439 ], [ 89.45085949109307, 114.07357168684733 ], [ 89.455792187271811, 123.69002153855196 ], [ 82.052515219969834, 123.696443547137491 ] ] ] } },
{ "type": "Feature", "properties": { "id": "shop_props:7f4wf3k602mdt3jfmemk" }, "geometry": { "type": "Polygon", "coordinates": [ [ [ 128.485308717789223, 123.696694520584572 ], [ 128.488847441667588, 111.280295573282643 ], [ 147.91907169576686, 111.289884128712927 ], [ 147.911930031245106, 123.568579245207303 ], [ 128.485308717789223, 123.696694520584572 ] ] ] } },
{ "type": "Feature", "properties": { "id": "shop_props:1n8gcq9fcun70munwjgw" }, "geometry": { "type": "Polygon", "coordinates": [ [ [ 273.556065655057637, 108.713902827513152 ], [ 273.542153826674848, 94.64199692455793 ], [ 282.35250497750485, 94.634440712823746 ], [ 282.363066303022549, 103.325281519356025 ], [ 278.53867598354509, 103.330289239942857 ], [ 278.545213670806731, 108.701331793248769 ], [ 273.556065655057637, 108.713902827513152 ] ] ] } },
{ "type": "Feature", "properties": { "id": "shop_props:c9bfn4qizhvlab4z0x85" }, "geometry": { "type": "Polygon", "coordinates": [ [ [ 290.750854541562035, 108.717520641690129 ], [ 290.759189956049227, 94.654773866229249 ], [ 300.023045695596863, 94.645545891361905 ], [ 300.11261345002697, 108.710623237624418 ], [ 290.750854541562035, 108.717520641690129 ] ] ] } },
{ "type": "Feature", "properties": { "id": "shop_props:b0jmx96br7s3nxu4kz6v" }, "geometry": { "type": "Polygon", "coordinates": [ [ [ 255.96059761836392, 108.745677641879141 ], [ 255.948130218739493, 100.907736648536158 ], [ 265.090942004266594, 100.892081293884885 ], [ 265.098689357007402, 108.722895162184486 ], [ 255.96059761836392, 108.745677641879141 ] ] ] } },
{ "type": "Feature", "properties": { "id": "shop_props:eaqgnewji5qirskjdz3o" }, "geometry": { "type": "Polygon", "coordinates": [ [ [ 176.002473833489631, 96.110763580943754 ], [ 181.924729990117726, 96.114995272360062 ], [ 181.922783820156098, 99.055635993218502 ], [ 185.113593582947487, 99.057914401590722 ], [ 185.136470879882069, 100.322598382148286 ], [ 175.996545184322315, 100.303994250939468 ], [ 176.002473833489631, 96.110763580943754 ] ] ] } },
{ "type": "Feature", "properties": { "id": "shop_props:00hgq6kn0gfdxbhfqzpt" }, "geometry": { "type": "Polygon", "coordinates": [ [ [ 282.35250497750485, 94.634440712823746 ], [ 290.759189956049227, 94.654773866229249 ], [ 290.750854541562035, 108.717520641690129 ], [ 282.352039874220964, 108.712166620007835 ], [ 282.363066303022549, 103.325281519356025 ], [ 282.35250497750485, 94.634440712823746 ] ] ] } },
{ "type": "Feature", "properties": { "id": "shop_props:n3dtl3b2rd68h7t2ecme" }, "geometry": { "type": "Polygon", "coordinates": [ [ [ 264.508119037000824, 94.651633797429568 ], [ 273.542153826674848, 94.64199692455793 ], [ 273.556065655057637, 108.713902827513152 ], [ 265.098689357007402, 108.722895162184486 ], [ 265.090942004266594, 100.892081293884885 ], [ 265.085962671568609, 95.851586615752268 ], [ 264.509304179945275, 95.852201583455042 ], [ 264.508119037000824, 94.651633797429568 ] ] ] } },
{ "type": "Feature", "properties": { "id": "shop_props:ell2ahol6np2q3hgkqsa" }, "geometry": { "type": "Polygon", "coordinates": [ [ [ 176.001936411303632, 89.580282584137152 ], [ 185.119857003605034, 89.586807553653131 ], [ 185.116955125995162, 93.977404492105606 ], [ 185.113593582947487, 99.057914401590722 ], [ 181.922783820156098, 99.055635993218502 ], [ 181.924729990117726, 96.114995272360062 ], [ 176.002473833489631, 96.110763580943754 ], [ 176.001936411303632, 89.580282584137152 ] ] ] } },
{ "type": "Feature", "properties": { "id": "shop_props:4fkz4gartf45mt9othm7" }, "geometry": { "type": "Polygon", "coordinates": [ [ [ 305.730611456487225, 108.672146404291027 ], [ 305.641043702057573, 94.606943318421557 ], [ 312.722438269250176, 94.642793302475809 ], [ 314.617927538279162, 94.444899946311935 ], [ 316.479893099200694, 93.177119583516117 ], [ 318.424637662482439, 92.578542368645572 ], [ 320.525948455795913, 92.628542159004226 ], [ 322.341922306851473, 93.220553390062591 ], [ 324.131710653595292, 94.483042925008021 ], [ 325.305683980322158, 95.973706976148762 ], [ 326.104888665158228, 97.894643987404947 ], [ 326.483484886302847, 99.783112703937917 ], [ 331.788960604827707, 97.076041779803859 ], [ 332.671460711446002, 97.9928741018783 ], [ 332.671460711446002, 102.030470961891751 ], [ 335.470818730098529, 102.030470961891751 ], [ 335.470818730098529, 112.958396729905047 ], [ 332.916357240266734, 112.952125312727475 ], [ 332.902585578384446, 111.553928198487299 ], [ 327.327788020331866, 111.61279850225803 ], [ 327.401598499628449, 117.262843072397501 ], [ 323.657525119619379, 117.204369480280278 ], [ 317.899980669535353, 111.583753819344935 ], [ 308.194150269058525, 111.644150112474875 ], [ 305.730611456487225, 108.672146404291027 ] ] ] } },
{ "type": "Feature", "properties": { "id": "shop_props:b6tju2kmgscgq6viqh95" }, "geometry": { "type": "Polygon", "coordinates": [ [ [ 228.041478682199255, 94.607665734539182 ], [ 244.572745795302041, 94.639368502379952 ], [ 244.611971627708641, 94.325166756593546 ], [ 245.19344475338977, 93.252274259021007 ], [ 246.515979808192412, 92.289254718932924 ], [ 248.011712837711457, 91.657135223191901 ], [ 249.605292166297886, 91.387902398341581 ], [ 251.21644494557583, 91.495189853216985 ], [ 252.63693262139077, 92.028052007321151 ], [ 254.113634074189349, 92.881130737414011 ], [ 255.488616082547253, 94.007774954969804 ], [ 255.884219446419365, 95.116595301188113 ], [ 253.165893353266739, 95.12107300391628 ], [ 253.180948371298257, 104.985389623029448 ], [ 250.700001963523817, 104.985385139987088 ], [ 250.700001963523817, 108.764315737695924 ], [ 228.03849783516219, 108.71978544310474 ], [ 228.041478682199255, 94.607665734539182 ] ] ] } },
{ "type": "Feature", "properties": { "id": "shop_props:7fzj44p3z0wgzoa4sk42" }, "geometry": { "type": "Polygon", "coordinates": [ [ [ 202.651564812492069, 108.712202319799772 ], [ 202.656287009780073, 94.604711811322872 ], [ 228.041478682199255, 94.607665734539182 ], [ 228.03849783516219, 108.71978544310474 ], [ 202.651564812492069, 108.712202319799772 ] ] ] } },
{ "type": "Feature", "properties": { "id": "shop_props:yoq4oxf6yh5x6xn6ixmz" }, "geometry": { "type": "Polygon", "coordinates": [ [ [ 185.137734692085814, 108.705897338190226 ], [ 185.136470879882069, 100.322598382148286 ], [ 185.113593582947487, 99.057914401590722 ], [ 185.116955125995162, 93.977404492105606 ], [ 192.798650571838721, 93.980073850765535 ], [ 192.798443033805796, 94.601151355130966 ], [ 202.656287009780073, 94.604711811322872 ], [ 202.651564812492069, 108.712202319799772 ], [ 185.137734692085814, 108.705897338190226 ] ] ] } },
{ "type": "Feature", "properties": { "id": "shop_props:t6nt548dxmz2whkam8a2" }, "geometry": { "type": "Polygon", "coordinates": [ [ [ 300.11261345002697, 108.710623237624418 ], [ 300.023045695596863, 94.645545891361905 ], [ 305.641043702057573, 94.606943318421557 ], [ 305.730611456487225, 108.672146404291027 ], [ 300.11261345002697, 108.710623237624418 ] ] ] } },
{ "type": "Feature", "properties": { "id": "shop_props:4x0yhgv0ct2xhqpqlhe8" }, "geometry": { "type": "Polygon", "coordinates": [ [ [ 140.032192085194083, 98.991404744785186 ], [ 143.46812466453926, 98.984837736084529 ], [ 143.446696816975305, 109.740810548550101 ], [ 140.006659699865054, 109.769715752611162 ], [ 140.032192085194083, 98.991404744785186 ] ] ] } },
{ "type": "Feature", "properties": { "id": "shop_props:gzh04ij3visim22xpqfs" }, "geometry": { "type": "Polygon", "coordinates": [ [ [ 140.006659699865054, 109.769715752611162 ], [ 134.913260106743394, 109.769715752611162 ], [ 134.913260106743394, 98.991404744785186 ], [ 140.032192085194083, 98.991404744785186 ], [ 140.006659699865054, 109.769715752611162 ] ] ] } },
{ "type": "Feature", "properties": { "id": "shop_props:pdgr4h7o23bi4iuaxndw" }, "geometry": { "type": "Polygon", "coordinates": [ [ [ 148.833688943136565, 98.998828006028916 ], [ 148.786884157702559, 109.739390459169641 ], [ 143.446696816975305, 109.740810548550101 ], [ 143.46812466453926, 98.984837736084529 ], [ 148.833688943136565, 98.998828006028916 ] ] ] } },
{ "type": "Feature", "properties": { "id": "shop_props:rqunnssbu3l2y52ddu9i" }, "geometry": { "type": "Polygon", "coordinates": [ [ [ 148.786884157702559, 109.739390459169641 ], [ 148.833688943136565, 98.998828006028916 ], [ 150.884762280133373, 99.68148295351962 ], [ 155.622235194891971, 101.809320340811823 ], [ 155.579628354736343, 109.643792656317217 ], [ 148.786884157702559, 109.739390459169641 ] ] ] } },
{ "type": "Feature", "properties": { "id": "shop_props:w3yodb9sh5zhextbdt67" }, "geometry": { "type": "Polygon", "coordinates": [ [ [ 175.996545184322315, 100.303994250939468 ], [ 185.136470879882069, 100.322598382148286 ], [ 185.109809042998478, 108.713951821906406 ], [ 178.234655982704112, 108.713951821906406 ], [ 176.081581733030191, 106.421860223185149 ], [ 175.996545184322315, 100.303994250939468 ] ] ] } },
{ "type": "Feature", "properties": { "id": "shop_props:rbz1io7negec11bi58x1" }, "geometry": { "type": "Polygon", "coordinates": [ [ [ 165.3100834147657, 101.856023369457716 ], [ 165.250366058187382, 109.672259706466392 ], [ 155.579628354736343, 109.643792656317217 ], [ 155.622235194891971, 101.809320340811823 ], [ 165.3100834147657, 101.856023369457716 ] ] ] } },
{ "type": "Feature", "properties": { "id": "shop_props:nn1gs7b64nr7m9y31t8d" }, "geometry": { "type": "Polygon", "coordinates": [ [ [ 105.327224565115401, 87.023241936594033 ], [ 105.327224565115401, 74.502562160288335 ], [ 112.179328609503173, 74.502562160288335 ], [ 112.223292613544572, 83.361453831534874 ], [ 117.090029628653056, 83.361453831534874 ], [ 117.090029628653056, 87.023241936594033 ], [ 105.327224565115401, 87.023241936594033 ] ] ] } },
{ "type": "Feature", "properties": { "id": "shop_props:ggia5giiozjcxdl55vid" }, "geometry": { "type": "Polygon", "coordinates": [ [ [ 129.061473052858389, 74.889811588010275 ], [ 129.058365339769523, 83.228799763828704 ], [ 123.354694224692949, 83.226488120061987 ], [ 123.353915893584883, 85.312495813740952 ], [ 118.572640307339867, 85.310558938864489 ], [ 118.57652635153687, 74.885553974337611 ], [ 129.061473052858389, 74.889811588010275 ] ] ] } },
{ "type": "Feature", "properties": { "id": "shop_props:9x1u7om04w9lepqjros3" }, "geometry": { "type": "Polygon", "coordinates": [ [ [ 123.399884037854434, 85.350021883897114 ], [ 123.397207124836797, 83.250198474202037 ], [ 129.058365339769523, 83.228799763828704 ], [ 129.018262431152124, 87.368786592183341 ], [ 118.578084829169498, 87.437585526481584 ], [ 118.572640307339867, 85.310558938864489 ], [ 123.399884037854434, 85.350021883897114 ] ] ] } },
{ "type": "Feature", "properties": { "id": "shop_props:cq9esia3hw2n3kwopv9x" }, "geometry": { "type": "Polygon", "coordinates": [ [ [ 129.002664263727297, 93.636766105707963 ], [ 129.001779571050946, 98.92656568838629 ], [ 118.552026865687779, 98.913393360076412 ], [ 118.55632567945807, 93.596833514324786 ], [ 129.002664263727297, 93.636766105707963 ] ] ] } },
{ "type": "Feature", "properties": { "id": "shop_props:nkj1htcrspwsskjpez36" }, "geometry": { "type": "Polygon", "coordinates": [ [ [ 129.002664263727297, 93.636766105707963 ], [ 118.55632567945807, 93.596833514324786 ], [ 118.578084829169498, 87.437585526481584 ], [ 129.018262431152124, 87.368786592183341 ], [ 129.002664263727297, 93.636766105707963 ] ] ] } },
{ "type": "Feature", "properties": { "id": "shop_props:ggsbg5jw67vkutxv5z03" }, "geometry": { "type": "Polygon", "coordinates": [ [ [ 118.552026865687779, 98.913393360076412 ], [ 129.001779571050946, 98.92656568838629 ], [ 134.913260106743394, 98.991404744785186 ], [ 134.913260106743394, 109.769715752611162 ], [ 118.541199573213021, 109.786981829710754 ], [ 118.552026865687779, 98.913393360076412 ] ] ] } },
{ "type": "Feature", "properties": { "id": "shop_props:d1pcefspp5x9mxla4t93" }, "geometry": { "type": "Polygon", "coordinates": [ [ [ 148.461537591871377, 48.971664216150657 ], [ 148.463431016292333, 52.418077313052613 ], [ 150.515719035777664, 52.416834377605483 ], [ 150.519616713289764, 59.502870567539901 ], [ 149.129086705803559, 59.503711357880697 ], [ 149.126603364597059, 54.990287368559848 ], [ 144.886139470812481, 54.992854029739242 ], [ 139.407989431044967, 54.996169832974573 ], [ 139.41199929458719, 62.281699939366071 ], [ 140.033758758016262, 62.28132422896195 ], [ 140.034177188760481, 63.040873024069796 ], [ 132.830099938770218, 63.045049509535836 ], [ 132.830115127877008, 48.923613169105799 ], [ 148.461537591871377, 48.971664216150657 ] ] ] } },
{ "type": "Feature", "properties": { "id": "shop_props:w3u50d2kwv761yfztx4v" }, "geometry": { "type": "Polygon", "coordinates": [ [ [ 90.838952605385884, 63.035401341808694 ], [ 90.82918526594267, 49.012334212318173 ], [ 132.830115127877008, 48.923613169105799 ], [ 132.830099938770218, 63.045049509535836 ], [ 90.838952605385884, 63.035401341808694 ] ] ] } },
{ "type": "Feature", "properties": { "id": "shop_props:kscd3clqkrfqpu313hiq" }, "geometry": { "type": "Polygon", "coordinates": [ [ [ 153.496735977540823, 63.045049509535836 ], [ 153.496735977540823, 60.142915861675533 ], [ 155.635320105155898, 60.142915861675533 ], [ 155.549174920351533, 52.44313945276857 ], [ 157.89284063324547, 52.44313945276857 ], [ 161.144530328321196, 54.215486266513778 ], [ 164.633551350491246, 56.293293742724821 ], [ 164.66226641229261, 58.510467018659938 ], [ 156.234197122566712, 62.361391947685973 ], [ 156.152314260095153, 62.999944175513512 ], [ 153.496735977540823, 63.045049509535836 ] ] ] } },
{ "type": "Feature", "properties": { "id": "shop_props:afqqo2lauvd2rm41mhlu" }, "geometry": { "type": "Polygon", "coordinates": [ [ [ 82.12694350947325, 87.053383225385133 ], [ 82.12694350947325, 80.973518116289242 ], [ 82.12694350947325, 74.451571686252834 ], [ 93.71418114507054, 74.451571686252834 ], [ 93.71418114507054, 87.053383225385133 ], [ 82.12694350947325, 87.053383225385133 ] ] ] } },
{ "type": "Feature", "properties": { "id": "shop_props:33801ekiwbarh2hbfv5n" }, "geometry": { "type": "Polygon", "coordinates": [ [ [ 112.179328609503173, 74.502562160288335 ], [ 116.703960514081217, 74.485687024592409 ], [ 116.703960514081217, 74.916071756091682 ], [ 117.044189806851591, 74.916071756091682 ], [ 117.090029628653056, 83.361453831534874 ], [ 112.223292613544572, 83.361453831534874 ], [ 112.179328609503173, 74.502562160288335 ] ] ] } },
{ "type": "Feature", "properties": { "id": "shop_props:49r9ooj4szrfik4agmim" }, "geometry": { "type": "Polygon", "coordinates": [ [ [ 93.713337508788484, 111.618654162929644 ], [ 93.715768187300782, 74.496269994187273 ], [ 105.302273663649046, 74.497994537789964 ], [ 105.300558208300572, 87.052434457508795 ], [ 117.04670455824936, 87.054177713596502 ], [ 117.041669504744817, 123.693575126230215 ], [ 89.457240886222337, 123.689515985660066 ], [ 89.45085949109307, 114.07357168684733 ], [ 84.316343347459167, 114.076389390394439 ], [ 84.317406504485177, 111.617259842404493 ], [ 93.713337508788484, 111.618654162929644 ] ] ] } },
{ "type": "Feature", "properties": { "id": "shop_props:em3o8bcuipg2iswkyywk" }, "geometry": { "type": "Polygon", "coordinates": [ [ [ 52.272939427239422, 87.053357322021554 ], [ 52.272939427239422, 74.532794465982519 ], [ 58.087313751154241, 74.532794465982519 ], [ 58.087313751154241, 87.053383225385133 ], [ 52.272939427239422, 87.053357322021554 ] ] ] } },
{ "type": "Feature", "properties": { "id": "shop_props:l2qi4hf8tlechaq55x97" }, "geometry": { "type": "Polygon", "coordinates": [ [ [ 50.366594331755621, 114.792519019695476 ], [ 50.366755449990926, 119.206063495465756 ], [ 47.058925512515827, 119.206063495465756 ], [ 47.061119121857004, 123.355270087378472 ], [ 0.516746639917416, 123.378517445814424 ], [ 0.623581486861375, 74.680253836236204 ], [ 11.430867950840403, 74.684341171152056 ], [ 34.391136503383144, 74.693024773103275 ], [ 34.40520455305866, 82.441035421139446 ], [ 30.656626847982121, 82.44843959417841 ], [ 30.68710054611622, 99.184529646554381 ], [ 30.690777043555055, 101.199279980183988 ], [ 44.173906394972896, 101.172763310722956 ], [ 44.190395661262194, 110.197499083555215 ], [ 44.198883215955817, 114.835448181517251 ], [ 50.366594331755621, 114.792519019695476 ] ] ] } },
{ "type": "Feature", "properties": { "id": "shop_props:m22mpomwn8g0aussrdz2" }, "geometry": { "type": "Polygon", "coordinates": [ [ [ 69.081580333002449, 114.176605119593731 ], [ 69.061090631451449, 102.210365477057152 ], [ 82.323632047387875, 102.208441433248964 ], [ 82.320785606025552, 111.616963551697296 ], [ 82.32001603922599, 114.157129458160114 ], [ 79.583206827518438, 114.161155709038752 ], [ 69.081580333002449, 114.176605119593731 ] ] ] } },
{ "type": "Feature", "properties": { "id": "shop_props:2m84a880ukd5v0hqd77a" }, "geometry": { "type": "Polygon", "coordinates": [ [ [ 69.072140797547661, 87.056366928069451 ], [ 93.71418114507054, 87.053383225385133 ], [ 93.713337508788484, 111.618654162929644 ], [ 84.317406504485177, 111.617259842404493 ], [ 82.320785606025552, 111.616963551697296 ], [ 82.323632047387875, 102.208441433248964 ], [ 69.06244528052892, 102.206460767319484 ], [ 69.072140797547661, 87.056366928069451 ] ] ] } },
{ "type": "Feature", "properties": { "id": "shop_props:cnhns62f10se2wpfb9hl" }, "geometry": { "type": "Polygon", "coordinates": [ [ [ 69.071859495603093, 87.053383225385133 ], [ 69.071859495603093, 80.973518116289242 ], [ 82.12694350947325, 80.973518116289242 ], [ 82.12694350947325, 87.053383225385133 ], [ 69.071859495603093, 87.053383225385133 ] ] ] } },
{ "type": "Feature", "properties": { "id": "shop_props:g8wh50kgx3uz9l039ww2" }, "geometry": { "type": "Polygon", "coordinates": [ [ [ 57.988170405870342, 101.119658248743406 ], [ 57.993308759228803, 110.15956647418524 ], [ 44.190395661262194, 110.197499083555215 ], [ 44.220188563112934, 101.147971818464327 ], [ 57.988170405870342, 101.119658248743406 ] ] ] } },
{ "type": "Feature", "properties": { "id": "shop_props:72qah7bxi7nohowz2kc0" }, "geometry": { "type": "Polygon", "coordinates": [ [ [ 0.623581486861375, 74.680253836236204 ], [ 0.588129605673643, 54.655938362620617 ], [ 9.285503461452913, 54.639026535592954 ], [ 9.291983893448231, 58.306251271181004 ], [ 6.465801097656682, 58.311742118355397 ], [ 6.473551430465634, 62.693554545917877 ], [ 11.409784121145158, 62.683973793839243 ], [ 11.430867950840403, 74.684341171152056 ], [ 0.623581486861375, 74.680253836236204 ] ] ] } },
{ "type": "Feature", "properties": { "id": "shop_props:bb6nu7w99t7a1q5qwjxq" }, "geometry": { "type": "Polygon", "coordinates": [ [ [ 22.750493691172494, 63.05105110182771 ], [ 22.753734804372936, 55.099594777364125 ], [ 28.321461133550759, 55.104973056142157 ], [ 28.314597627613072, 63.062652316944863 ], [ 22.750493691172494, 63.05105110182771 ] ] ] } },
{ "type": "Feature", "properties": { "id": "shop_props:655jydgzru761s3qmcfe" }, "geometry": { "type": "Polygon", "coordinates": [ [ [ 60.858173769171358, 63.045049509535836 ], [ 60.858173769171358, 55.556929740266568 ], [ 65.664370203451213, 55.556896480409449 ], [ 65.669596454437027, 63.05465669853443 ], [ 60.858173769171358, 63.045049509535836 ] ] ] } },
{ "type": "Feature", "properties": { "id": "shop_props:b064fav7qfba6kfa6enj" }, "geometry": { "type": "Polygon", "coordinates": [ [ [ 69.071859495603093, 80.973518116289242 ], [ 69.071859495603093, 74.532794465982519 ], [ 82.12694350947325, 74.451571686252834 ], [ 82.12694350947325, 80.973518116289242 ], [ 69.071859495603093, 80.973518116289242 ] ] ] } },
{ "type": "Feature", "properties": { "id": "shop_props:0b4s121jv5r0lo8ah14x" }, "geometry": { "type": "Polygon", "coordinates": [ [ [ 46.082138849680959, 87.053329741280194 ], [ 46.082306677273579, 74.532783583526509 ], [ 52.272939427239422, 74.532794465982519 ], [ 52.272939427239422, 87.053357322021554 ], [ 46.082138849680959, 87.053329741280194 ] ] ] } },
{ "type": "Feature", "properties": { "id": "shop_props:r2kw7lcusyuri3xxjdhk" }, "geometry": { "type": "Polygon", "coordinates": [ [ [ 58.087313751154241, 87.053383225385133 ], [ 58.165080446147144, 99.184577827266494 ], [ 30.68710054611622, 99.184529646554381 ], [ 30.656626847982121, 82.44843959417841 ], [ 34.40520455305866, 82.441035421139446 ], [ 34.391136503383144, 74.693024773103275 ], [ 46.082306677273579, 74.532783583526509 ], [ 46.082138849680959, 87.053329741280194 ], [ 52.272939427239422, 87.053357322021554 ], [ 58.087313751154241, 87.053383225385133 ] ] ] } },
{ "type": "Feature", "properties": { "id": "shop_props:vfsgtqnejzaggopp46ol" }, "geometry": { "type": "Polygon", "coordinates": [ [ [ 34.407916195526241, 48.936499694552062 ], [ 44.882961150529894, 48.904114653396185 ], [ 44.928908320852571, 63.057418261280482 ], [ 34.398334544278903, 63.067183315921305 ], [ 34.407916195526241, 48.936499694552062 ] ] ] } },
{ "type": "Feature", "properties": { "id": "shop_props:e6xc1tgjvnd0zpvxm90y" }, "geometry": { "type": "Polygon", "coordinates": [ [ [ 52.094234807900648, 63.040534465193154 ], [ 44.928908320852571, 63.057418261280482 ], [ 44.882961150529894, 48.904114653396185 ], [ 52.103080605429867, 48.926114913489705 ], [ 52.100697207597072, 52.733561028841244 ], [ 52.094234807900648, 63.040534465193154 ] ] ] } },
{ "type": "Feature", "properties": { "id": "shop_props:qno0hjbn2a448vyn2ujp" }, "geometry": { "type": "Polygon", "coordinates": [ [ [ 65.664370203451213, 55.556896480409449 ], [ 65.659829114993812, 49.031651345602192 ], [ 90.82918526594267, 49.012334212318173 ], [ 90.838952605385884, 63.035401341808694 ], [ 65.669596454437027, 63.05465669853443 ], [ 65.664370203451213, 55.556896480409449 ] ] ] } },
{ "type": "Feature", "properties": { "id": "shop_props:sjgun8bj64iv9it7pi4p" }, "geometry": { "type": "Polygon", "coordinates": [ [ [ 34.398334544278903, 63.067183315921305 ], [ 28.314597627613072, 63.062652316944863 ], [ 28.31999799771479, 55.103975937480925 ], [ 22.75030532667828, 55.099593241148256 ], [ 22.752346357566957, 50.084889729473318 ], [ 22.753807873695507, 48.927791972231311 ], [ 34.407916195526241, 48.936499694552062 ], [ 34.398334544278903, 63.067183315921305 ] ] ] } },
{ "type": "Feature", "properties": { "id": "shop_props:hfbzqgodmn0putbd15in" }, "geometry": { "type": "Polygon", "coordinates": [ [ [ 52.094234807900648, 63.040534465193154 ], [ 52.100697207597072, 52.733561028841244 ], [ 58.135638269121337, 52.732987811308114 ], [ 58.136197566358121, 59.225923227345426 ], [ 55.413919055235802, 59.226181017057129 ], [ 55.414248255005759, 63.043391099919113 ], [ 52.094234807900648, 63.040534465193154 ] ] ] } },
{ "type": "Feature", "properties": { "id": "shop_props:116pp8njh5l0xuhb4d7v" }, "geometry": { "type": "Polygon", "coordinates": [ [ [ 13.708993389804785, 63.047005983950882 ], [ 13.714275534494119, 50.08083414932122 ], [ 22.752346357566957, 50.084889729473318 ], [ 22.75030532667828, 55.099593241148256 ], [ 22.753734804372936, 55.099594777364125 ], [ 22.750493691172494, 63.05105110182771 ], [ 13.708993389804785, 63.047005983950882 ] ] ] } }
]
}
